{
"type": "FeatureCollection",
"name": "buildings",
"features": [
{ "type": "Feature", "properties": { "layer": "buildings" }, "geometry": { "type": "Polygon", "coordinates": [ [ [ 0.0, 34.0 ], [ 0.0, 71.0 ], [ 2.0, 71.0 ], [ 2.0, 34.0 ], [ 0.0, 34.0 ] ] ] } },
{ "type": "Feature", "properties": { "layer": "buildings" }, "geometry": { "type": "Polygon", "coordinates": [ [ [ 202.0, 133.0 ], [ 197.0, 136.0 ], [ 199.0, 137.0 ], [ 198.0, 143.0 ], [ 202.0, 139.0 ], [ 209.0, 139.0 ], [ 201.0, 138.0 ], [ 202.0, 133.0 ] ] ] } },
{ "type": "Feature", "properties": { "layer": "buildings" }, "geometry": { "type": "Polygon", "coordinates": [ [ [ 181.0, 139.0 ], [ 181.0, 145.0 ], [ 189.0, 143.0 ], [ 184.0, 141.0 ], [ 183.0, 144.0 ], [ 183.0, 139.0 ], [ 181.0, 139.0 ] ] ] } },
{ "type": "Feature", "properties": { "layer": "buildings" }, "geometry": { "type": "Polygon", "coordinates": [ [ [ 1111.0, 140.0 ], [ 1112.0, 147.0 ], [ 1115.0, 147.0 ], [ 1115.0, 141.0 ], [ 1111.0, 140.0 ] ] ] } },
{ "type": "Feature", "properties": { "layer": "buildings" }, "geometry": { "type": "Polygon", "coordinates": [ [ [ 206.0, 149.0 ], [ 207.0, 155.0 ], [ 211.0, 155.0 ], [ 208.0, 154.0 ], [ 212.0, 152.0 ], [ 211.0, 149.0 ], [ 206.0, 149.0 ] ] ] } },
{ "type": "Feature", "properties": { "layer": "buildings" }, "geometry": { "type": "Polygon", "coordinates": [ [ [ 1460.0, 162.0 ], [ 1445.0, 164.0 ], [ 1477.0, 164.0 ], [ 1477.0, 163.0 ], [ 1460.0, 162.0 ] ] ] } },
{ "type": "Feature", "properties": { "layer": "buildings" }, "geometry": { "type": "Polygon", "coordinates": [ [ [ 1708.0, 159.0 ], [ 1701.0, 161.0 ], [ 1709.0, 162.0 ], [ 1708.0, 165.0 ], [ 1711.0, 161.0 ], [ 1718.0, 161.0 ], [ 1708.0, 159.0 ] ] ] } },
{ "type": "Feature", "properties": { "layer": "buildings" }, "geometry": { "type": "Polygon", "coordinates": [ [ [ 1753.0, 163.0 ], [ 1755.0, 166.0 ], [ 1757.0, 164.0 ], [ 1771.0, 165.0 ], [ 1771.0, 163.0 ], [ 1753.0, 163.0 ] ] ] } },
{ "type": "Feature", "properties": { "layer": "buildings" }, "geometry": { "type": "Polygon", "coordinates": [ [ [ 1189.0, 164.0 ], [ 1188.0, 167.0 ], [ 1192.0, 169.0 ], [ 1203.0, 168.0 ], [ 1209.0, 170.0 ], [ 1224.0, 168.0 ], [ 1191.0, 167.0 ], [ 1193.0, 164.0 ], [ 1189.0, 164.0 ] ] ] } },
{ "type": "Feature", "properties": { "layer": "buildings" }, "geometry": { "type": "Polygon", "coordinates": [ [ [ 369.0, 173.0 ], [ 341.0, 174.0 ], [ 369.0, 174.0 ], [ 369.0, 173.0 ] ] ] } },
{ "type": "Feature", "properties": { "layer": "buildings" }, "geometry": { "type": "Polygon", "coordinates": [ [ [ 124.0, 171.0 ], [ 123.0, 174.0 ], [ 131.0, 175.0 ], [ 131.0, 173.0 ], [ 127.0, 173.0 ], [ 129.0, 171.0 ], [ 124.0, 171.0 ] ] ] } },
{ "type": "Feature", "properties": { "layer": "buildings" }, "geometry": { "type": "Polygon", "coordinates": [ [ [ 1185.0, 171.0 ], [ 1183.0, 176.0 ], [ 1238.0, 175.0 ], [ 1185.0, 174.0 ], [ 1185.0, 171.0 ] ] ] } },
{ "type": "Feature", "properties": { "layer": "buildings" }, "geometry": { "type": "Polygon", "coordinates": [ [ [ 1162.0, 174.0 ], [ 1164.0, 177.0 ], [ 1177.0, 176.0 ], [ 1177.0, 175.0 ], [ 1162.0, 174.0 ] ] ] } },
{ "type": "Feature", "properties": { "layer": "buildings" }, "geometry": { "type": "Polygon", "coordinates": [ [ [ 819.0, 175.0 ], [ 819.0, 177.0 ], [ 890.0, 177.0 ], [ 888.0, 175.0 ], [ 819.0, 175.0 ] ] ] } },
{ "type": "Feature", "properties": { "layer": "buildings" }, "geometry": { "type": "Polygon", "coordinates": [ [ [ 753.0, 175.0 ], [ 750.0, 177.0 ], [ 768.0, 177.0 ], [ 763.0, 175.0 ], [ 753.0, 175.0 ] ] ] } },
{ "type": "Feature", "properties": { "layer": "buildings" }, "geometry": { "type": "Polygon", "coordinates": [ [ [ 817.0, 175.0 ], [ 803.0, 176.0 ], [ 782.0, 177.0 ], [ 817.0, 177.0 ], [ 817.0, 175.0 ] ] ] } },
{ "type": "Feature", "properties": { "layer": "buildings" }, "geometry": { "type": "Polygon", "coordinates": [ [ [ 896.0, 175.0 ], [ 891.0, 177.0 ], [ 929.0, 177.0 ], [ 926.0, 175.0 ], [ 896.0, 175.0 ] ] ] } },
{ "type": "Feature", "properties": { "layer": "buildings" }, "geometry": { "type": "Polygon", "coordinates": [ [ [ 1016.0, 173.0 ], [ 1016.0, 175.0 ], [ 932.0, 175.0 ], [ 930.0, 177.0 ], [ 1086.0, 176.0 ], [ 1072.0, 173.0 ], [ 1066.0, 175.0 ], [ 1057.0, 173.0 ], [ 1018.0, 175.0 ], [ 1016.0, 173.0 ] ] ] } },
{ "type": "Feature", "properties": { "layer": "buildings" }, "geometry": { "type": "Polygon", "coordinates": [ [ [ 2143.0, 174.0 ], [ 2144.0, 179.0 ], [ 2158.0, 179.0 ], [ 2158.0, 177.0 ], [ 2147.0, 177.0 ], [ 2146.0, 175.0 ], [ 2149.0, 174.0 ], [ 2143.0, 174.0 ] ] ] } },
{ "type": "Feature", "properties": { "layer": "buildings" }, "geometry": { "type": "Polygon", "coordinates": [ [ [ 135.0, 177.0 ], [ 136.0, 179.0 ], [ 155.0, 178.0 ], [ 155.0, 177.0 ], [ 135.0, 177.0 ] ] ] } },
{ "type": "Feature", "properties": { "layer": "buildings" }, "geometry": { "type": "Polygon", "coordinates": [ [ [ 1705.0, 177.0 ], [ 1706.0, 179.0 ], [ 1764.0, 179.0 ], [ 1764.0, 177.0 ], [ 1705.0, 177.0 ] ] ] } },
{ "type": "Feature", "properties": { "layer": "buildings" }, "geometry": { "type": "Polygon", "coordinates": [ [ [ 2170.0, 177.0 ], [ 2171.0, 179.0 ], [ 2189.0, 178.0 ], [ 2189.0, 177.0 ], [ 2170.0, 177.0 ] ] ] } },
{ "type": "Feature", "properties": { "layer": "buildings" }, "geometry": { "type": "Polygon", "coordinates": [ [ [ 2198.0, 176.0 ], [ 2190.0, 178.0 ], [ 2213.0, 178.0 ], [ 2213.0, 177.0 ], [ 2198.0, 176.0 ] ] ] } },
{ "type": "Feature", "properties": { "layer": "buildings" }, "geometry": { "type": "Polygon", "coordinates": [ [ [ 227.0, 177.0 ], [ 226.0, 179.0 ], [ 238.0, 179.0 ], [ 238.0, 177.0 ], [ 227.0, 177.0 ] ] ] } },
{ "type": "Feature", "properties": { "layer": "buildings" }, "geometry": { "type": "Polygon", "coordinates": [ [ [ 1296.0, 177.0 ], [ 1296.0, 179.0 ], [ 1302.0, 180.0 ], [ 1337.0, 178.0 ], [ 1296.0, 177.0 ] ], [ [ 1308.0, 179.0 ], [ 1310.0, 178.0 ], [ 1310.0, 179.0 ], [ 1308.0, 179.0 ] ], [ [ 1311.0, 179.0 ], [ 1312.0, 178.0 ], [ 1312.0, 179.0 ], [ 1311.0, 179.0 ] ] ] } },
{ "type": "Feature", "properties": { "layer": "buildings" }, "geometry": { "type": "Polygon", "coordinates": [ [ [ 2069.0, 177.0 ], [ 2070.0, 180.0 ], [ 2088.0, 180.0 ], [ 2087.0, 177.0 ], [ 2069.0, 177.0 ] ] ] } },
{ "type": "Feature", "properties": { "layer": "buildings" }, "geometry": { "type": "Polygon", "coordinates": [ [ [ 1686.0, 178.0 ], [ 1663.0, 178.0 ], [ 1665.0, 180.0 ], [ 1686.0, 178.0 ] ] ] } },
{ "type": "Feature", "properties": { "layer": "buildings" }, "geometry": { "type": "Polygon", "coordinates": [ [ [ 2132.0, 175.0 ], [ 2129.0, 177.0 ], [ 2120.0, 176.0 ], [ 2119.0, 178.0 ], [ 2091.0, 178.0 ], [ 2091.0, 180.0 ], [ 2143.0, 179.0 ], [ 2143.0, 177.0 ], [ 2132.0, 175.0 ] ] ] } },
{ "type": "Feature", "properties": { "layer": "buildings" }, "geometry": { "type": "Polygon", "coordinates": [ [ [ 291.0, 177.0 ], [ 291.0, 179.0 ], [ 295.0, 178.0 ], [ 301.0, 181.0 ], [ 303.0, 181.0 ], [ 303.0, 178.0 ], [ 307.0, 180.0 ], [ 316.0, 178.0 ], [ 291.0, 177.0 ] ], [ [ 308.0, 179.0 ], [ 309.0, 178.0 ], [ 309.0, 179.0 ], [ 308.0, 179.0 ] ] ] } },
{ "type": "Feature", "properties": { "layer": "buildings" }, "geometry": { "type": "Polygon", "coordinates": [ [ [ 1638.0, 178.0 ], [ 1639.0, 181.0 ], [ 1646.0, 181.0 ], [ 1645.0, 179.0 ], [ 1647.0, 179.0 ], [ 1638.0, 178.0 ] ] ] } },
{ "type": "Feature", "properties": { "layer": "buildings" }, "geometry": { "type": "Polygon", "coordinates": [ [ [ 1449.0, 179.0 ], [ 1469.0, 181.0 ], [ 1477.0, 180.0 ], [ 1477.0, 179.0 ], [ 1449.0, 179.0 ] ] ] } },
{ "type": "Feature", "properties": { "layer": "buildings" }, "geometry": { "type": "Polygon", "coordinates": [ [ [ 1138.0, 179.0 ], [ 1137.0, 181.0 ], [ 1142.0, 181.0 ], [ 1142.0, 183.0 ], [ 1158.0, 180.0 ], [ 1138.0, 179.0 ] ] ] } },
{ "type": "Feature", "properties": { "layer": "buildings" }, "geometry": { "type": "Polygon", "coordinates": [ [ [ 969.0, 180.0 ], [ 968.0, 183.0 ], [ 1069.0, 183.0 ], [ 1069.0, 181.0 ], [ 1073.0, 181.0 ], [ 969.0, 180.0 ] ], [ [ 1065.0, 182.0 ], [ 1067.0, 181.0 ], [ 1067.0, 182.0 ], [ 1065.0, 182.0 ] ] ] } },
{ "type": "Feature", "properties": { "layer": "buildings" }, "geometry": { "type": "Polygon", "coordinates": [ [ [ 1108.0, 179.0 ], [ 1108.0, 181.0 ], [ 1113.0, 181.0 ], [ 1112.0, 183.0 ], [ 1124.0, 183.0 ], [ 1124.0, 181.0 ], [ 1133.0, 180.0 ], [ 1108.0, 179.0 ] ], [ [ 1122.0, 182.0 ], [ 1123.0, 181.0 ], [ 1123.0, 182.0 ], [ 1122.0, 182.0 ] ] ] } },
{ "type": "Feature", "properties": { "layer": "buildings" }, "geometry": { "type": "Polygon", "coordinates": [ [ [ 2140.0, 181.0 ], [ 2137.0, 184.0 ], [ 2188.0, 183.0 ], [ 2188.0, 181.0 ], [ 2140.0, 181.0 ] ] ] } },
{ "type": "Feature", "properties": { "layer": "buildings" }, "geometry": { "type": "Polygon", "coordinates": [ [ [ 1040.0, 186.0 ], [ 1020.0, 187.0 ], [ 1040.0, 187.0 ], [ 1040.0, 186.0 ] ] ] } },
{ "type": "Feature", "properties": { "layer": "buildings" }, "geometry": { "type": "Polygon", "coordinates": [ [ [ 957.0, 186.0 ], [ 964.0, 187.0 ], [ 964.0, 189.0 ], [ 970.0, 188.0 ], [ 970.0, 186.0 ], [ 957.0, 186.0 ] ] ] } },
{ "type": "Feature", "properties": { "layer": "buildings" }, "geometry": { "type": "Polygon", "coordinates": [ [ [ 346.0, 188.0 ], [ 342.0, 190.0 ], [ 368.0, 190.0 ], [ 368.0, 189.0 ], [ 346.0, 188.0 ] ] ] } },
{ "type": "Feature", "properties": { "layer": "buildings" }, "geometry": { "type": "Polygon", "coordinates": [ [ [ 934.0, 186.0 ], [ 937.0, 187.0 ], [ 936.0, 190.0 ], [ 939.0, 190.0 ], [ 939.0, 187.0 ], [ 953.0, 187.0 ], [ 934.0, 186.0 ] ] ] } },
{ "type": "Feature", "properties": { "layer": "buildings" }, "geometry": { "type": "Polygon", "coordinates": [ [ [ 980.0, 188.0 ], [ 977.0, 190.0 ], [ 993.0, 189.0 ], [ 993.0, 188.0 ], [ 980.0, 188.0 ] ] ] } },
{ "type": "Feature", "properties": { "layer": "buildings" }, "geometry": { "type": "Polygon", "coordinates": [ [ [ 265.0, 189.0 ], [ 265.0, 191.0 ], [ 277.0, 190.0 ], [ 277.0, 189.0 ], [ 265.0, 189.0 ] ] ] } },
{ "type": "Feature", "properties": { "layer": "buildings" }, "geometry": { "type": "Polygon", "coordinates": [ [ [ 1506.0, 187.0 ], [ 1497.0, 187.0 ], [ 1497.0, 191.0 ], [ 1503.0, 190.0 ], [ 1502.0, 188.0 ], [ 1505.0, 190.0 ], [ 1506.0, 187.0 ] ], [ [ 1499.0, 189.0 ], [ 1501.0, 188.0 ], [ 1501.0, 189.0 ], [ 1499.0, 189.0 ] ] ] } },
{ "type": "Feature", "properties": { "layer": "buildings" }, "geometry": { "type": "Polygon", "coordinates": [ [ [ 677.0, 194.0 ], [ 682.0, 196.0 ], [ 691.0, 196.0 ], [ 691.0, 194.0 ], [ 677.0, 194.0 ] ] ] } },
{ "type": "Feature", "properties": { "layer": "buildings" }, "geometry": { "type": "Polygon", "coordinates": [ [ [ 1073.0, 193.0 ], [ 1056.0, 195.0 ], [ 1074.0, 196.0 ], [ 1073.0, 193.0 ] ] ] } },
{ "type": "Feature", "properties": { "layer": "buildings" }, "geometry": { "type": "Polygon", "coordinates": [ [ [ 1296.0, 196.0 ], [ 1287.0, 195.0 ], [ 1266.0, 196.0 ], [ 1296.0, 196.0 ] ] ] } },
{ "type": "Feature", "properties": { "layer": "buildings" }, "geometry": { "type": "Polygon", "coordinates": [ [ [ 1794.0, 195.0 ], [ 1773.0, 196.0 ], [ 1794.0, 196.0 ], [ 1794.0, 195.0 ] ] ] } },
{ "type": "Feature", "properties": { "layer": "buildings" }, "geometry": { "type": "Polygon", "coordinates": [ [ [ 330.0, 193.0 ], [ 330.0, 196.0 ], [ 332.0, 197.0 ], [ 386.0, 196.0 ], [ 382.0, 195.0 ], [ 382.0, 193.0 ], [ 362.0, 193.0 ], [ 357.0, 195.0 ], [ 347.0, 195.0 ], [ 347.0, 193.0 ], [ 346.0, 195.0 ], [ 333.0, 195.0 ], [ 338.0, 193.0 ], [ 330.0, 193.0 ] ], [ [ 331.0, 195.0 ], [ 332.0, 194.0 ], [ 332.0, 195.0 ], [ 331.0, 195.0 ] ], [ [ 379.0, 195.0 ], [ 380.0, 194.0 ], [ 380.0, 195.0 ], [ 379.0, 195.0 ] ] ] } },
{ "type": "Feature", "properties": { "layer": "buildings" }, "geometry": { "type": "Polygon", "coordinates": [ [ [ 1534.0, 193.0 ], [ 1534.0, 196.0 ], [ 1539.0, 197.0 ], [ 1545.0, 196.0 ], [ 1534.0, 193.0 ] ] ] } },
{ "type": "Feature", "properties": { "layer": "buildings" }, "geometry": { "type": "Polygon", "coordinates": [ [ [ 424.0, 194.0 ], [ 425.0, 196.0 ], [ 434.0, 197.0 ], [ 445.0, 196.0 ], [ 424.0, 194.0 ] ] ] } },
{ "type": "Feature", "properties": { "layer": "buildings" }, "geometry": { "type": "Polygon", "coordinates": [ [ [ 1297.0, 194.0 ], [ 1297.0, 196.0 ], [ 1311.0, 197.0 ], [ 1311.0, 195.0 ], [ 1297.0, 194.0 ] ] ] } },
{ "type": "Feature", "properties": { "layer": "buildings" }, "geometry": { "type": "Polygon", "coordinates": [ [ [ 1451.0, 193.0 ], [ 1449.0, 196.0 ], [ 1453.0, 197.0 ], [ 1516.0, 197.0 ], [ 1531.0, 196.0 ], [ 1530.0, 194.0 ], [ 1533.0, 196.0 ], [ 1533.0, 193.0 ], [ 1504.0, 193.0 ], [ 1496.0, 195.0 ], [ 1493.0, 193.0 ], [ 1490.0, 195.0 ], [ 1486.0, 193.0 ], [ 1485.0, 195.0 ], [ 1481.0, 195.0 ], [ 1481.0, 193.0 ], [ 1476.0, 195.0 ], [ 1474.0, 193.0 ], [ 1454.0, 195.0 ], [ 1451.0, 193.0 ] ], [ [ 1465.0, 195.0 ], [ 1466.0, 194.0 ], [ 1466.0, 195.0 ], [ 1465.0, 195.0 ] ], [ [ 1528.0, 195.0 ], [ 1529.0, 194.0 ], [ 1529.0, 195.0 ], [ 1528.0, 195.0 ] ] ] } },
{ "type": "Feature", "properties": { "layer": "buildings" }, "geometry": { "type": "Polygon", "coordinates": [ [ [ 1959.0, 194.0 ], [ 1959.0, 197.0 ], [ 1971.0, 197.0 ], [ 1971.0, 195.0 ], [ 1959.0, 194.0 ] ] ] } },
{ "type": "Feature", "properties": { "layer": "buildings" }, "geometry": { "type": "Polygon", "coordinates": [ [ [ 273.0, 194.0 ], [ 267.0, 196.0 ], [ 292.0, 196.0 ], [ 292.0, 195.0 ], [ 273.0, 194.0 ] ] ] } },
{ "type": "Feature", "properties": { "layer": "buildings" }, "geometry": { "type": "Polygon", "coordinates": [ [ [ 312.0, 193.0 ], [ 300.0, 194.0 ], [ 299.0, 197.0 ], [ 319.0, 197.0 ], [ 319.0, 195.0 ], [ 312.0, 193.0 ] ] ] } },
{ "type": "Feature", "properties": { "layer": "buildings" }, "geometry": { "type": "Polygon", "coordinates": [ [ [ 388.0, 193.0 ], [ 390.0, 194.0 ], [ 388.0, 196.0 ], [ 391.0, 197.0 ], [ 405.0, 197.0 ], [ 388.0, 193.0 ] ] ] } },
{ "type": "Feature", "properties": { "layer": "buildings" }, "geometry": { "type": "Polygon", "coordinates": [ [ [ 1365.0, 193.0 ], [ 1365.0, 195.0 ], [ 1353.0, 196.0 ], [ 1373.0, 197.0 ], [ 1372.0, 194.0 ], [ 1367.0, 195.0 ], [ 1368.0, 193.0 ], [ 1365.0, 193.0 ] ] ] } },
{ "type": "Feature", "properties": { "layer": "buildings" }, "geometry": { "type": "Polygon", "coordinates": [ [ [ 1645.0, 194.0 ], [ 1633.0, 196.0 ], [ 1645.0, 197.0 ], [ 1645.0, 194.0 ] ] ] } },
{ "type": "Feature", "properties": { "layer": "buildings" }, "geometry": { "type": "Polygon", "coordinates": [ [ [ 1550.0, 194.0 ], [ 1545.0, 197.0 ], [ 1586.0, 196.0 ], [ 1580.0, 194.0 ], [ 1552.0, 196.0 ], [ 1550.0, 194.0 ] ] ] } },
{ "type": "Feature", "properties": { "layer": "buildings" }, "geometry": { "type": "Polygon", "coordinates": [ [ [ 1765.0, 196.0 ], [ 1755.0, 195.0 ], [ 1757.0, 198.0 ], [ 1765.0, 196.0 ] ] ] } },
{ "type": "Feature", "properties": { "layer": "buildings" }, "geometry": { "type": "Polygon", "coordinates": [ [ [ 969.0, 195.0 ], [ 955.0, 197.0 ], [ 969.0, 196.0 ], [ 969.0, 195.0 ] ] ] } },
{ "type": "Feature", "properties": { "layer": "buildings" }, "geometry": { "type": "Polygon", "coordinates": [ [ [ 897.0, 196.0 ], [ 897.0, 198.0 ], [ 900.0, 199.0 ], [ 935.0, 198.0 ], [ 930.0, 196.0 ], [ 897.0, 196.0 ] ] ] } },
{ "type": "Feature", "properties": { "layer": "buildings" }, "geometry": { "type": "Polygon", "coordinates": [ [ [ 938.0, 195.0 ], [ 939.0, 198.0 ], [ 951.0, 200.0 ], [ 946.0, 199.0 ], [ 947.0, 196.0 ], [ 942.0, 197.0 ], [ 938.0, 195.0 ] ], [ [ 944.0, 198.0 ], [ 945.0, 197.0 ], [ 945.0, 198.0 ], [ 944.0, 198.0 ] ] ] } },
{ "type": "Feature", "properties": { "layer": "buildings" }, "geometry": { "type": "Polygon", "coordinates": [ [ [ 277.0, 199.0 ], [ 277.0, 201.0 ], [ 290.0, 201.0 ], [ 287.0, 199.0 ], [ 277.0, 199.0 ] ] ] } },
{ "type": "Feature", "properties": { "layer": "buildings" }, "geometry": { "type": "Polygon", "coordinates": [ [ [ 1502.0, 199.0 ], [ 1504.0, 201.0 ], [ 1525.0, 201.0 ], [ 1522.0, 199.0 ], [ 1502.0, 199.0 ] ] ] } },
{ "type": "Feature", "properties": { "layer": "buildings" }, "geometry": { "type": "Polygon", "coordinates": [ [ [ 1529.0, 199.0 ], [ 1529.0, 201.0 ], [ 1545.0, 201.0 ], [ 1544.0, 199.0 ], [ 1529.0, 199.0 ] ] ] } },
{ "type": "Feature", "properties": { "layer": "buildings" }, "geometry": { "type": "Polygon", "coordinates": [ [ [ 2109.0, 195.0 ], [ 2110.0, 199.0 ], [ 2097.0, 200.0 ], [ 2112.0, 201.0 ], [ 2129.0, 200.0 ], [ 2113.0, 199.0 ], [ 2113.0, 197.0 ], [ 2111.0, 199.0 ], [ 2109.0, 195.0 ] ] ] } },
{ "type": "Feature", "properties": { "layer": "buildings" }, "geometry": { "type": "Polygon", "coordinates": [ [ [ 126.0, 195.0 ], [ 125.0, 204.0 ], [ 126.0, 207.0 ], [ 128.0, 207.0 ], [ 128.0, 195.0 ], [ 126.0, 195.0 ] ] ] } },
{ "type": "Feature", "properties": { "layer": "buildings" }, "geometry": { "type": "Polygon", "coordinates": [ [ [ 841.0, 271.0 ], [ 842.0, 275.0 ], [ 848.0, 275.0 ], [ 849.0, 277.0 ], [ 849.0, 274.0 ], [ 846.0, 274.0 ], [ 846.0, 271.0 ], [ 841.0, 271.0 ] ], [ [ 844.0, 274.0 ], [ 845.0, 273.0 ], [ 845.0, 274.0 ], [ 844.0, 274.0 ] ] ] } },
{ "type": "Feature", "properties": { "layer": "buildings" }, "geometry": { "type": "Polygon", "coordinates": [ [ [ 1978.0, 281.0 ], [ 1973.0, 283.0 ], [ 1975.0, 291.0 ], [ 1978.0, 288.0 ], [ 1976.0, 285.0 ], [ 1978.0, 281.0 ] ] ] } },
{ "type": "Feature", "properties": { "layer": "buildings" }, "geometry": { "type": "Polygon", "coordinates": [ [ [ 2399.0, 263.0 ], [ 2398.0, 303.0 ], [ 2399.0, 303.0 ], [ 2399.0, 263.0 ] ] ] } },
{ "type": "Feature", "properties": { "layer": "buildings" }, "geometry": { "type": "Polygon", "coordinates": [ [ [ 197.0, 303.0 ], [ 194.0, 305.0 ], [ 194.0, 311.0 ], [ 196.0, 311.0 ], [ 196.0, 307.0 ], [ 201.0, 307.0 ], [ 197.0, 303.0 ] ] ] } },
{ "type": "Feature", "properties": { "layer": "buildings" }, "geometry": { "type": "Polygon", "coordinates": [ [ [ 1194.0, 307.0 ], [ 1191.0, 308.0 ], [ 1190.0, 314.0 ], [ 1195.0, 314.0 ], [ 1194.0, 307.0 ] ] ] } },
{ "type": "Feature", "properties": { "layer": "buildings" }, "geometry": { "type": "Polygon", "coordinates": [ [ [ 432.0, 310.0 ], [ 431.0, 313.0 ], [ 426.0, 313.0 ], [ 425.0, 315.0 ], [ 435.0, 316.0 ], [ 435.0, 314.0 ], [ 432.0, 314.0 ], [ 432.0, 310.0 ] ] ] } },
{ "type": "Feature", "properties": { "layer": "buildings" }, "geometry": { "type": "Polygon", "coordinates": [ [ [ 363.0, 311.0 ], [ 363.0, 317.0 ], [ 371.0, 313.0 ], [ 370.0, 311.0 ], [ 363.0, 311.0 ] ] ] } },
{ "type": "Feature", "properties": { "layer": "buildings" }, "geometry": { "type": "Polygon", "coordinates": [ [ [ 2399.0, 304.0 ], [ 2398.0, 329.0 ], [ 2399.0, 329.0 ], [ 2399.0, 304.0 ] ] ] } },
{ "type": "Feature", "properties": { "layer": "buildings" }, "geometry": { "type": "Polygon", "coordinates": [ [ [ 217.0, 324.0 ], [ 221.0, 331.0 ], [ 226.0, 328.0 ], [ 224.0, 324.0 ], [ 222.0, 327.0 ], [ 217.0, 324.0 ] ] ] } },
{ "type": "Feature", "properties": { "layer": "buildings" }, "geometry": { "type": "Polygon", "coordinates": [ [ [ 1220.0, 334.0 ], [ 1218.0, 339.0 ], [ 1221.0, 341.0 ], [ 1221.0, 335.0 ], [ 1224.0, 337.0 ], [ 1226.0, 334.0 ], [ 1220.0, 334.0 ] ] ] } },
{ "type": "Feature", "properties": { "layer": "buildings" }, "geometry": { "type": "Polygon", "coordinates": [ [ [ 200.0, 338.0 ], [ 199.0, 340.0 ], [ 194.0, 339.0 ], [ 194.0, 343.0 ], [ 203.0, 340.0 ], [ 200.0, 338.0 ] ] ] } },
{ "type": "Feature", "properties": { "layer": "buildings" }, "geometry": { "type": "Polygon", "coordinates": [ [ [ 439.0, 337.0 ], [ 439.0, 340.0 ], [ 441.0, 340.0 ], [ 440.0, 346.0 ], [ 443.0, 347.0 ], [ 445.0, 341.0 ], [ 439.0, 337.0 ] ], [ [ 442.0, 343.0 ], [ 443.0, 342.0 ], [ 443.0, 343.0 ], [ 442.0, 343.0 ] ] ] } },
{ "type": "Feature", "properties": { "layer": "buildings" }, "geometry": { "type": "Polygon", "coordinates": [ [ [ 1281.0, 344.0 ], [ 1281.0, 348.0 ], [ 1279.0, 352.0 ], [ 1285.0, 348.0 ], [ 1285.0, 345.0 ], [ 1282.0, 347.0 ], [ 1281.0, 344.0 ] ] ] } },
{ "type": "Feature", "properties": { "layer": "buildings" }, "geometry": { "type": "Polygon", "coordinates": [ [ [ 2160.0, 347.0 ], [ 2160.0, 351.0 ], [ 2165.0, 353.0 ], [ 2167.0, 349.0 ], [ 2164.0, 348.0 ], [ 2166.0, 347.0 ], [ 2160.0, 347.0 ] ] ] } },
{ "type": "Feature", "properties": { "layer": "buildings" }, "geometry": { "type": "Polygon", "coordinates": [ [ [ 2399.0, 331.0 ], [ 2398.0, 359.0 ], [ 2399.0, 359.0 ], [ 2399.0, 331.0 ] ] ] } },
{ "type": "Feature", "properties": { "layer": "buildings" }, "geometry": { "type": "Polygon", "coordinates": [ [ [ 222.0, 374.0 ], [ 219.0, 376.0 ], [ 223.0, 376.0 ], [ 225.0, 379.0 ], [ 229.0, 376.0 ], [ 233.0, 380.0 ], [ 232.0, 375.0 ], [ 226.0, 376.0 ], [ 222.0, 374.0 ] ] ] } },
{ "type": "Feature", "properties": { "layer": "buildings" }, "geometry": { "type": "Polygon", "coordinates": [ [ [ 168.0, 374.0 ], [ 168.0, 377.0 ], [ 175.0, 381.0 ], [ 175.0, 374.0 ], [ 168.0, 374.0 ] ] ] } },
{ "type": "Feature", "properties": { "layer": "buildings" }, "geometry": { "type": "Polygon", "coordinates": [ [ [ 2399.0, 363.0 ], [ 2398.0, 394.0 ], [ 2399.0, 394.0 ], [ 2399.0, 363.0 ] ] ] } },
{ "type": "Feature", "properties": { "layer": "buildings" }, "geometry": { "type": "Polygon", "coordinates": [ [ [ 1876.0, 393.0 ], [ 1876.0, 399.0 ], [ 1880.0, 400.0 ], [ 1879.0, 393.0 ], [ 1876.0, 393.0 ] ] ] } },
{ "type": "Feature", "properties": { "layer": "buildings" }, "geometry": { "type": "Polygon", "coordinates": [ [ [ 1696.0, 401.0 ], [ 1692.0, 405.0 ], [ 1691.0, 404.0 ], [ 1689.0, 405.0 ], [ 1693.0, 407.0 ], [ 1698.0, 403.0 ], [ 1696.0, 401.0 ] ] ] } },
{ "type": "Feature", "properties": { "layer": "buildings" }, "geometry": { "type": "Polygon", "coordinates": [ [ [ 2230.0, 403.0 ], [ 2228.0, 419.0 ], [ 2230.0, 426.0 ], [ 2230.0, 403.0 ] ] ] } },
{ "type": "Feature", "properties": { "layer": "buildings" }, "geometry": { "type": "Polygon", "coordinates": [ [ [ 257.0, 419.0 ], [ 257.0, 422.0 ], [ 259.0, 421.0 ], [ 259.0, 424.0 ], [ 261.0, 424.0 ], [ 260.0, 428.0 ], [ 262.0, 429.0 ], [ 260.0, 430.0 ], [ 263.0, 436.0 ], [ 264.0, 428.0 ], [ 261.0, 426.0 ], [ 264.0, 424.0 ], [ 263.0, 421.0 ], [ 267.0, 419.0 ], [ 257.0, 419.0 ] ] ] } },
{ "type": "Feature", "properties": { "layer": "buildings" }, "geometry": { "type": "Polygon", "coordinates": [ [ [ 210.0, 428.0 ], [ 209.0, 432.0 ], [ 213.0, 432.0 ], [ 211.0, 435.0 ], [ 217.0, 437.0 ], [ 217.0, 433.0 ], [ 215.0, 434.0 ], [ 210.0, 428.0 ] ], [ [ 215.0, 436.0 ], [ 216.0, 435.0 ], [ 216.0, 436.0 ], [ 215.0, 436.0 ] ] ] } },
{ "type": "Feature", "properties": { "layer": "buildings" }, "geometry": { "type": "Polygon", "coordinates": [ [ [ 1752.0, 435.0 ], [ 1754.0, 440.0 ], [ 1760.0, 440.0 ], [ 1755.0, 438.0 ], [ 1755.0, 435.0 ], [ 1752.0, 435.0 ] ] ] } },
{ "type": "Feature", "properties": { "layer": "buildings" }, "geometry": { "type": "Polygon", "coordinates": [ [ [ 225.0, 439.0 ], [ 226.0, 442.0 ], [ 221.0, 443.0 ], [ 227.0, 445.0 ], [ 225.0, 447.0 ], [ 228.0, 448.0 ], [ 229.0, 443.0 ], [ 225.0, 439.0 ] ] ] } },
{ "type": "Feature", "properties": { "layer": "buildings" }, "geometry": { "type": "Polygon", "coordinates": [ [ [ 240.0, 442.0 ], [ 231.0, 441.0 ], [ 232.0, 445.0 ], [ 234.0, 445.0 ], [ 232.0, 448.0 ], [ 236.0, 448.0 ], [ 237.0, 445.0 ], [ 235.0, 443.0 ], [ 238.0, 442.0 ], [ 239.0, 444.0 ], [ 240.0, 442.0 ] ] ] } },
{ "type": "Feature", "properties": { "layer": "buildings" }, "geometry": { "type": "Polygon", "coordinates": [ [ [ 1944.0, 444.0 ], [ 1943.0, 447.0 ], [ 1936.0, 449.0 ], [ 1935.0, 447.0 ], [ 1930.0, 447.0 ], [ 1930.0, 450.0 ], [ 1945.0, 448.0 ], [ 1944.0, 444.0 ] ] ] } },
{ "type": "Feature", "properties": { "layer": "buildings" }, "geometry": { "type": "Polygon", "coordinates": [ [ [ 2399.0, 445.0 ], [ 2398.0, 466.0 ], [ 2399.0, 466.0 ], [ 2399.0, 445.0 ] ] ] } },
{ "type": "Feature", "properties": { "layer": "buildings" }, "geometry": { "type": "Polygon", "coordinates": [ [ [ 123.0, 443.0 ], [ 123.0, 465.0 ], [ 125.0, 466.0 ], [ 126.0, 446.0 ], [ 123.0, 443.0 ] ] ] } },
{ "type": "Feature", "properties": { "layer": "buildings" }, "geometry": { "type": "Polygon", "coordinates": [ [ [ 208.0, 460.0 ], [ 208.0, 462.0 ], [ 214.0, 468.0 ], [ 213.0, 462.0 ], [ 208.0, 460.0 ] ] ] } },
{ "type": "Feature", "properties": { "layer": "buildings" }, "geometry": { "type": "Polygon", "coordinates": [ [ [ 153.0, 489.0 ], [ 154.0, 496.0 ], [ 152.0, 495.0 ], [ 151.0, 497.0 ], [ 157.0, 497.0 ], [ 158.0, 495.0 ], [ 156.0, 495.0 ], [ 155.0, 489.0 ], [ 153.0, 489.0 ] ] ] } },
{ "type": "Feature", "properties": { "layer": "buildings" }, "geometry": { "type": "Polygon", "coordinates": [ [ [ 124.0, 467.0 ], [ 125.0, 481.0 ], [ 123.0, 491.0 ], [ 125.0, 500.0 ], [ 126.0, 471.0 ], [ 124.0, 467.0 ] ] ] } },
{ "type": "Feature", "properties": { "layer": "buildings" }, "geometry": { "type": "Polygon", "coordinates": [ [ [ 152.0, 499.0 ], [ 152.0, 505.0 ], [ 160.0, 501.0 ], [ 159.0, 499.0 ], [ 154.0, 499.0 ], [ 155.0, 502.0 ], [ 153.0, 502.0 ], [ 152.0, 499.0 ] ] ] } },
{ "type": "Feature", "properties": { "layer": "buildings" }, "geometry": { "type": "Polygon", "coordinates": [ [ [ 244.0, 498.0 ], [ 246.0, 501.0 ], [ 243.0, 503.0 ], [ 252.0, 505.0 ], [ 251.0, 502.0 ], [ 247.0, 501.0 ], [ 247.0, 498.0 ], [ 244.0, 498.0 ] ] ] } },
{ "type": "Feature", "properties": { "layer": "buildings" }, "geometry": { "type": "Polygon", "coordinates": [ [ [ 170.0, 512.0 ], [ 170.0, 517.0 ], [ 166.0, 515.0 ], [ 168.0, 520.0 ], [ 176.0, 517.0 ], [ 170.0, 512.0 ] ] ] } },
{ "type": "Feature", "properties": { "layer": "buildings" }, "geometry": { "type": "Polygon", "coordinates": [ [ [ 1227.0, 517.0 ], [ 1228.0, 523.0 ], [ 1226.0, 526.0 ], [ 1231.0, 525.0 ], [ 1231.0, 520.0 ], [ 1227.0, 517.0 ] ] ] } },
{ "type": "Feature", "properties": { "layer": "buildings" }, "geometry": { "type": "Polygon", "coordinates": [ [ [ 156.0, 515.0 ], [ 152.0, 519.0 ], [ 155.0, 521.0 ], [ 156.0, 527.0 ], [ 156.0, 515.0 ] ] ] } },
{ "type": "Feature", "properties": { "layer": "buildings" }, "geometry": { "type": "Polygon", "coordinates": [ [ [ 124.0, 518.0 ], [ 124.0, 540.0 ], [ 126.0, 541.0 ], [ 126.0, 518.0 ], [ 124.0, 518.0 ] ] ] } },
{ "type": "Feature", "properties": { "layer": "buildings" }, "geometry": { "type": "Polygon", "coordinates": [ [ [ 134.0, 547.0 ], [ 134.0, 561.0 ], [ 137.0, 563.0 ], [ 139.0, 560.0 ], [ 137.0, 560.0 ], [ 137.0, 557.0 ], [ 135.0, 560.0 ], [ 134.0, 547.0 ] ] ] } },
{ "type": "Feature", "properties": { "layer": "buildings" }, "geometry": { "type": "Polygon", "coordinates": [ [ [ 227.0, 555.0 ], [ 229.0, 559.0 ], [ 227.0, 562.0 ], [ 231.0, 565.0 ], [ 231.0, 557.0 ], [ 227.0, 555.0 ] ] ] } },
{ "type": "Feature", "properties": { "layer": "buildings" }, "geometry": { "type": "Polygon", "coordinates": [ [ [ 2269.0, 561.0 ], [ 2266.0, 565.0 ], [ 2271.0, 570.0 ], [ 2273.0, 567.0 ], [ 2270.0, 567.0 ], [ 2269.0, 561.0 ] ] ] } },
{ "type": "Feature", "properties": { "layer": "buildings" }, "geometry": { "type": "Polygon", "coordinates": [ [ [ 940.0, 595.0 ], [ 939.0, 603.0 ], [ 945.0, 603.0 ], [ 942.0, 600.0 ], [ 942.0, 595.0 ], [ 940.0, 595.0 ] ] ] } },
{ "type": "Feature", "properties": { "layer": "buildings" }, "geometry": { "type": "Polygon", "coordinates": [ [ [ 2108.0, 603.0 ], [ 2108.0, 607.0 ], [ 2109.0, 605.0 ], [ 2112.0, 605.0 ], [ 2112.0, 608.0 ], [ 2115.0, 606.0 ], [ 2113.0, 603.0 ], [ 2108.0, 603.0 ] ] ] } },
{ "type": "Feature", "properties": { "layer": "buildings" }, "geometry": { "type": "Polygon", "coordinates": [ [ [ 2036.0, 601.0 ], [ 2039.0, 605.0 ], [ 2039.0, 610.0 ], [ 2041.0, 610.0 ], [ 2041.0, 601.0 ], [ 2036.0, 601.0 ] ] ] } },
{ "type": "Feature", "properties": { "layer": "buildings" }, "geometry": { "type": "Polygon", "coordinates": [ [ [ 200.0, 603.0 ], [ 200.0, 608.0 ], [ 195.0, 606.0 ], [ 198.0, 610.0 ], [ 202.0, 609.0 ], [ 201.0, 606.0 ], [ 203.0, 604.0 ], [ 200.0, 603.0 ] ] ] } },
{ "type": "Feature", "properties": { "layer": "buildings" }, "geometry": { "type": "Polygon", "coordinates": [ [ [ 2210.0, 609.0 ], [ 2209.0, 614.0 ], [ 2212.0, 614.0 ], [ 2213.0, 617.0 ], [ 2215.0, 613.0 ], [ 2213.0, 613.0 ], [ 2213.0, 609.0 ], [ 2212.0, 611.0 ], [ 2210.0, 609.0 ] ] ] } },
{ "type": "Feature", "properties": { "layer": "buildings" }, "geometry": { "type": "Polygon", "coordinates": [ [ [ 150.0, 625.0 ], [ 149.0, 628.0 ], [ 145.0, 626.0 ], [ 146.0, 634.0 ], [ 147.0, 629.0 ], [ 151.0, 629.0 ], [ 151.0, 633.0 ], [ 152.0, 629.0 ], [ 156.0, 629.0 ], [ 156.0, 627.0 ], [ 152.0, 628.0 ], [ 150.0, 625.0 ] ] ] } },
{ "type": "Feature", "properties": { "layer": "buildings" }, "geometry": { "type": "Polygon", "coordinates": [ [ [ 127.0, 627.0 ], [ 127.0, 638.0 ], [ 130.0, 640.0 ], [ 130.0, 630.0 ], [ 127.0, 627.0 ] ] ] } },
{ "type": "Feature", "properties": { "layer": "buildings" }, "geometry": { "type": "Polygon", "coordinates": [ [ [ 174.0, 641.0 ], [ 173.0, 648.0 ], [ 176.0, 648.0 ], [ 176.0, 643.0 ], [ 178.0, 642.0 ], [ 174.0, 641.0 ] ] ] } },
{ "type": "Feature", "properties": { "layer": "buildings" }, "geometry": { "type": "Polygon", "coordinates": [ [ [ 145.0, 637.0 ], [ 145.0, 654.0 ], [ 146.0, 654.0 ], [ 147.0, 637.0 ], [ 145.0, 637.0 ] ] ] } },
{ "type": "Feature", "properties": { "layer": "buildings" }, "geometry": { "type": "Polygon", "coordinates": [ [ [ 1688.0, 645.0 ], [ 1685.0, 646.0 ], [ 1685.0, 650.0 ], [ 1681.0, 651.0 ], [ 1682.0, 656.0 ], [ 1690.0, 648.0 ], [ 1688.0, 645.0 ] ] ] } },
{ "type": "Feature", "properties": { "layer": "buildings" }, "geometry": { "type": "Polygon", "coordinates": [ [ [ 128.0, 641.0 ], [ 128.0, 656.0 ], [ 130.0, 657.0 ], [ 130.0, 642.0 ], [ 128.0, 641.0 ] ] ] } },
{ "type": "Feature", "properties": { "layer": "buildings" }, "geometry": { "type": "Polygon", "coordinates": [ [ [ 1348.0, 652.0 ], [ 1349.0, 656.0 ], [ 1347.0, 658.0 ], [ 1351.0, 660.0 ], [ 1350.0, 658.0 ], [ 1353.0, 657.0 ], [ 1350.0, 655.0 ], [ 1353.0, 654.0 ], [ 1348.0, 652.0 ] ] ] } },
{ "type": "Feature", "properties": { "layer": "buildings" }, "geometry": { "type": "Polygon", "coordinates": [ [ [ 134.0, 620.0 ], [ 134.0, 665.0 ], [ 136.0, 667.0 ], [ 136.0, 639.0 ], [ 138.0, 639.0 ], [ 136.0, 637.0 ], [ 136.0, 630.0 ], [ 138.0, 628.0 ], [ 136.0, 628.0 ], [ 137.0, 623.0 ], [ 134.0, 620.0 ] ] ] } },
{ "type": "Feature", "properties": { "layer": "buildings" }, "geometry": { "type": "Polygon", "coordinates": [ [ [ 145.0, 656.0 ], [ 145.0, 675.0 ], [ 146.0, 675.0 ], [ 147.0, 658.0 ], [ 145.0, 656.0 ] ] ] } },
{ "type": "Feature", "properties": { "layer": "buildings" }, "geometry": { "type": "Polygon", "coordinates": [ [ [ 127.0, 657.0 ], [ 127.0, 676.0 ], [ 129.0, 675.0 ], [ 130.0, 677.0 ], [ 130.0, 659.0 ], [ 127.0, 657.0 ] ] ] } },
{ "type": "Feature", "properties": { "layer": "buildings" }, "geometry": { "type": "Polygon", "coordinates": [ [ [ 127.0, 681.0 ], [ 127.0, 693.0 ], [ 129.0, 695.0 ], [ 127.0, 696.0 ], [ 128.0, 702.0 ], [ 128.0, 700.0 ], [ 130.0, 701.0 ], [ 130.0, 683.0 ], [ 128.0, 684.0 ], [ 127.0, 681.0 ] ], [ [ 128.0, 688.0 ], [ 129.0, 687.0 ], [ 129.0, 688.0 ], [ 128.0, 688.0 ] ] ] } },
{ "type": "Feature", "properties": { "layer": "buildings" }, "geometry": { "type": "Polygon", "coordinates": [ [ [ 354.0, 701.0 ], [ 356.0, 707.0 ], [ 361.0, 705.0 ], [ 359.0, 702.0 ], [ 354.0, 701.0 ] ] ] } },
{ "type": "Feature", "properties": { "layer": "buildings" }, "geometry": { "type": "Polygon", "coordinates": [ [ [ 408.0, 710.0 ], [ 408.0, 715.0 ], [ 416.0, 714.0 ], [ 413.0, 714.0 ], [ 408.0, 710.0 ] ] ] } },
{ "type": "Feature", "properties": { "layer": "buildings" }, "geometry": { "type": "Polygon", "coordinates": [ [ [ 135.0, 690.0 ], [ 134.0, 720.0 ], [ 136.0, 727.0 ], [ 137.0, 691.0 ], [ 135.0, 690.0 ] ] ] } },
{ "type": "Feature", "properties": { "layer": "buildings" }, "geometry": { "type": "Polygon", "coordinates": [ [ [ 127.0, 703.0 ], [ 127.0, 737.0 ], [ 128.0, 741.0 ], [ 130.0, 741.0 ], [ 130.0, 712.0 ], [ 132.0, 703.0 ], [ 127.0, 703.0 ] ], [ [ 128.0, 715.0 ], [ 129.0, 714.0 ], [ 129.0, 715.0 ], [ 128.0, 715.0 ] ] ] } },
{ "type": "Feature", "properties": { "layer": "buildings" }, "geometry": { "type": "Polygon", "coordinates": [ [ [ 2210.0, 737.0 ], [ 2210.0, 749.0 ], [ 2211.0, 749.0 ], [ 2213.0, 747.0 ], [ 2213.0, 737.0 ], [ 2212.0, 741.0 ], [ 2210.0, 737.0 ] ], [ [ 2211.0, 743.0 ], [ 2212.0, 742.0 ], [ 2212.0, 743.0 ], [ 2211.0, 743.0 ] ], [ [ 2211.0, 745.0 ], [ 2212.0, 744.0 ], [ 2212.0, 745.0 ], [ 2211.0, 745.0 ] ] ] } },
{ "type": "Feature", "properties": { "layer": "buildings" }, "geometry": { "type": "Polygon", "coordinates": [ [ [ 135.0, 743.0 ], [ 134.0, 757.0 ], [ 136.0, 758.0 ], [ 136.0, 745.0 ], [ 138.0, 745.0 ], [ 138.0, 743.0 ], [ 135.0, 743.0 ] ] ] } },
{ "type": "Feature", "properties": { "layer": "buildings" }, "geometry": { "type": "Polygon", "coordinates": [ [ [ 154.0, 756.0 ], [ 154.0, 768.0 ], [ 155.0, 768.0 ], [ 157.0, 758.0 ], [ 154.0, 756.0 ] ] ] } },
{ "type": "Feature", "properties": { "layer": "buildings" }, "geometry": { "type": "Polygon", "coordinates": [ [ [ 262.0, 767.0 ], [ 261.0, 771.0 ], [ 263.0, 771.0 ], [ 263.0, 768.0 ], [ 264.0, 773.0 ], [ 266.0, 768.0 ], [ 268.0, 771.0 ], [ 268.0, 767.0 ], [ 262.0, 767.0 ] ] ] } },
{ "type": "Feature", "properties": { "layer": "buildings" }, "geometry": { "type": "Polygon", "coordinates": [ [ [ 2399.0, 717.0 ], [ 2398.0, 786.0 ], [ 2399.0, 786.0 ], [ 2399.0, 717.0 ] ] ] } },
{ "type": "Feature", "properties": { "layer": "buildings" }, "geometry": { "type": "Polygon", "coordinates": [ [ [ 129.0, 754.0 ], [ 129.0, 764.0 ], [ 127.0, 767.0 ], [ 127.0, 793.0 ], [ 130.0, 792.0 ], [ 129.0, 788.0 ], [ 133.0, 786.0 ], [ 133.0, 784.0 ], [ 129.0, 785.0 ], [ 130.0, 784.0 ], [ 129.0, 775.0 ], [ 131.0, 775.0 ], [ 131.0, 757.0 ], [ 129.0, 754.0 ] ], [ [ 128.0, 784.0 ], [ 129.0, 783.0 ], [ 129.0, 784.0 ], [ 128.0, 784.0 ] ] ] } },
{ "type": "Feature", "properties": { "layer": "buildings" }, "geometry": { "type": "Polygon", "coordinates": [ [ [ 2399.0, 791.0 ], [ 2398.0, 812.0 ], [ 2399.0, 812.0 ], [ 2399.0, 791.0 ] ] ] } },
{ "type": "Feature", "properties": { "layer": "buildings" }, "geometry": { "type": "Polygon", "coordinates": [ [ [ 177.0, 812.0 ], [ 176.0, 817.0 ], [ 174.0, 817.0 ], [ 175.0, 820.0 ], [ 172.0, 821.0 ], [ 172.0, 824.0 ], [ 177.0, 824.0 ], [ 177.0, 820.0 ], [ 179.0, 820.0 ], [ 179.0, 815.0 ], [ 177.0, 814.0 ], [ 180.0, 814.0 ], [ 180.0, 812.0 ], [ 177.0, 812.0 ] ] ] } },
{ "type": "Feature", "properties": { "layer": "buildings" }, "geometry": { "type": "Polygon", "coordinates": [ [ [ 185.0, 834.0 ], [ 183.0, 838.0 ], [ 194.0, 841.0 ], [ 192.0, 835.0 ], [ 186.0, 837.0 ], [ 185.0, 834.0 ] ] ] } },
{ "type": "Feature", "properties": { "layer": "buildings" }, "geometry": { "type": "Polygon", "coordinates": [ [ [ 149.0, 837.0 ], [ 147.0, 849.0 ], [ 149.0, 850.0 ], [ 149.0, 837.0 ] ] ] } },
{ "type": "Feature", "properties": { "layer": "buildings" }, "geometry": { "type": "Polygon", "coordinates": [ [ [ 134.0, 841.0 ], [ 134.0, 854.0 ], [ 135.0, 854.0 ], [ 136.0, 842.0 ], [ 134.0, 841.0 ] ] ] } },
{ "type": "Feature", "properties": { "layer": "buildings" }, "geometry": { "type": "Polygon", "coordinates": [ [ [ 127.0, 843.0 ], [ 125.0, 857.0 ], [ 126.0, 859.0 ], [ 128.0, 859.0 ], [ 129.0, 851.0 ], [ 127.0, 843.0 ] ] ] } },
{ "type": "Feature", "properties": { "layer": "buildings" }, "geometry": { "type": "Polygon", "coordinates": [ [ [ 197.0, 854.0 ], [ 197.0, 858.0 ], [ 195.0, 857.0 ], [ 192.0, 860.0 ], [ 198.0, 861.0 ], [ 202.0, 859.0 ], [ 197.0, 854.0 ] ] ] } },
{ "type": "Feature", "properties": { "layer": "buildings" }, "geometry": { "type": "Polygon", "coordinates": [ [ [ 1389.0, 857.0 ], [ 1387.0, 865.0 ], [ 1389.0, 861.0 ], [ 1390.0, 865.0 ], [ 1392.0, 865.0 ], [ 1392.0, 860.0 ], [ 1389.0, 857.0 ] ] ] } },
{ "type": "Feature", "properties": { "layer": "buildings" }, "geometry": { "type": "Polygon", "coordinates": [ [ [ 154.0, 841.0 ], [ 155.0, 863.0 ], [ 154.0, 865.0 ], [ 152.0, 863.0 ], [ 152.0, 867.0 ], [ 156.0, 871.0 ], [ 156.0, 841.0 ], [ 154.0, 841.0 ] ] ] } },
{ "type": "Feature", "properties": { "layer": "buildings" }, "geometry": { "type": "Polygon", "coordinates": [ [ [ 128.0, 861.0 ], [ 126.0, 873.0 ], [ 128.0, 874.0 ], [ 128.0, 861.0 ] ] ] } },
{ "type": "Feature", "properties": { "layer": "buildings" }, "geometry": { "type": "Polygon", "coordinates": [ [ [ 156.0, 879.0 ], [ 153.0, 880.0 ], [ 153.0, 885.0 ], [ 158.0, 885.0 ], [ 156.0, 879.0 ] ] ] } },
{ "type": "Feature", "properties": { "layer": "buildings" }, "geometry": { "type": "Polygon", "coordinates": [ [ [ 638.0, 876.0 ], [ 638.0, 889.0 ], [ 635.0, 892.0 ], [ 640.0, 891.0 ], [ 639.0, 886.0 ], [ 641.0, 883.0 ], [ 640.0, 876.0 ], [ 638.0, 876.0 ] ] ] } },
{ "type": "Feature", "properties": { "layer": "buildings" }, "geometry": { "type": "Polygon", "coordinates": [ [ [ 133.0, 869.0 ], [ 133.0, 884.0 ], [ 129.0, 889.0 ], [ 130.0, 893.0 ], [ 134.0, 891.0 ], [ 135.0, 873.0 ], [ 133.0, 869.0 ] ], [ [ 131.0, 890.0 ], [ 132.0, 888.0 ], [ 132.0, 890.0 ], [ 131.0, 890.0 ] ] ] } },
{ "type": "Feature", "properties": { "layer": "buildings" }, "geometry": { "type": "Polygon", "coordinates": [ [ [ 220.0, 910.0 ], [ 222.0, 916.0 ], [ 224.0, 916.0 ], [ 223.0, 919.0 ], [ 226.0, 918.0 ], [ 227.0, 920.0 ], [ 229.0, 917.0 ], [ 220.0, 910.0 ] ] ] } },
{ "type": "Feature", "properties": { "layer": "buildings" }, "geometry": { "type": "Polygon", "coordinates": [ [ [ 198.0, 908.0 ], [ 192.0, 909.0 ], [ 194.0, 911.0 ], [ 187.0, 912.0 ], [ 186.0, 915.0 ], [ 183.0, 914.0 ], [ 184.0, 917.0 ], [ 188.0, 917.0 ], [ 186.0, 919.0 ], [ 189.0, 919.0 ], [ 189.0, 921.0 ], [ 191.0, 921.0 ], [ 189.0, 918.0 ], [ 190.0, 914.0 ], [ 193.0, 917.0 ], [ 201.0, 917.0 ], [ 199.0, 915.0 ], [ 201.0, 914.0 ], [ 200.0, 911.0 ], [ 198.0, 911.0 ], [ 198.0, 908.0 ] ], [ [ 193.0, 914.0 ], [ 197.0, 913.0 ], [ 197.0, 914.0 ], [ 193.0, 914.0 ] ], [ [ 197.0, 916.0 ], [ 198.0, 915.0 ], [ 198.0, 916.0 ], [ 197.0, 916.0 ] ] ] } },
{ "type": "Feature", "properties": { "layer": "buildings" }, "geometry": { "type": "Polygon", "coordinates": [ [ [ 130.0, 933.0 ], [ 130.0, 945.0 ], [ 132.0, 945.0 ], [ 131.0, 941.0 ], [ 133.0, 938.0 ], [ 130.0, 933.0 ] ] ] } },
{ "type": "Feature", "properties": { "layer": "buildings" }, "geometry": { "type": "Polygon", "coordinates": [ [ [ 2123.0, 949.0 ], [ 2124.0, 953.0 ], [ 2122.0, 956.0 ], [ 2125.0, 960.0 ], [ 2127.0, 958.0 ], [ 2124.0, 955.0 ], [ 2126.0, 949.0 ], [ 2123.0, 949.0 ] ] ] } },
{ "type": "Feature", "properties": { "layer": "buildings" }, "geometry": { "type": "Polygon", "coordinates": [ [ [ 130.0, 948.0 ], [ 130.0, 983.0 ], [ 132.0, 984.0 ], [ 133.0, 956.0 ], [ 130.0, 948.0 ] ] ] } },
{ "type": "Feature", "properties": { "layer": "buildings" }, "geometry": { "type": "Polygon", "coordinates": [ [ [ 130.0, 984.0 ], [ 129.0, 995.0 ], [ 131.0, 1001.0 ], [ 132.0, 987.0 ], [ 130.0, 984.0 ] ] ] } },
{ "type": "Feature", "properties": { "layer": "buildings" }, "geometry": { "type": "Polygon", "coordinates": [ [ [ 1620.0, 1007.0 ], [ 1619.0, 1025.0 ], [ 1621.0, 1026.0 ], [ 1622.0, 1010.0 ], [ 1620.0, 1007.0 ] ] ] } },
{ "type": "Feature", "properties": { "layer": "buildings" }, "geometry": { "type": "Polygon", "coordinates": [ [ [ 137.0, 1012.0 ], [ 136.0, 1014.0 ], [ 136.0, 1029.0 ], [ 138.0, 1029.0 ], [ 138.0, 1019.0 ], [ 140.0, 1019.0 ], [ 137.0, 1012.0 ] ] ] } },
{ "type": "Feature", "properties": { "layer": "buildings" }, "geometry": { "type": "Polygon", "coordinates": [ [ [ 2399.0, 979.0 ], [ 2398.0, 1031.0 ], [ 2399.0, 1031.0 ], [ 2399.0, 979.0 ] ] ] } },
{ "type": "Feature", "properties": { "layer": "buildings" }, "geometry": { "type": "Polygon", "coordinates": [ [ [ 125.0, 1025.0 ], [ 125.0, 1038.0 ], [ 127.0, 1039.0 ], [ 127.0, 1025.0 ], [ 125.0, 1025.0 ] ] ] } },
{ "type": "Feature", "properties": { "layer": "buildings" }, "geometry": { "type": "Polygon", "coordinates": [ [ [ 130.0, 1021.0 ], [ 129.0, 1023.0 ], [ 129.0, 1039.0 ], [ 132.0, 1034.0 ], [ 132.0, 1024.0 ], [ 130.0, 1021.0 ] ] ] } },
{ "type": "Feature", "properties": { "layer": "buildings" }, "geometry": { "type": "Polygon", "coordinates": [ [ [ 1750.0, 1039.0 ], [ 1747.0, 1042.0 ], [ 1749.0, 1045.0 ], [ 1752.0, 1041.0 ], [ 1756.0, 1041.0 ], [ 1750.0, 1039.0 ] ] ] } },
{ "type": "Feature", "properties": { "layer": "buildings" }, "geometry": { "type": "Polygon", "coordinates": [ [ [ 138.0, 1067.0 ], [ 136.0, 1037.0 ], [ 136.0, 1067.0 ], [ 138.0, 1067.0 ] ] ] } },
{ "type": "Feature", "properties": { "layer": "buildings" }, "geometry": { "type": "Polygon", "coordinates": [ [ [ 2399.0, 1033.0 ], [ 2398.0, 1070.0 ], [ 2399.0, 1070.0 ], [ 2399.0, 1033.0 ] ] ] } },
{ "type": "Feature", "properties": { "layer": "buildings" }, "geometry": { "type": "Polygon", "coordinates": [ [ [ 2226.0, 1069.0 ], [ 2226.0, 1088.0 ], [ 2227.0, 1088.0 ], [ 2228.0, 1072.0 ], [ 2226.0, 1069.0 ] ] ] } },
{ "type": "Feature", "properties": { "layer": "buildings" }, "geometry": { "type": "Polygon", "coordinates": [ [ [ 194.0, 1082.0 ], [ 190.0, 1086.0 ], [ 192.0, 1089.0 ], [ 195.0, 1089.0 ], [ 194.0, 1082.0 ] ] ] } },
{ "type": "Feature", "properties": { "layer": "buildings" }, "geometry": { "type": "Polygon", "coordinates": [ [ [ 136.0, 1068.0 ], [ 136.0, 1095.0 ], [ 137.0, 1095.0 ], [ 138.0, 1068.0 ], [ 136.0, 1068.0 ] ] ] } },
{ "type": "Feature", "properties": { "layer": "buildings" }, "geometry": { "type": "Polygon", "coordinates": [ [ [ 163.0, 1090.0 ], [ 163.0, 1105.0 ], [ 164.0, 1105.0 ], [ 165.0, 1100.0 ], [ 168.0, 1103.0 ], [ 169.0, 1101.0 ], [ 167.0, 1096.0 ], [ 165.0, 1098.0 ], [ 163.0, 1090.0 ] ] ] } },
{ "type": "Feature", "properties": { "layer": "buildings" }, "geometry": { "type": "Polygon", "coordinates": [ [ [ 2226.0, 1089.0 ], [ 2226.0, 1110.0 ], [ 2227.0, 1110.0 ], [ 2228.0, 1106.0 ], [ 2226.0, 1089.0 ] ] ] } },
{ "type": "Feature", "properties": { "layer": "buildings" }, "geometry": { "type": "Polygon", "coordinates": [ [ [ 153.0, 1102.0 ], [ 153.0, 1116.0 ], [ 162.0, 1121.0 ], [ 161.0, 1116.0 ], [ 158.0, 1117.0 ], [ 158.0, 1113.0 ], [ 156.0, 1114.0 ], [ 155.0, 1112.0 ], [ 155.0, 1102.0 ], [ 153.0, 1102.0 ] ] ] } },
{ "type": "Feature", "properties": { "layer": "buildings" }, "geometry": { "type": "Polygon", "coordinates": [ [ [ 140.0, 1117.0 ], [ 136.0, 1115.0 ], [ 136.0, 1124.0 ], [ 138.0, 1124.0 ], [ 138.0, 1118.0 ], [ 141.0, 1118.0 ], [ 141.0, 1114.0 ], [ 140.0, 1117.0 ] ] ] } },
{ "type": "Feature", "properties": { "layer": "buildings" }, "geometry": { "type": "Polygon", "coordinates": [ [ [ 2228.0, 1125.0 ], [ 2226.0, 1114.0 ], [ 2226.0, 1125.0 ], [ 2228.0, 1125.0 ] ] ] } },
{ "type": "Feature", "properties": { "layer": "buildings" }, "geometry": { "type": "Polygon", "coordinates": [ [ [ 156.0, 1129.0 ], [ 156.0, 1136.0 ], [ 158.0, 1137.0 ], [ 158.0, 1132.0 ], [ 163.0, 1130.0 ], [ 156.0, 1129.0 ] ] ] } },
{ "type": "Feature", "properties": { "layer": "buildings" }, "geometry": { "type": "Polygon", "coordinates": [ [ [ 2399.0, 1073.0 ], [ 2398.0, 1152.0 ], [ 2399.0, 1152.0 ], [ 2399.0, 1073.0 ] ] ] } },
{ "type": "Feature", "properties": { "layer": "buildings" }, "geometry": { "type": "Polygon", "coordinates": [ [ [ 2227.0, 1136.0 ], [ 2225.0, 1149.0 ], [ 2227.0, 1153.0 ], [ 2227.0, 1136.0 ] ] ] } },
{ "type": "Feature", "properties": { "layer": "buildings" }, "geometry": { "type": "Polygon", "coordinates": [ [ [ 156.0, 1145.0 ], [ 154.0, 1149.0 ], [ 154.0, 1153.0 ], [ 158.0, 1152.0 ], [ 158.0, 1146.0 ], [ 156.0, 1145.0 ] ] ] } },
{ "type": "Feature", "properties": { "layer": "buildings" }, "geometry": { "type": "Polygon", "coordinates": [ [ [ 2032.0, 1154.0 ], [ 2032.0, 1159.0 ], [ 2039.0, 1156.0 ], [ 2037.0, 1154.0 ], [ 2032.0, 1154.0 ] ] ] } },
{ "type": "Feature", "properties": { "layer": "buildings" }, "geometry": { "type": "Polygon", "coordinates": [ [ [ 128.0, 1112.0 ], [ 129.0, 1156.0 ], [ 127.0, 1162.0 ], [ 129.0, 1163.0 ], [ 130.0, 1154.0 ], [ 132.0, 1154.0 ], [ 129.0, 1146.0 ], [ 130.0, 1133.0 ], [ 132.0, 1137.0 ], [ 132.0, 1131.0 ], [ 130.0, 1131.0 ], [ 130.0, 1129.0 ], [ 132.0, 1130.0 ], [ 132.0, 1125.0 ], [ 130.0, 1125.0 ], [ 132.0, 1112.0 ], [ 130.0, 1119.0 ], [ 130.0, 1112.0 ], [ 128.0, 1112.0 ] ] ] } },
{ "type": "Feature", "properties": { "layer": "buildings" }, "geometry": { "type": "Polygon", "coordinates": [ [ [ 2226.0, 1154.0 ], [ 2225.0, 1174.0 ], [ 2226.0, 1181.0 ], [ 2228.0, 1181.0 ], [ 2228.0, 1155.0 ], [ 2226.0, 1154.0 ] ] ] } },
{ "type": "Feature", "properties": { "layer": "buildings" }, "geometry": { "type": "Polygon", "coordinates": [ [ [ 2399.0, 1176.0 ], [ 2398.0, 1196.0 ], [ 2399.0, 1196.0 ], [ 2399.0, 1176.0 ] ] ] } },
{ "type": "Feature", "properties": { "layer": "buildings" }, "geometry": { "type": "Polygon", "coordinates": [ [ [ 128.0, 1180.0 ], [ 128.0, 1198.0 ], [ 130.0, 1199.0 ], [ 130.0, 1180.0 ], [ 128.0, 1180.0 ] ] ] } },
{ "type": "Feature", "properties": { "layer": "buildings" }, "geometry": { "type": "Polygon", "coordinates": [ [ [ 2225.0, 1191.0 ], [ 2225.0, 1201.0 ], [ 2228.0, 1205.0 ], [ 2228.0, 1192.0 ], [ 2225.0, 1191.0 ] ] ] } },
{ "type": "Feature", "properties": { "layer": "buildings" }, "geometry": { "type": "Polygon", "coordinates": [ [ [ 135.0, 1193.0 ], [ 134.0, 1213.0 ], [ 135.0, 1213.0 ], [ 135.0, 1193.0 ] ] ] } },
{ "type": "Feature", "properties": { "layer": "buildings" }, "geometry": { "type": "Polygon", "coordinates": [ [ [ 1322.0, 1217.0 ], [ 1316.0, 1216.0 ], [ 1315.0, 1221.0 ], [ 1322.0, 1217.0 ] ] ] } },
{ "type": "Feature", "properties": { "layer": "buildings" }, "geometry": { "type": "Polygon", "coordinates": [ [ [ 1232.0, 1215.0 ], [ 1230.0, 1221.0 ], [ 1239.0, 1220.0 ], [ 1234.0, 1219.0 ], [ 1232.0, 1215.0 ] ] ] } },
{ "type": "Feature", "properties": { "layer": "buildings" }, "geometry": { "type": "Polygon", "coordinates": [ [ [ 128.0, 1199.0 ], [ 128.0, 1228.0 ], [ 129.0, 1228.0 ], [ 130.0, 1201.0 ], [ 128.0, 1199.0 ] ] ] } },
{ "type": "Feature", "properties": { "layer": "buildings" }, "geometry": { "type": "Polygon", "coordinates": [ [ [ 1044.0, 1228.0 ], [ 1047.0, 1235.0 ], [ 1051.0, 1233.0 ], [ 1049.0, 1230.0 ], [ 1047.0, 1231.0 ], [ 1044.0, 1228.0 ] ] ] } },
{ "type": "Feature", "properties": { "layer": "buildings" }, "geometry": { "type": "Polygon", "coordinates": [ [ [ 1205.0, 1226.0 ], [ 1205.0, 1228.0 ], [ 1202.0, 1227.0 ], [ 1200.0, 1229.0 ], [ 1204.0, 1229.0 ], [ 1203.0, 1231.0 ], [ 1208.0, 1235.0 ], [ 1205.0, 1226.0 ] ] ] } },
{ "type": "Feature", "properties": { "layer": "buildings" }, "geometry": { "type": "Polygon", "coordinates": [ [ [ 149.0, 1223.0 ], [ 149.0, 1240.0 ], [ 151.0, 1240.0 ], [ 151.0, 1223.0 ], [ 149.0, 1223.0 ] ] ] } },
{ "type": "Feature", "properties": { "layer": "buildings" }, "geometry": { "type": "Polygon", "coordinates": [ [ [ 1231.0, 1239.0 ], [ 1230.0, 1241.0 ], [ 1234.0, 1245.0 ], [ 1236.0, 1242.0 ], [ 1244.0, 1245.0 ], [ 1243.0, 1240.0 ], [ 1231.0, 1239.0 ] ] ] } },
{ "type": "Feature", "properties": { "layer": "buildings" }, "geometry": { "type": "Polygon", "coordinates": [ [ [ 134.0, 1220.0 ], [ 134.0, 1245.0 ], [ 133.0, 1247.0 ], [ 135.0, 1247.0 ], [ 134.0, 1220.0 ] ] ] } },
{ "type": "Feature", "properties": { "layer": "buildings" }, "geometry": { "type": "Polygon", "coordinates": [ [ [ 1154.0, 1243.0 ], [ 1152.0, 1247.0 ], [ 1162.0, 1245.0 ], [ 1162.0, 1243.0 ], [ 1158.0, 1243.0 ], [ 1158.0, 1245.0 ], [ 1154.0, 1243.0 ] ] ] } },
{ "type": "Feature", "properties": { "layer": "buildings" }, "geometry": { "type": "Polygon", "coordinates": [ [ [ 1121.0, 1247.0 ], [ 1121.0, 1251.0 ], [ 1123.0, 1249.0 ], [ 1129.0, 1254.0 ], [ 1129.0, 1248.0 ], [ 1121.0, 1247.0 ] ], [ [ 1125.0, 1250.0 ], [ 1126.0, 1249.0 ], [ 1126.0, 1250.0 ], [ 1125.0, 1250.0 ] ] ] } },
{ "type": "Feature", "properties": { "layer": "buildings" }, "geometry": { "type": "Polygon", "coordinates": [ [ [ 307.0, 1250.0 ], [ 309.0, 1256.0 ], [ 315.0, 1254.0 ], [ 315.0, 1251.0 ], [ 311.0, 1253.0 ], [ 307.0, 1250.0 ] ] ] } },
{ "type": "Feature", "properties": { "layer": "buildings" }, "geometry": { "type": "Polygon", "coordinates": [ [ [ 1000.0, 1249.0 ], [ 1000.0, 1256.0 ], [ 1006.0, 1258.0 ], [ 1004.0, 1257.0 ], [ 1005.0, 1253.0 ], [ 1001.0, 1252.0 ], [ 1000.0, 1249.0 ] ], [ [ 1001.0, 1255.0 ], [ 1002.0, 1254.0 ], [ 1002.0, 1255.0 ], [ 1001.0, 1255.0 ] ] ] } },
{ "type": "Feature", "properties": { "layer": "buildings" }, "geometry": { "type": "Polygon", "coordinates": [ [ [ 1146.0, 1258.0 ], [ 1146.0, 1261.0 ], [ 1138.0, 1261.0 ], [ 1139.0, 1265.0 ], [ 1140.0, 1263.0 ], [ 1146.0, 1264.0 ], [ 1148.0, 1259.0 ], [ 1146.0, 1258.0 ] ] ] } },
{ "type": "Feature", "properties": { "layer": "buildings" }, "geometry": { "type": "Polygon", "coordinates": [ [ [ 2399.0, 1202.0 ], [ 2398.0, 1266.0 ], [ 2399.0, 1266.0 ], [ 2399.0, 1202.0 ] ] ] } },
{ "type": "Feature", "properties": { "layer": "buildings" }, "geometry": { "type": "Polygon", "coordinates": [ [ [ 1087.0, 1258.0 ], [ 1088.0, 1261.0 ], [ 1085.0, 1259.0 ], [ 1085.0, 1267.0 ], [ 1086.0, 1262.0 ], [ 1087.0, 1266.0 ], [ 1089.0, 1264.0 ], [ 1089.0, 1258.0 ], [ 1087.0, 1258.0 ] ] ] } },
{ "type": "Feature", "properties": { "layer": "buildings" }, "geometry": { "type": "Polygon", "coordinates": [ [ [ 1011.0, 1264.0 ], [ 1011.0, 1266.0 ], [ 1007.0, 1267.0 ], [ 1009.0, 1269.0 ], [ 1006.0, 1270.0 ], [ 1013.0, 1270.0 ], [ 1014.0, 1265.0 ], [ 1011.0, 1264.0 ] ] ] } },
{ "type": "Feature", "properties": { "layer": "buildings" }, "geometry": { "type": "Polygon", "coordinates": [ [ [ 1000.0, 1264.0 ], [ 995.0, 1263.0 ], [ 996.0, 1268.0 ], [ 993.0, 1267.0 ], [ 994.0, 1273.0 ], [ 996.0, 1269.0 ], [ 1001.0, 1269.0 ], [ 998.0, 1268.0 ], [ 1000.0, 1267.0 ], [ 1000.0, 1264.0 ] ], [ [ 998.0, 1266.0 ], [ 999.0, 1265.0 ], [ 999.0, 1266.0 ], [ 998.0, 1266.0 ] ] ] } },
{ "type": "Feature", "properties": { "layer": "buildings" }, "geometry": { "type": "Polygon", "coordinates": [ [ [ 988.0, 1263.0 ], [ 986.0, 1271.0 ], [ 989.0, 1274.0 ], [ 989.0, 1265.0 ], [ 992.0, 1269.0 ], [ 992.0, 1264.0 ], [ 988.0, 1263.0 ] ] ] } },
{ "type": "Feature", "properties": { "layer": "buildings" }, "geometry": { "type": "Polygon", "coordinates": [ [ [ 1045.0, 1263.0 ], [ 1043.0, 1265.0 ], [ 1044.0, 1270.0 ], [ 1038.0, 1270.0 ], [ 1038.0, 1273.0 ], [ 1045.0, 1271.0 ], [ 1044.0, 1274.0 ], [ 1050.0, 1274.0 ], [ 1052.0, 1275.0 ], [ 1051.0, 1277.0 ], [ 1054.0, 1277.0 ], [ 1054.0, 1269.0 ], [ 1051.0, 1272.0 ], [ 1052.0, 1266.0 ], [ 1050.0, 1267.0 ], [ 1045.0, 1263.0 ] ], [ [ 1045.0, 1269.0 ], [ 1046.0, 1266.0 ], [ 1048.0, 1269.0 ], [ 1045.0, 1269.0 ] ] ] } },
{ "type": "Feature", "properties": { "layer": "buildings" }, "geometry": { "type": "Polygon", "coordinates": [ [ [ 1278.0, 1269.0 ], [ 1279.0, 1276.0 ], [ 1284.0, 1279.0 ], [ 1284.0, 1274.0 ], [ 1281.0, 1274.0 ], [ 1282.0, 1272.0 ], [ 1279.0, 1272.0 ], [ 1280.0, 1269.0 ], [ 1278.0, 1269.0 ] ] ] } },
{ "type": "Feature", "properties": { "layer": "buildings" }, "geometry": { "type": "Polygon", "coordinates": [ [ [ 930.0, 1282.0 ], [ 922.0, 1282.0 ], [ 924.0, 1285.0 ], [ 930.0, 1284.0 ], [ 930.0, 1282.0 ] ] ] } },
{ "type": "Feature", "properties": { "layer": "buildings" }, "geometry": { "type": "Polygon", "coordinates": [ [ [ 2195.0, 1277.0 ], [ 2194.0, 1283.0 ], [ 2190.0, 1282.0 ], [ 2189.0, 1285.0 ], [ 2196.0, 1285.0 ], [ 2195.0, 1277.0 ] ] ] } },
{ "type": "Feature", "properties": { "layer": "buildings" }, "geometry": { "type": "Polygon", "coordinates": [ [ [ 1230.0, 1284.0 ], [ 1229.0, 1290.0 ], [ 1234.0, 1290.0 ], [ 1234.0, 1285.0 ], [ 1230.0, 1284.0 ] ], [ [ 1230.0, 1288.0 ], [ 1231.0, 1287.0 ], [ 1231.0, 1288.0 ], [ 1230.0, 1288.0 ] ], [ [ 1231.0, 1289.0 ], [ 1232.0, 1288.0 ], [ 1232.0, 1289.0 ], [ 1231.0, 1289.0 ] ] ] } },
{ "type": "Feature", "properties": { "layer": "buildings" }, "geometry": { "type": "Polygon", "coordinates": [ [ [ 1224.0, 1291.0 ], [ 1224.0, 1293.0 ], [ 1221.0, 1292.0 ], [ 1219.0, 1294.0 ], [ 1225.0, 1294.0 ], [ 1225.0, 1299.0 ], [ 1228.0, 1299.0 ], [ 1229.0, 1297.0 ], [ 1224.0, 1291.0 ] ] ] } },
{ "type": "Feature", "properties": { "layer": "buildings" }, "geometry": { "type": "Polygon", "coordinates": [ [ [ 129.0, 1279.0 ], [ 128.0, 1303.0 ], [ 129.0, 1303.0 ], [ 129.0, 1279.0 ] ] ] } },
{ "type": "Feature", "properties": { "layer": "buildings" }, "geometry": { "type": "Polygon", "coordinates": [ [ [ 2212.0, 1298.0 ], [ 2209.0, 1302.0 ], [ 2215.0, 1305.0 ], [ 2216.0, 1302.0 ], [ 2212.0, 1302.0 ], [ 2212.0, 1298.0 ] ] ] } },
{ "type": "Feature", "properties": { "layer": "buildings" }, "geometry": { "type": "Polygon", "coordinates": [ [ [ 132.0, 1264.0 ], [ 132.0, 1305.0 ], [ 131.0, 1306.0 ], [ 133.0, 1306.0 ], [ 134.0, 1296.0 ], [ 134.0, 1267.0 ], [ 132.0, 1264.0 ] ] ] } },
{ "type": "Feature", "properties": { "layer": "buildings" }, "geometry": { "type": "Polygon", "coordinates": [ [ [ 2399.0, 1267.0 ], [ 2398.0, 1312.0 ], [ 2399.0, 1312.0 ], [ 2399.0, 1267.0 ] ] ] } },
{ "type": "Feature", "properties": { "layer": "buildings" }, "geometry": { "type": "Polygon", "coordinates": [ [ [ 588.0, 1317.0 ], [ 589.0, 1321.0 ], [ 593.0, 1320.0 ], [ 592.0, 1322.0 ], [ 596.0, 1323.0 ], [ 596.0, 1320.0 ], [ 592.0, 1319.0 ], [ 593.0, 1317.0 ], [ 588.0, 1317.0 ] ] ] } },
{ "type": "Feature", "properties": { "layer": "buildings" }, "geometry": { "type": "Polygon", "coordinates": [ [ [ 137.0, 1314.0 ], [ 138.0, 1324.0 ], [ 140.0, 1324.0 ], [ 140.0, 1314.0 ], [ 137.0, 1314.0 ] ] ] } },
{ "type": "Feature", "properties": { "layer": "buildings" }, "geometry": { "type": "Polygon", "coordinates": [ [ [ 563.0, 1325.0 ], [ 564.0, 1327.0 ], [ 557.0, 1328.0 ], [ 557.0, 1331.0 ], [ 560.0, 1329.0 ], [ 565.0, 1331.0 ], [ 567.0, 1327.0 ], [ 563.0, 1325.0 ] ] ] } },
{ "type": "Feature", "properties": { "layer": "buildings" }, "geometry": { "type": "Polygon", "coordinates": [ [ [ 509.0, 1326.0 ], [ 512.0, 1328.0 ], [ 508.0, 1329.0 ], [ 509.0, 1331.0 ], [ 513.0, 1331.0 ], [ 514.0, 1328.0 ], [ 517.0, 1330.0 ], [ 517.0, 1326.0 ], [ 509.0, 1326.0 ] ] ] } },
{ "type": "Feature", "properties": { "layer": "buildings" }, "geometry": { "type": "Polygon", "coordinates": [ [ [ 2179.0, 1328.0 ], [ 2180.0, 1331.0 ], [ 2174.0, 1331.0 ], [ 2174.0, 1333.0 ], [ 2180.0, 1333.0 ], [ 2181.0, 1330.0 ], [ 2184.0, 1331.0 ], [ 2184.0, 1329.0 ], [ 2179.0, 1328.0 ] ] ] } },
{ "type": "Feature", "properties": { "layer": "buildings" }, "geometry": { "type": "Polygon", "coordinates": [ [ [ 2214.0, 1316.0 ], [ 2214.0, 1336.0 ], [ 2215.0, 1336.0 ], [ 2216.0, 1317.0 ], [ 2214.0, 1316.0 ] ] ] } },
{ "type": "Feature", "properties": { "layer": "buildings" }, "geometry": { "type": "Polygon", "coordinates": [ [ [ 1204.0, 1331.0 ], [ 1202.0, 1336.0 ], [ 1204.0, 1337.0 ], [ 1205.0, 1335.0 ], [ 1205.0, 1338.0 ], [ 1210.0, 1337.0 ], [ 1204.0, 1331.0 ] ] ] } },
{ "type": "Feature", "properties": { "layer": "buildings" }, "geometry": { "type": "Polygon", "coordinates": [ [ [ 141.0, 1329.0 ], [ 137.0, 1330.0 ], [ 139.0, 1338.0 ], [ 141.0, 1336.0 ], [ 140.0, 1333.0 ], [ 142.0, 1333.0 ], [ 141.0, 1329.0 ] ], [ [ 140.0, 1332.0 ], [ 141.0, 1331.0 ], [ 141.0, 1332.0 ], [ 140.0, 1332.0 ] ] ] } },
{ "type": "Feature", "properties": { "layer": "buildings" }, "geometry": { "type": "Polygon", "coordinates": [ [ [ 2194.0, 1329.0 ], [ 2194.0, 1339.0 ], [ 2196.0, 1339.0 ], [ 2196.0, 1329.0 ], [ 2194.0, 1329.0 ] ] ] } },
{ "type": "Feature", "properties": { "layer": "buildings" }, "geometry": { "type": "Polygon", "coordinates": [ [ [ 1277.0, 1335.0 ], [ 1276.0, 1339.0 ], [ 1274.0, 1339.0 ], [ 1273.0, 1343.0 ], [ 1277.0, 1342.0 ], [ 1279.0, 1337.0 ], [ 1277.0, 1335.0 ] ] ] } },
{ "type": "Feature", "properties": { "layer": "buildings" }, "geometry": { "type": "Polygon", "coordinates": [ [ [ 2156.0, 1337.0 ], [ 2156.0, 1339.0 ], [ 2151.0, 1338.0 ], [ 2149.0, 1341.0 ], [ 2153.0, 1341.0 ], [ 2155.0, 1344.0 ], [ 2158.0, 1339.0 ], [ 2156.0, 1337.0 ] ] ] } },
{ "type": "Feature", "properties": { "layer": "buildings" }, "geometry": { "type": "Polygon", "coordinates": [ [ [ 1231.0, 1339.0 ], [ 1230.0, 1345.0 ], [ 1237.0, 1344.0 ], [ 1238.0, 1341.0 ], [ 1231.0, 1339.0 ] ], [ [ 1233.0, 1341.0 ], [ 1234.0, 1340.0 ], [ 1234.0, 1341.0 ], [ 1233.0, 1341.0 ] ] ] } },
{ "type": "Feature", "properties": { "layer": "buildings" }, "geometry": { "type": "Polygon", "coordinates": [ [ [ 2214.0, 1337.0 ], [ 2214.0, 1350.0 ], [ 2216.0, 1350.0 ], [ 2216.0, 1338.0 ], [ 2214.0, 1337.0 ] ] ] } },
{ "type": "Feature", "properties": { "layer": "buildings" }, "geometry": { "type": "Polygon", "coordinates": [ [ [ 131.0, 1307.0 ], [ 131.0, 1352.0 ], [ 133.0, 1353.0 ], [ 133.0, 1307.0 ], [ 131.0, 1307.0 ] ] ] } },
{ "type": "Feature", "properties": { "layer": "buildings" }, "geometry": { "type": "Polygon", "coordinates": [ [ [ 509.0, 1347.0 ], [ 509.0, 1350.0 ], [ 503.0, 1349.0 ], [ 503.0, 1351.0 ], [ 510.0, 1351.0 ], [ 510.0, 1354.0 ], [ 512.0, 1351.0 ], [ 517.0, 1353.0 ], [ 517.0, 1349.0 ], [ 511.0, 1350.0 ], [ 509.0, 1347.0 ] ] ] } },
{ "type": "Feature", "properties": { "layer": "buildings" }, "geometry": { "type": "Polygon", "coordinates": [ [ [ 2399.0, 1320.0 ], [ 2398.0, 1358.0 ], [ 2399.0, 1358.0 ], [ 2399.0, 1320.0 ] ] ] } },
{ "type": "Feature", "properties": { "layer": "buildings" }, "geometry": { "type": "Polygon", "coordinates": [ [ [ 906.0, 1353.0 ], [ 908.0, 1355.0 ], [ 906.0, 1361.0 ], [ 911.0, 1361.0 ], [ 911.0, 1355.0 ], [ 906.0, 1353.0 ] ], [ [ 909.0, 1356.0 ], [ 910.0, 1355.0 ], [ 910.0, 1356.0 ], [ 909.0, 1356.0 ] ] ] } },
{ "type": "Feature", "properties": { "layer": "buildings" }, "geometry": { "type": "Polygon", "coordinates": [ [ [ 2154.0, 1354.0 ], [ 2154.0, 1356.0 ], [ 2157.0, 1357.0 ], [ 2155.0, 1359.0 ], [ 2156.0, 1363.0 ], [ 2159.0, 1363.0 ], [ 2158.0, 1355.0 ], [ 2154.0, 1354.0 ] ] ] } },
{ "type": "Feature", "properties": { "layer": "buildings" }, "geometry": { "type": "Polygon", "coordinates": [ [ [ 2100.0, 1361.0 ], [ 2100.0, 1364.0 ], [ 2096.0, 1365.0 ], [ 2102.0, 1365.0 ], [ 2106.0, 1368.0 ], [ 2104.0, 1366.0 ], [ 2105.0, 1363.0 ], [ 2101.0, 1364.0 ], [ 2100.0, 1361.0 ] ] ] } },
{ "type": "Feature", "properties": { "layer": "buildings" }, "geometry": { "type": "Polygon", "coordinates": [ [ [ 2208.0, 1362.0 ], [ 2208.0, 1371.0 ], [ 2210.0, 1372.0 ], [ 2213.0, 1369.0 ], [ 2210.0, 1362.0 ], [ 2208.0, 1362.0 ] ], [ [ 2210.0, 1368.0 ], [ 2211.0, 1367.0 ], [ 2211.0, 1368.0 ], [ 2210.0, 1368.0 ] ] ] } },
{ "type": "Feature", "properties": { "layer": "buildings" }, "geometry": { "type": "Polygon", "coordinates": [ [ [ 2140.0, 1367.0 ], [ 2133.0, 1368.0 ], [ 2134.0, 1371.0 ], [ 2137.0, 1371.0 ], [ 2137.0, 1369.0 ], [ 2140.0, 1369.0 ], [ 2140.0, 1372.0 ], [ 2142.0, 1371.0 ], [ 2140.0, 1367.0 ] ] ] } },
{ "type": "Feature", "properties": { "layer": "buildings" }, "geometry": { "type": "Polygon", "coordinates": [ [ [ 2225.0, 1351.0 ], [ 2224.0, 1377.0 ], [ 2225.0, 1377.0 ], [ 2225.0, 1351.0 ] ] ] } },
{ "type": "Feature", "properties": { "layer": "buildings" }, "geometry": { "type": "Polygon", "coordinates": [ [ [ 1474.0, 1368.0 ], [ 1470.0, 1370.0 ], [ 1471.0, 1373.0 ], [ 1468.0, 1373.0 ], [ 1469.0, 1378.0 ], [ 1471.0, 1378.0 ], [ 1470.0, 1374.0 ], [ 1474.0, 1373.0 ], [ 1474.0, 1368.0 ] ] ] } },
{ "type": "Feature", "properties": { "layer": "buildings" }, "geometry": { "type": "Polygon", "coordinates": [ [ [ 2143.0, 1376.0 ], [ 2142.0, 1378.0 ], [ 2148.0, 1378.0 ], [ 2148.0, 1381.0 ], [ 2154.0, 1383.0 ], [ 2154.0, 1379.0 ], [ 2149.0, 1380.0 ], [ 2149.0, 1376.0 ], [ 2143.0, 1376.0 ] ] ] } },
{ "type": "Feature", "properties": { "layer": "buildings" }, "geometry": { "type": "Polygon", "coordinates": [ [ [ 699.0, 1379.0 ], [ 692.0, 1379.0 ], [ 694.0, 1380.0 ], [ 692.0, 1385.0 ], [ 695.0, 1386.0 ], [ 695.0, 1382.0 ], [ 699.0, 1379.0 ] ], [ [ 695.0, 1381.0 ], [ 696.0, 1380.0 ], [ 696.0, 1381.0 ], [ 695.0, 1381.0 ] ] ] } },
{ "type": "Feature", "properties": { "layer": "buildings" }, "geometry": { "type": "Polygon", "coordinates": [ [ [ 2176.0, 1374.0 ], [ 2177.0, 1385.0 ], [ 2179.0, 1384.0 ], [ 2180.0, 1387.0 ], [ 2180.0, 1381.0 ], [ 2178.0, 1381.0 ], [ 2178.0, 1375.0 ], [ 2176.0, 1374.0 ] ] ] } },
{ "type": "Feature", "properties": { "layer": "buildings" }, "geometry": { "type": "Polygon", "coordinates": [ [ [ 126.0, 1380.0 ], [ 125.0, 1385.0 ], [ 127.0, 1385.0 ], [ 129.0, 1390.0 ], [ 128.0, 1380.0 ], [ 126.0, 1380.0 ] ] ] } },
{ "type": "Feature", "properties": { "layer": "buildings" }, "geometry": { "type": "Polygon", "coordinates": [ [ [ 693.0, 1387.0 ], [ 683.0, 1387.0 ], [ 683.0, 1390.0 ], [ 693.0, 1395.0 ], [ 691.0, 1391.0 ], [ 695.0, 1389.0 ], [ 690.0, 1389.0 ], [ 693.0, 1387.0 ] ] ] } },
{ "type": "Feature", "properties": { "layer": "buildings" }, "geometry": { "type": "Polygon", "coordinates": [ [ [ 672.0, 1386.0 ], [ 668.0, 1387.0 ], [ 670.0, 1392.0 ], [ 675.0, 1392.0 ], [ 677.0, 1396.0 ], [ 683.0, 1398.0 ], [ 683.0, 1395.0 ], [ 678.0, 1393.0 ], [ 677.0, 1390.0 ], [ 672.0, 1391.0 ], [ 672.0, 1386.0 ] ] ] } },
{ "type": "Feature", "properties": { "layer": "buildings" }, "geometry": { "type": "Polygon", "coordinates": [ [ [ 1878.0, 1393.0 ], [ 1878.0, 1398.0 ], [ 1885.0, 1397.0 ], [ 1884.0, 1395.0 ], [ 1878.0, 1393.0 ] ] ] } },
{ "type": "Feature", "properties": { "layer": "buildings" }, "geometry": { "type": "Polygon", "coordinates": [ [ [ 2128.0, 1392.0 ], [ 2128.0, 1395.0 ], [ 2124.0, 1393.0 ], [ 2124.0, 1400.0 ], [ 2127.0, 1396.0 ], [ 2128.0, 1399.0 ], [ 2131.0, 1398.0 ], [ 2128.0, 1392.0 ] ] ] } },
{ "type": "Feature", "properties": { "layer": "buildings" }, "geometry": { "type": "Polygon", "coordinates": [ [ [ 1848.0, 1394.0 ], [ 1843.0, 1398.0 ], [ 1846.0, 1401.0 ], [ 1849.0, 1399.0 ], [ 1848.0, 1394.0 ] ] ] } },
{ "type": "Feature", "properties": { "layer": "buildings" }, "geometry": { "type": "Polygon", "coordinates": [ [ [ 653.0, 1393.0 ], [ 650.0, 1394.0 ], [ 650.0, 1396.0 ], [ 652.0, 1395.0 ], [ 655.0, 1401.0 ], [ 662.0, 1402.0 ], [ 665.0, 1399.0 ], [ 665.0, 1397.0 ], [ 659.0, 1397.0 ], [ 657.0, 1394.0 ], [ 654.0, 1396.0 ], [ 653.0, 1393.0 ] ], [ [ 655.0, 1398.0 ], [ 658.0, 1396.0 ], [ 659.0, 1400.0 ], [ 655.0, 1398.0 ] ] ] } },
{ "type": "Feature", "properties": { "layer": "buildings" }, "geometry": { "type": "Polygon", "coordinates": [ [ [ 1368.0, 1395.0 ], [ 1367.0, 1399.0 ], [ 1369.0, 1399.0 ], [ 1370.0, 1405.0 ], [ 1374.0, 1405.0 ], [ 1371.0, 1397.0 ], [ 1368.0, 1395.0 ] ] ] } },
{ "type": "Feature", "properties": { "layer": "buildings" }, "geometry": { "type": "Polygon", "coordinates": [ [ [ 1870.0, 1395.0 ], [ 1869.0, 1399.0 ], [ 1872.0, 1400.0 ], [ 1869.0, 1400.0 ], [ 1869.0, 1402.0 ], [ 1872.0, 1405.0 ], [ 1874.0, 1397.0 ], [ 1871.0, 1398.0 ], [ 1870.0, 1395.0 ] ] ] } },
{ "type": "Feature", "properties": { "layer": "buildings" }, "geometry": { "type": "Polygon", "coordinates": [ [ [ 1833.0, 1400.0 ], [ 1833.0, 1405.0 ], [ 1840.0, 1404.0 ], [ 1841.0, 1406.0 ], [ 1841.0, 1401.0 ], [ 1837.0, 1403.0 ], [ 1836.0, 1400.0 ], [ 1833.0, 1400.0 ] ] ] } },
{ "type": "Feature", "properties": { "layer": "buildings" }, "geometry": { "type": "Polygon", "coordinates": [ [ [ 700.0, 1402.0 ], [ 700.0, 1404.0 ], [ 703.0, 1404.0 ], [ 701.0, 1406.0 ], [ 703.0, 1409.0 ], [ 708.0, 1407.0 ], [ 705.0, 1402.0 ], [ 700.0, 1402.0 ] ] ] } },
{ "type": "Feature", "properties": { "layer": "buildings" }, "geometry": { "type": "Polygon", "coordinates": [ [ [ 138.0, 1382.0 ], [ 138.0, 1411.0 ], [ 139.0, 1411.0 ], [ 140.0, 1395.0 ], [ 138.0, 1382.0 ] ] ] } },
{ "type": "Feature", "properties": { "layer": "buildings" }, "geometry": { "type": "Polygon", "coordinates": [ [ [ 2013.0, 1404.0 ], [ 2012.0, 1406.0 ], [ 2007.0, 1405.0 ], [ 2005.0, 1407.0 ], [ 2010.0, 1407.0 ], [ 2013.0, 1412.0 ], [ 2014.0, 1406.0 ], [ 2018.0, 1408.0 ], [ 2017.0, 1405.0 ], [ 2013.0, 1404.0 ] ] ] } },
{ "type": "Feature", "properties": { "layer": "buildings" }, "geometry": { "type": "Polygon", "coordinates": [ [ [ 981.0, 1404.0 ], [ 981.0, 1410.0 ], [ 985.0, 1409.0 ], [ 990.0, 1412.0 ], [ 987.0, 1408.0 ], [ 982.0, 1407.0 ], [ 981.0, 1404.0 ] ] ] } },
{ "type": "Feature", "properties": { "layer": "buildings" }, "geometry": { "type": "Polygon", "coordinates": [ [ [ 1052.0, 1406.0 ], [ 1051.0, 1408.0 ], [ 1055.0, 1409.0 ], [ 1054.0, 1412.0 ], [ 1061.0, 1412.0 ], [ 1061.0, 1409.0 ], [ 1056.0, 1409.0 ], [ 1056.0, 1407.0 ], [ 1052.0, 1406.0 ] ] ] } },
{ "type": "Feature", "properties": { "layer": "buildings" }, "geometry": { "type": "Polygon", "coordinates": [ [ [ 496.0, 1408.0 ], [ 499.0, 1409.0 ], [ 498.0, 1412.0 ], [ 506.0, 1413.0 ], [ 505.0, 1410.0 ], [ 496.0, 1408.0 ] ] ] } },
{ "type": "Feature", "properties": { "layer": "buildings" }, "geometry": { "type": "Polygon", "coordinates": [ [ [ 1018.0, 1407.0 ], [ 1019.0, 1411.0 ], [ 1024.0, 1411.0 ], [ 1025.0, 1416.0 ], [ 1029.0, 1416.0 ], [ 1029.0, 1414.0 ], [ 1025.0, 1413.0 ], [ 1026.0, 1409.0 ], [ 1018.0, 1407.0 ] ] ] } },
{ "type": "Feature", "properties": { "layer": "buildings" }, "geometry": { "type": "Polygon", "coordinates": [ [ [ 2184.0, 1404.0 ], [ 2182.0, 1409.0 ], [ 2185.0, 1416.0 ], [ 2186.0, 1404.0 ], [ 2184.0, 1404.0 ] ] ] } },
{ "type": "Feature", "properties": { "layer": "buildings" }, "geometry": { "type": "Polygon", "coordinates": [ [ [ 198.0, 1413.0 ], [ 199.0, 1417.0 ], [ 201.0, 1415.0 ], [ 205.0, 1417.0 ], [ 205.0, 1413.0 ], [ 200.0, 1413.0 ], [ 200.0, 1415.0 ], [ 198.0, 1413.0 ] ] ] } },
{ "type": "Feature", "properties": { "layer": "buildings" }, "geometry": { "type": "Polygon", "coordinates": [ [ [ 130.0, 1403.0 ], [ 131.0, 1421.0 ], [ 132.0, 1421.0 ], [ 132.0, 1403.0 ], [ 130.0, 1403.0 ] ] ] } },
{ "type": "Feature", "properties": { "layer": "buildings" }, "geometry": { "type": "Polygon", "coordinates": [ [ [ 2148.0, 1414.0 ], [ 2147.0, 1420.0 ], [ 2145.0, 1419.0 ], [ 2144.0, 1421.0 ], [ 2151.0, 1421.0 ], [ 2148.0, 1414.0 ] ] ] } },
{ "type": "Feature", "properties": { "layer": "buildings" }, "geometry": { "type": "Polygon", "coordinates": [ [ [ 2058.0, 1414.0 ], [ 2058.0, 1422.0 ], [ 2063.0, 1422.0 ], [ 2064.0, 1419.0 ], [ 2061.0, 1420.0 ], [ 2060.0, 1414.0 ], [ 2058.0, 1414.0 ] ], [ [ 2059.0, 1421.0 ], [ 2060.0, 1419.0 ], [ 2060.0, 1421.0 ], [ 2059.0, 1421.0 ] ] ] } },
{ "type": "Feature", "properties": { "layer": "buildings" }, "geometry": { "type": "Polygon", "coordinates": [ [ [ 226.0, 1415.0 ], [ 225.0, 1419.0 ], [ 228.0, 1424.0 ], [ 230.0, 1421.0 ], [ 227.0, 1418.0 ], [ 228.0, 1415.0 ], [ 226.0, 1415.0 ] ] ] } },
{ "type": "Feature", "properties": { "layer": "buildings" }, "geometry": { "type": "Polygon", "coordinates": [ [ [ 1901.0, 1417.0 ], [ 1899.0, 1421.0 ], [ 1904.0, 1420.0 ], [ 1905.0, 1425.0 ], [ 1905.0, 1418.0 ], [ 1901.0, 1417.0 ] ] ] } },
{ "type": "Feature", "properties": { "layer": "buildings" }, "geometry": { "type": "Polygon", "coordinates": [ [ [ 2124.0, 1404.0 ], [ 2123.0, 1424.0 ], [ 2127.0, 1425.0 ], [ 2131.0, 1422.0 ], [ 2131.0, 1419.0 ], [ 2129.0, 1417.0 ], [ 2129.0, 1421.0 ], [ 2125.0, 1420.0 ], [ 2126.0, 1407.0 ], [ 2124.0, 1404.0 ] ] ] } },
{ "type": "Feature", "properties": { "layer": "buildings" }, "geometry": { "type": "Polygon", "coordinates": [ [ [ 1264.0, 1419.0 ], [ 1263.0, 1421.0 ], [ 1266.0, 1422.0 ], [ 1264.0, 1425.0 ], [ 1269.0, 1428.0 ], [ 1267.0, 1421.0 ], [ 1264.0, 1419.0 ] ] ] } },
{ "type": "Feature", "properties": { "layer": "buildings" }, "geometry": { "type": "Polygon", "coordinates": [ [ [ 1450.0, 1418.0 ], [ 1450.0, 1425.0 ], [ 1447.0, 1423.0 ], [ 1445.0, 1428.0 ], [ 1451.0, 1427.0 ], [ 1452.0, 1419.0 ], [ 1450.0, 1418.0 ] ] ] } },
{ "type": "Feature", "properties": { "layer": "buildings" }, "geometry": { "type": "Polygon", "coordinates": [ [ [ 1754.0, 1423.0 ], [ 1753.0, 1429.0 ], [ 1756.0, 1431.0 ], [ 1758.0, 1423.0 ], [ 1754.0, 1423.0 ] ] ] } },
{ "type": "Feature", "properties": { "layer": "buildings" }, "geometry": { "type": "Polygon", "coordinates": [ [ [ 657.0, 1428.0 ], [ 658.0, 1433.0 ], [ 665.0, 1432.0 ], [ 663.0, 1430.0 ], [ 660.0, 1431.0 ], [ 657.0, 1428.0 ] ] ] } },
{ "type": "Feature", "properties": { "layer": "buildings" }, "geometry": { "type": "Polygon", "coordinates": [ [ [ 1912.0, 1422.0 ], [ 1913.0, 1426.0 ], [ 1910.0, 1429.0 ], [ 1910.0, 1434.0 ], [ 1912.0, 1429.0 ], [ 1914.0, 1429.0 ], [ 1915.0, 1422.0 ], [ 1912.0, 1422.0 ] ] ] } },
{ "type": "Feature", "properties": { "layer": "buildings" }, "geometry": { "type": "Polygon", "coordinates": [ [ [ 1406.0, 1425.0 ], [ 1406.0, 1429.0 ], [ 1402.0, 1430.0 ], [ 1402.0, 1433.0 ], [ 1406.0, 1432.0 ], [ 1405.0, 1434.0 ], [ 1407.0, 1435.0 ], [ 1406.0, 1430.0 ], [ 1412.0, 1429.0 ], [ 1412.0, 1427.0 ], [ 1407.0, 1427.0 ], [ 1406.0, 1425.0 ] ] ] } },
{ "type": "Feature", "properties": { "layer": "buildings" }, "geometry": { "type": "Polygon", "coordinates": [ [ [ 231.0, 1439.0 ], [ 229.0, 1442.0 ], [ 237.0, 1443.0 ], [ 238.0, 1441.0 ], [ 231.0, 1439.0 ] ] ] } },
{ "type": "Feature", "properties": { "layer": "buildings" }, "geometry": { "type": "Polygon", "coordinates": [ [ [ 1387.0, 1435.0 ], [ 1384.0, 1442.0 ], [ 1391.0, 1442.0 ], [ 1392.0, 1444.0 ], [ 1391.0, 1440.0 ], [ 1386.0, 1441.0 ], [ 1387.0, 1435.0 ] ] ] } },
{ "type": "Feature", "properties": { "layer": "buildings" }, "geometry": { "type": "Polygon", "coordinates": [ [ [ 199.0, 1443.0 ], [ 199.0, 1448.0 ], [ 204.0, 1449.0 ], [ 204.0, 1444.0 ], [ 202.0, 1443.0 ], [ 203.0, 1446.0 ], [ 200.0, 1447.0 ], [ 201.0, 1444.0 ], [ 199.0, 1443.0 ] ] ] } },
{ "type": "Feature", "properties": { "layer": "buildings" }, "geometry": { "type": "Polygon", "coordinates": [ [ [ 656.0, 1445.0 ], [ 656.0, 1449.0 ], [ 662.0, 1448.0 ], [ 662.0, 1445.0 ], [ 658.0, 1447.0 ], [ 656.0, 1445.0 ] ] ] } },
{ "type": "Feature", "properties": { "layer": "buildings" }, "geometry": { "type": "Polygon", "coordinates": [ [ [ 666.0, 1444.0 ], [ 665.0, 1447.0 ], [ 671.0, 1451.0 ], [ 673.0, 1451.0 ], [ 671.0, 1448.0 ], [ 674.0, 1448.0 ], [ 674.0, 1453.0 ], [ 676.0, 1454.0 ], [ 677.0, 1445.0 ], [ 671.0, 1447.0 ], [ 666.0, 1444.0 ] ] ] } },
{ "type": "Feature", "properties": { "layer": "buildings" }, "geometry": { "type": "Polygon", "coordinates": [ [ [ 379.0, 1451.0 ], [ 384.0, 1454.0 ], [ 392.0, 1453.0 ], [ 392.0, 1451.0 ], [ 379.0, 1451.0 ] ] ] } },
{ "type": "Feature", "properties": { "layer": "buildings" }, "geometry": { "type": "Polygon", "coordinates": [ [ [ 1311.0, 1451.0 ], [ 1311.0, 1455.0 ], [ 1314.0, 1455.0 ], [ 1315.0, 1458.0 ], [ 1322.0, 1457.0 ], [ 1320.0, 1456.0 ], [ 1321.0, 1453.0 ], [ 1313.0, 1454.0 ], [ 1311.0, 1451.0 ] ] ] } },
{ "type": "Feature", "properties": { "layer": "buildings" }, "geometry": { "type": "Polygon", "coordinates": [ [ [ 1373.0, 1458.0 ], [ 1373.0, 1461.0 ], [ 1377.0, 1461.0 ], [ 1377.0, 1463.0 ], [ 1386.0, 1462.0 ], [ 1385.0, 1459.0 ], [ 1379.0, 1461.0 ], [ 1373.0, 1458.0 ] ] ] } },
{ "type": "Feature", "properties": { "layer": "buildings" }, "geometry": { "type": "Polygon", "coordinates": [ [ [ 1424.0, 1455.0 ], [ 1423.0, 1464.0 ], [ 1429.0, 1463.0 ], [ 1429.0, 1461.0 ], [ 1424.0, 1455.0 ] ] ] } },
{ "type": "Feature", "properties": { "layer": "buildings" }, "geometry": { "type": "Polygon", "coordinates": [ [ [ 1281.0, 1459.0 ], [ 1282.0, 1461.0 ], [ 1287.0, 1461.0 ], [ 1287.0, 1465.0 ], [ 1288.0, 1462.0 ], [ 1293.0, 1463.0 ], [ 1290.0, 1459.0 ], [ 1289.0, 1461.0 ], [ 1288.0, 1459.0 ], [ 1281.0, 1459.0 ] ] ] } },
{ "type": "Feature", "properties": { "layer": "buildings" }, "geometry": { "type": "Polygon", "coordinates": [ [ [ 1349.0, 1459.0 ], [ 1347.0, 1464.0 ], [ 1343.0, 1461.0 ], [ 1345.0, 1467.0 ], [ 1351.0, 1465.0 ], [ 1350.0, 1462.0 ], [ 1352.0, 1461.0 ], [ 1349.0, 1459.0 ] ] ] } },
{ "type": "Feature", "properties": { "layer": "buildings" }, "geometry": { "type": "Polygon", "coordinates": [ [ [ 1321.0, 1459.0 ], [ 1322.0, 1463.0 ], [ 1319.0, 1464.0 ], [ 1316.0, 1463.0 ], [ 1318.0, 1460.0 ], [ 1315.0, 1460.0 ], [ 1315.0, 1463.0 ], [ 1307.0, 1461.0 ], [ 1304.0, 1463.0 ], [ 1312.0, 1466.0 ], [ 1325.0, 1464.0 ], [ 1325.0, 1467.0 ], [ 1326.0, 1464.0 ], [ 1332.0, 1464.0 ], [ 1332.0, 1462.0 ], [ 1328.0, 1463.0 ], [ 1328.0, 1460.0 ], [ 1326.0, 1463.0 ], [ 1325.0, 1460.0 ], [ 1321.0, 1459.0 ] ], [ [ 1324.0, 1462.0 ], [ 1325.0, 1461.0 ], [ 1325.0, 1462.0 ], [ 1324.0, 1462.0 ] ], [ [ 1323.0, 1463.0 ], [ 1324.0, 1462.0 ], [ 1324.0, 1463.0 ], [ 1323.0, 1463.0 ] ] ] } },
{ "type": "Feature", "properties": { "layer": "buildings" }, "geometry": { "type": "Polygon", "coordinates": [ [ [ 1272.0, 1458.0 ], [ 1274.0, 1462.0 ], [ 1272.0, 1462.0 ], [ 1271.0, 1467.0 ], [ 1273.0, 1469.0 ], [ 1276.0, 1459.0 ], [ 1272.0, 1458.0 ] ] ] } },
{ "type": "Feature", "properties": { "layer": "buildings" }, "geometry": { "type": "Polygon", "coordinates": [ [ [ 1266.0, 1458.0 ], [ 1266.0, 1463.0 ], [ 1265.0, 1462.0 ], [ 1263.0, 1463.0 ], [ 1267.0, 1465.0 ], [ 1268.0, 1470.0 ], [ 1271.0, 1458.0 ], [ 1266.0, 1458.0 ] ] ] } },
{ "type": "Feature", "properties": { "layer": "buildings" }, "geometry": { "type": "Polygon", "coordinates": [ [ [ 285.0, 1471.0 ], [ 284.0, 1474.0 ], [ 276.0, 1474.0 ], [ 275.0, 1472.0 ], [ 275.0, 1474.0 ], [ 263.0, 1474.0 ], [ 263.0, 1476.0 ], [ 287.0, 1476.0 ], [ 289.0, 1471.0 ], [ 285.0, 1471.0 ] ] ] } },
{ "type": "Feature", "properties": { "layer": "buildings" }, "geometry": { "type": "Polygon", "coordinates": [ [ [ 289.0, 1474.0 ], [ 291.0, 1476.0 ], [ 302.0, 1476.0 ], [ 301.0, 1474.0 ], [ 289.0, 1474.0 ] ] ] } },
{ "type": "Feature", "properties": { "layer": "buildings" }, "geometry": { "type": "Polygon", "coordinates": [ [ [ 821.0, 1471.0 ], [ 819.0, 1474.0 ], [ 816.0, 1475.0 ], [ 825.0, 1475.0 ], [ 823.0, 1474.0 ], [ 825.0, 1471.0 ], [ 821.0, 1471.0 ] ], [ [ 820.0, 1474.0 ], [ 821.0, 1473.0 ], [ 821.0, 1474.0 ], [ 820.0, 1474.0 ] ] ] } },
{ "type": "Feature", "properties": { "layer": "buildings" }, "geometry": { "type": "Polygon", "coordinates": [ [ [ 1366.0, 1472.0 ], [ 1365.0, 1476.0 ], [ 1374.0, 1476.0 ], [ 1374.0, 1475.0 ], [ 1366.0, 1472.0 ] ] ] } },
{ "type": "Feature", "properties": { "layer": "buildings" }, "geometry": { "type": "Polygon", "coordinates": [ [ [ 241.0, 1471.0 ], [ 239.0, 1474.0 ], [ 236.0, 1474.0 ], [ 237.0, 1477.0 ], [ 245.0, 1475.0 ], [ 245.0, 1471.0 ], [ 241.0, 1471.0 ] ], [ [ 240.0, 1474.0 ], [ 241.0, 1473.0 ], [ 241.0, 1474.0 ], [ 240.0, 1474.0 ] ] ] } },
{ "type": "Feature", "properties": { "layer": "buildings" }, "geometry": { "type": "Polygon", "coordinates": [ [ [ 308.0, 1472.0 ], [ 313.0, 1474.0 ], [ 306.0, 1475.0 ], [ 307.0, 1477.0 ], [ 323.0, 1476.0 ], [ 314.0, 1474.0 ], [ 316.0, 1472.0 ], [ 308.0, 1472.0 ] ] ] } },
{ "type": "Feature", "properties": { "layer": "buildings" }, "geometry": { "type": "Polygon", "coordinates": [ [ [ 1290.0, 1471.0 ], [ 1291.0, 1478.0 ], [ 1305.0, 1476.0 ], [ 1305.0, 1474.0 ], [ 1299.0, 1474.0 ], [ 1297.0, 1471.0 ], [ 1294.0, 1474.0 ], [ 1296.0, 1476.0 ], [ 1292.0, 1476.0 ], [ 1293.0, 1474.0 ], [ 1290.0, 1471.0 ] ] ] } },
{ "type": "Feature", "properties": { "layer": "buildings" }, "geometry": { "type": "Polygon", "coordinates": [ [ [ 132.0, 1442.0 ], [ 131.0, 1469.0 ], [ 133.0, 1477.0 ], [ 131.0, 1476.0 ], [ 131.0, 1481.0 ], [ 134.0, 1480.0 ], [ 134.0, 1442.0 ], [ 132.0, 1442.0 ] ], [ [ 132.0, 1453.0 ], [ 133.0, 1452.0 ], [ 133.0, 1453.0 ], [ 132.0, 1453.0 ] ], [ [ 132.0, 1459.0 ], [ 133.0, 1456.0 ], [ 133.0, 1459.0 ], [ 132.0, 1459.0 ] ] ] } },
{ "type": "Feature", "properties": { "layer": "buildings" }, "geometry": { "type": "Polygon", "coordinates": [ [ [ 1274.0, 1472.0 ], [ 1274.0, 1483.0 ], [ 1276.0, 1483.0 ], [ 1276.0, 1472.0 ], [ 1274.0, 1472.0 ] ] ] } },
{ "type": "Feature", "properties": { "layer": "buildings" }, "geometry": { "type": "Polygon", "coordinates": [ [ [ 278.0, 1493.0 ], [ 244.0, 1493.0 ], [ 244.0, 1495.0 ], [ 278.0, 1495.0 ], [ 278.0, 1493.0 ] ] ] } },
{ "type": "Feature", "properties": { "layer": "buildings" }, "geometry": { "type": "Polygon", "coordinates": [ [ [ 398.0, 1502.0 ], [ 397.0, 1505.0 ], [ 409.0, 1505.0 ], [ 409.0, 1502.0 ], [ 404.0, 1504.0 ], [ 398.0, 1502.0 ] ] ] } },
{ "type": "Feature", "properties": { "layer": "buildings" }, "geometry": { "type": "Polygon", "coordinates": [ [ [ 428.0, 1504.0 ], [ 423.0, 1503.0 ], [ 416.0, 1505.0 ], [ 428.0, 1504.0 ] ] ] } },
{ "type": "Feature", "properties": { "layer": "buildings" }, "geometry": { "type": "Polygon", "coordinates": [ [ [ 434.0, 1502.0 ], [ 432.0, 1505.0 ], [ 435.0, 1506.0 ], [ 446.0, 1504.0 ], [ 444.0, 1502.0 ], [ 437.0, 1502.0 ], [ 437.0, 1504.0 ], [ 434.0, 1502.0 ] ] ] } },
{ "type": "Feature", "properties": { "layer": "buildings" }, "geometry": { "type": "Polygon", "coordinates": [ [ [ 1475.0, 1504.0 ], [ 1475.0, 1506.0 ], [ 1478.0, 1507.0 ], [ 1505.0, 1507.0 ], [ 1475.0, 1504.0 ] ] ] } },
{ "type": "Feature", "properties": { "layer": "buildings" }, "geometry": { "type": "Polygon", "coordinates": [ [ [ 132.0, 1499.0 ], [ 132.0, 1514.0 ], [ 134.0, 1514.0 ], [ 134.0, 1499.0 ], [ 132.0, 1499.0 ] ] ] } },
{ "type": "Feature", "properties": { "layer": "buildings" }, "geometry": { "type": "Polygon", "coordinates": [ [ [ 744.0, 1512.0 ], [ 744.0, 1515.0 ], [ 982.0, 1515.0 ], [ 982.0, 1513.0 ], [ 821.0, 1514.0 ], [ 744.0, 1512.0 ] ] ] } },
{ "type": "Feature", "properties": { "layer": "buildings" }, "geometry": { "type": "Polygon", "coordinates": [ [ [ 458.0, 1512.0 ], [ 446.0, 1514.0 ], [ 445.0, 1513.0 ], [ 420.0, 1514.0 ], [ 480.0, 1515.0 ], [ 477.0, 1513.0 ], [ 458.0, 1512.0 ] ] ] } },
{ "type": "Feature", "properties": { "layer": "buildings" }, "geometry": { "type": "Polygon", "coordinates": [ [ [ 500.0, 1513.0 ], [ 504.0, 1515.0 ], [ 609.0, 1515.0 ], [ 600.0, 1513.0 ], [ 500.0, 1513.0 ] ] ] } },
{ "type": "Feature", "properties": { "layer": "buildings" }, "geometry": { "type": "Polygon", "coordinates": [ [ [ 247.0, 1513.0 ], [ 244.0, 1515.0 ], [ 278.0, 1515.0 ], [ 278.0, 1513.0 ], [ 247.0, 1513.0 ] ] ] } },
{ "type": "Feature", "properties": { "layer": "buildings" }, "geometry": { "type": "Polygon", "coordinates": [ [ [ 638.0, 1513.0 ], [ 615.0, 1515.0 ], [ 640.0, 1515.0 ], [ 638.0, 1513.0 ] ] ] } },
{ "type": "Feature", "properties": { "layer": "buildings" }, "geometry": { "type": "Polygon", "coordinates": [ [ [ 742.0, 1515.0 ], [ 740.0, 1513.0 ], [ 729.0, 1513.0 ], [ 722.0, 1515.0 ], [ 742.0, 1515.0 ] ] ] } },
{ "type": "Feature", "properties": { "layer": "buildings" }, "geometry": { "type": "Polygon", "coordinates": [ [ [ 1814.0, 1515.0 ], [ 1814.0, 1517.0 ], [ 1864.0, 1517.0 ], [ 1863.0, 1515.0 ], [ 1814.0, 1515.0 ] ] ] } },
{ "type": "Feature", "properties": { "layer": "buildings" }, "geometry": { "type": "Polygon", "coordinates": [ [ [ 2102.0, 1514.0 ], [ 2101.0, 1517.0 ], [ 2127.0, 1517.0 ], [ 2126.0, 1515.0 ], [ 2106.0, 1516.0 ], [ 2102.0, 1514.0 ] ] ] } },
{ "type": "Feature", "properties": { "layer": "buildings" }, "geometry": { "type": "Polygon", "coordinates": [ [ [ 1771.0, 1515.0 ], [ 1768.0, 1517.0 ], [ 1783.0, 1517.0 ], [ 1783.0, 1515.0 ], [ 1771.0, 1515.0 ] ] ] } },
{ "type": "Feature", "properties": { "layer": "buildings" }, "geometry": { "type": "Polygon", "coordinates": [ [ [ 1481.0, 1515.0 ], [ 1481.0, 1517.0 ], [ 1503.0, 1518.0 ], [ 1538.0, 1517.0 ], [ 1481.0, 1515.0 ] ] ] } },
{ "type": "Feature", "properties": { "layer": "buildings" }, "geometry": { "type": "Polygon", "coordinates": [ [ [ 1687.0, 1516.0 ], [ 1694.0, 1518.0 ], [ 1718.0, 1517.0 ], [ 1718.0, 1516.0 ], [ 1687.0, 1516.0 ] ] ] } },
{ "type": "Feature", "properties": { "layer": "buildings" }, "geometry": { "type": "Polygon", "coordinates": [ [ [ 1928.0, 1515.0 ], [ 1923.0, 1517.0 ], [ 2074.0, 1517.0 ], [ 2074.0, 1515.0 ], [ 1928.0, 1515.0 ] ] ] } },
{ "type": "Feature", "properties": { "layer": "buildings" }, "geometry": { "type": "Polygon", "coordinates": [ [ [ 2228.0, 1496.0 ], [ 2228.0, 1517.0 ], [ 2226.0, 1519.0 ], [ 2227.0, 1521.0 ], [ 2230.0, 1520.0 ], [ 2228.0, 1496.0 ] ] ] } },
{ "type": "Feature", "properties": { "layer": "buildings" }, "geometry": { "type": "Polygon", "coordinates": [ [ [ 412.0, 1521.0 ], [ 402.0, 1520.0 ], [ 357.0, 1521.0 ], [ 412.0, 1521.0 ] ] ] } },
{ "type": "Feature", "properties": { "layer": "buildings" }, "geometry": { "type": "Polygon", "coordinates": [ [ [ 1470.0, 1529.0 ], [ 1464.0, 1531.0 ], [ 1471.0, 1531.0 ], [ 1470.0, 1533.0 ], [ 1477.0, 1531.0 ], [ 1470.0, 1529.0 ] ] ] } },
{ "type": "Feature", "properties": { "layer": "buildings" }, "geometry": { "type": "Polygon", "coordinates": [ [ [ 783.0, 1530.0 ], [ 782.0, 1534.0 ], [ 777.0, 1534.0 ], [ 779.0, 1538.0 ], [ 780.0, 1536.0 ], [ 792.0, 1535.0 ], [ 790.0, 1533.0 ], [ 786.0, 1534.0 ], [ 787.0, 1531.0 ], [ 783.0, 1530.0 ] ] ] } },
{ "type": "Feature", "properties": { "layer": "buildings" }, "geometry": { "type": "Polygon", "coordinates": [ [ [ 1459.0, 1537.0 ], [ 1464.0, 1538.0 ], [ 1465.0, 1541.0 ], [ 1468.0, 1540.0 ], [ 1468.0, 1542.0 ], [ 1478.0, 1540.0 ], [ 1475.0, 1537.0 ], [ 1459.0, 1537.0 ] ] ] } },
{ "type": "Feature", "properties": { "layer": "buildings" }, "geometry": { "type": "Polygon", "coordinates": [ [ [ 787.0, 1551.0 ], [ 786.0, 1553.0 ], [ 799.0, 1553.0 ], [ 799.0, 1551.0 ], [ 787.0, 1551.0 ] ] ] } },
{ "type": "Feature", "properties": { "layer": "buildings" }, "geometry": { "type": "Polygon", "coordinates": [ [ [ 526.0, 1604.0 ], [ 526.0, 1606.0 ], [ 520.0, 1606.0 ], [ 524.0, 1607.0 ], [ 521.0, 1611.0 ], [ 527.0, 1611.0 ], [ 523.0, 1610.0 ], [ 527.0, 1608.0 ], [ 526.0, 1604.0 ] ] ] } },
{ "type": "Feature", "properties": { "layer": "buildings" }, "geometry": { "type": "Polygon", "coordinates": [ [ [ 1732.0, 1638.0 ], [ 1729.0, 1640.0 ], [ 1744.0, 1641.0 ], [ 1743.0, 1639.0 ], [ 1732.0, 1638.0 ] ] ] } },
{ "type": "Feature", "properties": { "layer": "buildings" }, "geometry": { "type": "Polygon", "coordinates": [ [ [ 1710.0, 1645.0 ], [ 1709.0, 1647.0 ], [ 1699.0, 1646.0 ], [ 1698.0, 1648.0 ], [ 1713.0, 1649.0 ], [ 1714.0, 1647.0 ], [ 1710.0, 1645.0 ] ] ] } },
{ "type": "Feature", "properties": { "layer": "buildings" }, "geometry": { "type": "Polygon", "coordinates": [ [ [ 1778.0, 1644.0 ], [ 1778.0, 1652.0 ], [ 1780.0, 1652.0 ], [ 1780.0, 1648.0 ], [ 1782.0, 1651.0 ], [ 1783.0, 1644.0 ], [ 1781.0, 1646.0 ], [ 1778.0, 1644.0 ] ], [ [ 1779.0, 1647.0 ], [ 1780.0, 1646.0 ], [ 1780.0, 1647.0 ], [ 1779.0, 1647.0 ] ] ] } },
{ "type": "Feature", "properties": { "layer": "buildings" }, "geometry": { "type": "Polygon", "coordinates": [ [ [ 493.0, 1653.0 ], [ 493.0, 1657.0 ], [ 495.0, 1658.0 ], [ 496.0, 1656.0 ], [ 496.0, 1659.0 ], [ 509.0, 1660.0 ], [ 511.0, 1657.0 ], [ 499.0, 1657.0 ], [ 497.0, 1656.0 ], [ 499.0, 1654.0 ], [ 493.0, 1653.0 ] ] ] } },
{ "type": "Feature", "properties": { "layer": "buildings" }, "geometry": { "type": "Polygon", "coordinates": [ [ [ 527.0, 1655.0 ], [ 522.0, 1658.0 ], [ 517.0, 1658.0 ], [ 516.0, 1656.0 ], [ 516.0, 1659.0 ], [ 524.0, 1659.0 ], [ 524.0, 1661.0 ], [ 527.0, 1659.0 ], [ 539.0, 1660.0 ], [ 539.0, 1658.0 ], [ 535.0, 1658.0 ], [ 538.0, 1657.0 ], [ 536.0, 1655.0 ], [ 527.0, 1655.0 ] ], [ [ 528.0, 1658.0 ], [ 529.0, 1656.0 ], [ 529.0, 1658.0 ], [ 528.0, 1658.0 ] ], [ [ 532.0, 1658.0 ], [ 534.0, 1657.0 ], [ 534.0, 1658.0 ], [ 532.0, 1658.0 ] ] ] } },
{ "type": "Feature", "properties": { "layer": "buildings" }, "geometry": { "type": "Polygon", "coordinates": [ [ [ 402.0, 1663.0 ], [ 409.0, 1666.0 ], [ 414.0, 1665.0 ], [ 414.0, 1663.0 ], [ 402.0, 1663.0 ] ] ] } },
{ "type": "Feature", "properties": { "layer": "buildings" }, "geometry": { "type": "Polygon", "coordinates": [ [ [ 448.0, 1663.0 ], [ 447.0, 1665.0 ], [ 455.0, 1666.0 ], [ 472.0, 1665.0 ], [ 470.0, 1663.0 ], [ 448.0, 1663.0 ] ] ] } },
{ "type": "Feature", "properties": { "layer": "buildings" }, "geometry": { "type": "Polygon", "coordinates": [ [ [ 505.0, 1663.0 ], [ 480.0, 1665.0 ], [ 511.0, 1665.0 ], [ 505.0, 1663.0 ] ] ] } },
{ "type": "Feature", "properties": { "layer": "buildings" }, "geometry": { "type": "Polygon", "coordinates": [ [ [ 416.0, 1663.0 ], [ 416.0, 1666.0 ], [ 421.0, 1665.0 ], [ 421.0, 1667.0 ], [ 427.0, 1665.0 ], [ 427.0, 1663.0 ], [ 416.0, 1663.0 ] ] ] } },
{ "type": "Feature", "properties": { "layer": "buildings" }, "geometry": { "type": "Polygon", "coordinates": [ [ [ 1775.0, 1660.0 ], [ 1776.0, 1664.0 ], [ 1773.0, 1663.0 ], [ 1772.0, 1666.0 ], [ 1776.0, 1667.0 ], [ 1777.0, 1671.0 ], [ 1777.0, 1661.0 ], [ 1775.0, 1660.0 ] ] ] } },
{ "type": "Feature", "properties": { "layer": "buildings" }, "geometry": { "type": "Polygon", "coordinates": [ [ [ 1784.0, 1646.0 ], [ 1784.0, 1656.0 ], [ 1786.0, 1654.0 ], [ 1784.0, 1658.0 ], [ 1786.0, 1666.0 ], [ 1784.0, 1667.0 ], [ 1786.0, 1667.0 ], [ 1787.0, 1671.0 ], [ 1787.0, 1653.0 ], [ 1785.0, 1653.0 ], [ 1784.0, 1646.0 ] ], [ [ 1785.0, 1661.0 ], [ 1786.0, 1660.0 ], [ 1786.0, 1661.0 ], [ 1785.0, 1661.0 ] ] ] } },
{ "type": "Feature", "properties": { "layer": "buildings" }, "geometry": { "type": "Polygon", "coordinates": [ [ [ 218.0, 1670.0 ], [ 219.0, 1672.0 ], [ 230.0, 1672.0 ], [ 230.0, 1670.0 ], [ 218.0, 1670.0 ] ] ] } },
{ "type": "Feature", "properties": { "layer": "buildings" }, "geometry": { "type": "Polygon", "coordinates": [ [ [ 1720.0, 1669.0 ], [ 1723.0, 1670.0 ], [ 1720.0, 1673.0 ], [ 1725.0, 1673.0 ], [ 1725.0, 1675.0 ], [ 1728.0, 1673.0 ], [ 1727.0, 1669.0 ], [ 1725.0, 1669.0 ], [ 1726.0, 1671.0 ], [ 1724.0, 1669.0 ], [ 1720.0, 1669.0 ] ] ] } },
{ "type": "Feature", "properties": { "layer": "buildings" }, "geometry": { "type": "Polygon", "coordinates": [ [ [ 500.0, 1669.0 ], [ 488.0, 1671.0 ], [ 494.0, 1671.0 ], [ 491.0, 1673.0 ], [ 494.0, 1675.0 ], [ 499.0, 1674.0 ], [ 495.0, 1671.0 ], [ 513.0, 1671.0 ], [ 500.0, 1669.0 ] ] ] } },
{ "type": "Feature", "properties": { "layer": "buildings" }, "geometry": { "type": "Polygon", "coordinates": [ [ [ 0.0, 73.0 ], [ 0.0, 1676.0 ], [ 2.0, 1677.0 ], [ 2.0, 73.0 ], [ 0.0, 73.0 ] ] ] } },
{ "type": "Feature", "properties": { "layer": "buildings" }, "geometry": { "type": "Polygon", "coordinates": [ [ [ 1754.0, 1673.0 ], [ 1753.0, 1675.0 ], [ 1759.0, 1675.0 ], [ 1757.0, 1676.0 ], [ 1758.0, 1678.0 ], [ 1764.0, 1677.0 ], [ 1759.0, 1673.0 ], [ 1754.0, 1673.0 ] ] ] } },
{ "type": "Feature", "properties": { "layer": "buildings" }, "geometry": { "type": "Polygon", "coordinates": [ [ [ 470.0, 1678.0 ], [ 469.0, 1682.0 ], [ 467.0, 1680.0 ], [ 455.0, 1680.0 ], [ 453.0, 1683.0 ], [ 462.0, 1682.0 ], [ 465.0, 1683.0 ], [ 464.0, 1685.0 ], [ 467.0, 1685.0 ], [ 467.0, 1683.0 ], [ 473.0, 1682.0 ], [ 470.0, 1678.0 ] ] ] } },
{ "type": "Feature", "properties": { "layer": "buildings" }, "geometry": { "type": "Polygon", "coordinates": [ [ [ 465.0, 1693.0 ], [ 466.0, 1695.0 ], [ 471.0, 1694.0 ], [ 471.0, 1697.0 ], [ 481.0, 1696.0 ], [ 472.0, 1695.0 ], [ 472.0, 1693.0 ], [ 465.0, 1693.0 ] ] ] } },
{ "type": "Feature", "properties": { "layer": "buildings" }, "geometry": { "type": "Polygon", "coordinates": [ [ [ 1756.0, 1697.0 ], [ 1759.0, 1702.0 ], [ 1764.0, 1699.0 ], [ 1764.0, 1697.0 ], [ 1756.0, 1697.0 ] ] ] } },
{ "type": "Feature", "properties": { "layer": "buildings" }, "geometry": { "type": "Polygon", "coordinates": [ [ [ 1687.0, 1697.0 ], [ 1685.0, 1704.0 ], [ 1692.0, 1704.0 ], [ 1691.0, 1702.0 ], [ 1689.0, 1702.0 ], [ 1691.0, 1699.0 ], [ 1688.0, 1700.0 ], [ 1687.0, 1697.0 ] ], [ [ 1688.0, 1703.0 ], [ 1689.0, 1702.0 ], [ 1689.0, 1703.0 ], [ 1688.0, 1703.0 ] ] ] } },
{ "type": "Feature", "properties": { "layer": "buildings" }, "geometry": { "type": "Polygon", "coordinates": [ [ [ 491.0, 1701.0 ], [ 490.0, 1703.0 ], [ 492.0, 1704.0 ], [ 486.0, 1703.0 ], [ 486.0, 1705.0 ], [ 495.0, 1706.0 ], [ 494.0, 1702.0 ], [ 491.0, 1701.0 ] ] ] } },
{ "type": "Feature", "properties": { "layer": "buildings" }, "geometry": { "type": "Polygon", "coordinates": [ [ [ 482.0, 1706.0 ], [ 482.0, 1709.0 ], [ 500.0, 1708.0 ], [ 500.0, 1707.0 ], [ 482.0, 1706.0 ] ] ] } },
{ "type": "Feature", "properties": { "layer": "buildings" }, "geometry": { "type": "Polygon", "coordinates": [ [ [ 454.0, 1705.0 ], [ 450.0, 1706.0 ], [ 450.0, 1710.0 ], [ 464.0, 1709.0 ], [ 454.0, 1705.0 ] ], [ [ 452.0, 1708.0 ], [ 455.0, 1707.0 ], [ 455.0, 1708.0 ], [ 452.0, 1708.0 ] ] ] } },
{ "type": "Feature", "properties": { "layer": "buildings" }, "geometry": { "type": "Polygon", "coordinates": [ [ [ 466.0, 1707.0 ], [ 469.0, 1709.0 ], [ 468.0, 1712.0 ], [ 474.0, 1711.0 ], [ 474.0, 1708.0 ], [ 481.0, 1709.0 ], [ 480.0, 1707.0 ], [ 466.0, 1707.0 ] ], [ [ 472.0, 1708.0 ], [ 473.0, 1710.0 ], [ 470.0, 1710.0 ], [ 470.0, 1709.0 ], [ 472.0, 1708.0 ] ] ] } },
{ "type": "Feature", "properties": { "layer": "buildings" }, "geometry": { "type": "Polygon", "coordinates": [ [ [ 434.0, 1713.0 ], [ 433.0, 1715.0 ], [ 438.0, 1715.0 ], [ 439.0, 1717.0 ], [ 445.0, 1716.0 ], [ 442.0, 1713.0 ], [ 434.0, 1713.0 ] ] ] } },
{ "type": "Feature", "properties": { "layer": "buildings" }, "geometry": { "type": "Polygon", "coordinates": [ [ [ 471.0, 1716.0 ], [ 472.0, 1719.0 ], [ 458.0, 1720.0 ], [ 461.0, 1720.0 ], [ 462.0, 1723.0 ], [ 468.0, 1720.0 ], [ 474.0, 1721.0 ], [ 474.0, 1717.0 ], [ 471.0, 1716.0 ] ] ] } },
{ "type": "Feature", "properties": { "layer": "buildings" }, "geometry": { "type": "Polygon", "coordinates": [ [ [ 1782.0, 1715.0 ], [ 1779.0, 1714.0 ], [ 1779.0, 1732.0 ], [ 1781.0, 1732.0 ], [ 1782.0, 1715.0 ] ] ] } },
{ "type": "Feature", "properties": { "layer": "buildings" }, "geometry": { "type": "Polygon", "coordinates": [ [ [ 1726.0, 1723.0 ], [ 1725.0, 1730.0 ], [ 1722.0, 1730.0 ], [ 1726.0, 1733.0 ], [ 1723.0, 1734.0 ], [ 1728.0, 1734.0 ], [ 1726.0, 1723.0 ] ] ] } },
{ "type": "Feature", "properties": { "layer": "buildings" }, "geometry": { "type": "Polygon", "coordinates": [ [ [ 2.0, 1737.0 ], [ 0.0, 1679.0 ], [ 0.0, 1804.0 ], [ 2.0, 1737.0 ] ] ] } },
{ "type": "Feature", "properties": { "layer": "buildings" }, "geometry": { "type": "Polygon", "coordinates": [ [ [ 78.0, 1798.0 ], [ 76.0, 1801.0 ], [ 79.0, 1802.0 ], [ 76.0, 1803.0 ], [ 76.0, 1807.0 ], [ 81.0, 1806.0 ], [ 77.0, 1805.0 ], [ 81.0, 1801.0 ], [ 78.0, 1798.0 ] ] ] } },
{ "type": "Feature", "properties": { "layer": "buildings" }, "geometry": { "type": "Polygon", "coordinates": [ [ [ 2399.0, 1785.0 ], [ 2398.0, 1861.0 ], [ 2399.0, 1861.0 ], [ 2399.0, 1785.0 ] ] ] } },
{ "type": "Feature", "properties": { "layer": "buildings" }, "geometry": { "type": "Polygon", "coordinates": [ [ [ 0.0, 1833.0 ], [ 0.0, 1892.0 ], [ 1.0, 1892.0 ], [ 3.0, 1885.0 ], [ 3.0, 1863.0 ], [ 2.0, 1837.0 ], [ 0.0, 1833.0 ] ] ] } },
{ "type": "Feature", "properties": { "layer": "buildings" }, "geometry": { "type": "Polygon", "coordinates": [ [ [ 694.0, 1899.0 ], [ 671.0, 1900.0 ], [ 694.0, 1900.0 ], [ 694.0, 1899.0 ] ] ] } },
{ "type": "Feature", "properties": { "layer": "buildings" }, "geometry": { "type": "Polygon", "coordinates": [ [ [ 974.0, 1899.0 ], [ 951.0, 1900.0 ], [ 974.0, 1900.0 ], [ 974.0, 1899.0 ] ] ] } },
{ "type": "Feature", "properties": { "layer": "buildings" }, "geometry": { "type": "Polygon", "coordinates": [ [ [ 1022.0, 1899.0 ], [ 981.0, 1900.0 ], [ 1022.0, 1900.0 ], [ 1022.0, 1899.0 ] ] ] } },
{ "type": "Feature", "properties": { "layer": "buildings" }, "geometry": { "type": "Polygon", "coordinates": [ [ [ 1929.0, 1899.0 ], [ 1901.0, 1900.0 ], [ 1929.0, 1900.0 ], [ 1929.0, 1899.0 ] ] ] } },
{ "type": "Feature", "properties": { "layer": "buildings" }, "geometry": { "type": "Polygon", "coordinates": [ [ [ 2054.0, 1899.0 ], [ 1932.0, 1900.0 ], [ 2054.0, 1900.0 ], [ 2054.0, 1899.0 ] ] ] } },
{ "type": "Feature", "properties": { "layer": "buildings" }, "geometry": { "type": "Polygon", "coordinates": [ [ [ 2160.0, 1899.0 ], [ 2055.0, 1900.0 ], [ 2160.0, 1900.0 ], [ 2160.0, 1899.0 ] ] ] } },
{ "type": "Feature", "properties": { "layer": "buildings" }, "geometry": { "type": "Polygon", "coordinates": [ [ [ 2185.0, 1899.0 ], [ 2162.0, 1900.0 ], [ 2185.0, 1900.0 ], [ 2185.0, 1899.0 ] ] ] } }
]
}
