{
"type": "FeatureCollection",
"name": "red_roads",
"features": [
{ "type": "Feature", "properties": { "layer": "red_roads" }, "geometry": { "type": "Polygon", "coordinates": [ [ [ 1814.0, 331.0 ], [ 1817.0, 335.0 ], [ 1815.0, 340.0 ], [ 1819.0, 340.0 ], [ 1819.0, 332.0 ], [ 1814.0, 331.0 ] ] ] } },
{ "type": "Feature", "properties": { "layer": "red_roads" }, "geometry": { "type": "Polygon", "coordinates": [ [ [ 164.0, 399.0 ], [ 162.0, 401.0 ], [ 163.0, 404.0 ], [ 171.0, 403.0 ], [ 172.0, 405.0 ], [ 177.0, 405.0 ], [ 187.0, 414.0 ], [ 190.0, 418.0 ], [ 188.0, 424.0 ], [ 192.0, 420.0 ], [ 196.0, 426.0 ], [ 198.0, 425.0 ], [ 198.0, 421.0 ], [ 179.0, 402.0 ], [ 164.0, 399.0 ] ] ] } },
{ "type": "Feature", "properties": { "layer": "red_roads" }, "geometry": { "type": "Polygon", "coordinates": [ [ [ 1797.0, 505.0 ], [ 1794.0, 508.0 ], [ 1795.0, 512.0 ], [ 1799.0, 512.0 ], [ 1801.0, 508.0 ], [ 1797.0, 505.0 ] ] ] } },
{ "type": "Feature", "properties": { "layer": "red_roads" }, "geometry": { "type": "Polygon", "coordinates": [ [ [ 1305.0, 551.0 ], [ 1309.0, 561.0 ], [ 1318.0, 576.0 ], [ 1319.0, 574.0 ], [ 1315.0, 568.0 ], [ 1317.0, 564.0 ], [ 1313.0, 564.0 ], [ 1307.0, 551.0 ], [ 1305.0, 551.0 ] ] ] } },
{ "type": "Feature", "properties": { "layer": "red_roads" }, "geometry": { "type": "Polygon", "coordinates": [ [ [ 1118.0, 732.0 ], [ 1114.0, 736.0 ], [ 1119.0, 746.0 ], [ 1120.0, 742.0 ], [ 1118.0, 732.0 ] ] ] } },
{ "type": "Feature", "properties": { "layer": "red_roads" }, "geometry": { "type": "Polygon", "coordinates": [ [ [ 1650.0, 754.0 ], [ 1644.0, 755.0 ], [ 1645.0, 761.0 ], [ 1643.0, 765.0 ], [ 1650.0, 759.0 ], [ 1650.0, 754.0 ] ] ] } },
{ "type": "Feature", "properties": { "layer": "red_roads" }, "geometry": { "type": "Polygon", "coordinates": [ [ [ 1632.0, 799.0 ], [ 1631.0, 810.0 ], [ 1627.0, 812.0 ], [ 1628.0, 820.0 ], [ 1634.0, 815.0 ], [ 1632.0, 810.0 ], [ 1634.0, 799.0 ], [ 1632.0, 799.0 ] ] ] } },
{ "type": "Feature", "properties": { "layer": "red_roads" }, "geometry": { "type": "Polygon", "coordinates": [ [ [ 1631.0, 834.0 ], [ 1632.0, 839.0 ], [ 1637.0, 842.0 ], [ 1640.0, 841.0 ], [ 1631.0, 834.0 ] ] ] } },
{ "type": "Feature", "properties": { "layer": "red_roads" }, "geometry": { "type": "Polygon", "coordinates": [ [ [ 2161.0, 415.0 ], [ 2145.0, 439.0 ], [ 2137.0, 438.0 ], [ 2129.0, 433.0 ], [ 2113.0, 435.0 ], [ 2010.0, 436.0 ], [ 2004.0, 433.0 ], [ 1997.0, 436.0 ], [ 1977.0, 435.0 ], [ 1965.0, 440.0 ], [ 1949.0, 453.0 ], [ 1944.0, 450.0 ], [ 1932.0, 455.0 ], [ 1916.0, 453.0 ], [ 1912.0, 459.0 ], [ 1901.0, 465.0 ], [ 1891.0, 474.0 ], [ 1877.0, 473.0 ], [ 1873.0, 479.0 ], [ 1868.0, 473.0 ], [ 1863.0, 473.0 ], [ 1860.0, 476.0 ], [ 1854.0, 477.0 ], [ 1852.0, 487.0 ], [ 1849.0, 489.0 ], [ 1832.0, 490.0 ], [ 1815.0, 500.0 ], [ 1811.0, 498.0 ], [ 1805.0, 510.0 ], [ 1786.0, 531.0 ], [ 1782.0, 533.0 ], [ 1782.0, 530.0 ], [ 1778.0, 530.0 ], [ 1781.0, 538.0 ], [ 1770.0, 548.0 ], [ 1765.0, 561.0 ], [ 1762.0, 564.0 ], [ 1749.0, 567.0 ], [ 1745.0, 573.0 ], [ 1737.0, 575.0 ], [ 1731.0, 581.0 ], [ 1726.0, 594.0 ], [ 1715.0, 612.0 ], [ 1707.0, 618.0 ], [ 1701.0, 631.0 ], [ 1691.0, 641.0 ], [ 1692.0, 644.0 ], [ 1683.0, 655.0 ], [ 1654.0, 731.0 ], [ 1544.0, 780.0 ], [ 1516.0, 787.0 ], [ 1510.0, 786.0 ], [ 1504.0, 789.0 ], [ 1488.0, 789.0 ], [ 1461.0, 809.0 ], [ 1452.0, 814.0 ], [ 1445.0, 815.0 ], [ 1443.0, 820.0 ], [ 1425.0, 833.0 ], [ 1406.0, 836.0 ], [ 1369.0, 852.0 ], [ 1347.0, 847.0 ], [ 1343.0, 850.0 ], [ 1320.0, 855.0 ], [ 1317.0, 859.0 ], [ 1322.0, 860.0 ], [ 1325.0, 857.0 ], [ 1350.0, 852.0 ], [ 1370.0, 856.0 ], [ 1394.0, 845.0 ], [ 1400.0, 845.0 ], [ 1411.0, 838.0 ], [ 1428.0, 836.0 ], [ 1441.0, 824.0 ], [ 1449.0, 822.0 ], [ 1453.0, 816.0 ], [ 1466.0, 811.0 ], [ 1470.0, 806.0 ], [ 1485.0, 798.0 ], [ 1487.0, 794.0 ], [ 1504.0, 792.0 ], [ 1510.0, 794.0 ], [ 1511.0, 792.0 ], [ 1536.0, 787.0 ], [ 1617.0, 750.0 ], [ 1622.0, 751.0 ], [ 1625.0, 747.0 ], [ 1649.0, 736.0 ], [ 1653.0, 735.0 ], [ 1655.0, 738.0 ], [ 1685.0, 658.0 ], [ 1689.0, 655.0 ], [ 1709.0, 622.0 ], [ 1718.0, 614.0 ], [ 1736.0, 580.0 ], [ 1747.0, 576.0 ], [ 1752.0, 569.0 ], [ 1761.0, 568.0 ], [ 1767.0, 564.0 ], [ 1774.0, 549.0 ], [ 1783.0, 543.0 ], [ 1787.0, 534.0 ], [ 1801.0, 521.0 ], [ 1813.0, 504.0 ], [ 1836.0, 493.0 ], [ 1853.0, 492.0 ], [ 1859.0, 479.0 ], [ 1868.0, 478.0 ], [ 1872.0, 484.0 ], [ 1876.0, 484.0 ], [ 1880.0, 481.0 ], [ 1881.0, 476.0 ], [ 1889.0, 479.0 ], [ 1920.0, 457.0 ], [ 1935.0, 458.0 ], [ 1940.0, 454.0 ], [ 1951.0, 456.0 ], [ 1958.0, 449.0 ], [ 1975.0, 439.0 ], [ 2112.0, 439.0 ], [ 2123.0, 437.0 ], [ 2140.0, 443.0 ], [ 2146.0, 443.0 ], [ 2162.0, 419.0 ], [ 2181.0, 419.0 ], [ 2188.0, 425.0 ], [ 2191.0, 424.0 ], [ 2182.0, 416.0 ], [ 2161.0, 415.0 ] ] ] } },
{ "type": "Feature", "properties": { "layer": "red_roads" }, "geometry": { "type": "Polygon", "coordinates": [ [ [ 1640.0, 844.0 ], [ 1641.0, 854.0 ], [ 1635.0, 858.0 ], [ 1636.0, 863.0 ], [ 1628.0, 872.0 ], [ 1630.0, 877.0 ], [ 1626.0, 883.0 ], [ 1627.0, 886.0 ], [ 1635.0, 875.0 ], [ 1636.0, 864.0 ], [ 1644.0, 854.0 ], [ 1643.0, 845.0 ], [ 1640.0, 844.0 ] ] ] } },
{ "type": "Feature", "properties": { "layer": "red_roads" }, "geometry": { "type": "Polygon", "coordinates": [ [ [ 1625.0, 895.0 ], [ 1624.0, 907.0 ], [ 1624.0, 923.0 ], [ 1627.0, 917.0 ], [ 1627.0, 895.0 ], [ 1625.0, 895.0 ] ] ] } },
{ "type": "Feature", "properties": { "layer": "red_roads" }, "geometry": { "type": "Polygon", "coordinates": [ [ [ 1546.0, 927.0 ], [ 1546.0, 929.0 ], [ 1558.0, 940.0 ], [ 1559.0, 938.0 ], [ 1546.0, 927.0 ] ] ] } },
{ "type": "Feature", "properties": { "layer": "red_roads" }, "geometry": { "type": "Polygon", "coordinates": [ [ [ 1623.0, 929.0 ], [ 1620.0, 932.0 ], [ 1620.0, 936.0 ], [ 1625.0, 940.0 ], [ 1627.0, 931.0 ], [ 1623.0, 929.0 ] ] ] } },
{ "type": "Feature", "properties": { "layer": "red_roads" }, "geometry": { "type": "Polygon", "coordinates": [ [ [ 640.0, 953.0 ], [ 640.0, 957.0 ], [ 651.0, 956.0 ], [ 651.0, 954.0 ], [ 640.0, 953.0 ] ] ] } },
{ "type": "Feature", "properties": { "layer": "red_roads" }, "geometry": { "type": "Polygon", "coordinates": [ [ [ 434.0, 951.0 ], [ 433.0, 958.0 ], [ 437.0, 958.0 ], [ 440.0, 955.0 ], [ 444.0, 956.0 ], [ 440.0, 951.0 ], [ 434.0, 951.0 ] ] ] } },
{ "type": "Feature", "properties": { "layer": "red_roads" }, "geometry": { "type": "Polygon", "coordinates": [ [ [ 2119.0, 949.0 ], [ 2120.0, 955.0 ], [ 2124.0, 962.0 ], [ 2125.0, 958.0 ], [ 2121.0, 949.0 ], [ 2119.0, 949.0 ] ] ] } },
{ "type": "Feature", "properties": { "layer": "red_roads" }, "geometry": { "type": "Polygon", "coordinates": [ [ [ 167.0, 916.0 ], [ 167.0, 920.0 ], [ 175.0, 924.0 ], [ 182.0, 931.0 ], [ 211.0, 932.0 ], [ 220.0, 929.0 ], [ 241.0, 931.0 ], [ 275.0, 952.0 ], [ 274.0, 958.0 ], [ 281.0, 953.0 ], [ 305.0, 949.0 ], [ 403.0, 964.0 ], [ 508.0, 962.0 ], [ 559.0, 960.0 ], [ 561.0, 958.0 ], [ 623.0, 958.0 ], [ 635.0, 955.0 ], [ 421.0, 960.0 ], [ 420.0, 954.0 ], [ 417.0, 952.0 ], [ 415.0, 957.0 ], [ 417.0, 956.0 ], [ 418.0, 960.0 ], [ 404.0, 960.0 ], [ 314.0, 946.0 ], [ 282.0, 950.0 ], [ 267.0, 944.0 ], [ 243.0, 928.0 ], [ 220.0, 926.0 ], [ 211.0, 929.0 ], [ 189.0, 929.0 ], [ 181.0, 925.0 ], [ 176.0, 919.0 ], [ 167.0, 916.0 ] ] ] } },
{ "type": "Feature", "properties": { "layer": "red_roads" }, "geometry": { "type": "Polygon", "coordinates": [ [ [ 2128.0, 975.0 ], [ 2130.0, 983.0 ], [ 2136.0, 990.0 ], [ 2137.0, 988.0 ], [ 2132.0, 982.0 ], [ 2130.0, 975.0 ], [ 2128.0, 975.0 ] ] ] } },
{ "type": "Feature", "properties": { "layer": "red_roads" }, "geometry": { "type": "Polygon", "coordinates": [ [ [ 1621.0, 986.0 ], [ 1619.0, 996.0 ], [ 1622.0, 998.0 ], [ 1625.0, 995.0 ], [ 1625.0, 991.0 ], [ 1623.0, 986.0 ], [ 1621.0, 986.0 ] ] ] } },
{ "type": "Feature", "properties": { "layer": "red_roads" }, "geometry": { "type": "Polygon", "coordinates": [ [ [ 2152.0, 1017.0 ], [ 2162.0, 1042.0 ], [ 2164.0, 1044.0 ], [ 2165.0, 1040.0 ], [ 2159.0, 1025.0 ], [ 2154.0, 1017.0 ], [ 2152.0, 1017.0 ] ] ] } },
{ "type": "Feature", "properties": { "layer": "red_roads" }, "geometry": { "type": "Polygon", "coordinates": [ [ [ 1828.0, 1051.0 ], [ 1830.0, 1058.0 ], [ 1834.0, 1061.0 ], [ 1835.0, 1059.0 ], [ 1828.0, 1051.0 ] ] ] } },
{ "type": "Feature", "properties": { "layer": "red_roads" }, "geometry": { "type": "Polygon", "coordinates": [ [ [ 2167.0, 1050.0 ], [ 2168.0, 1054.0 ], [ 2177.0, 1069.0 ], [ 2177.0, 1063.0 ], [ 2170.0, 1051.0 ], [ 2167.0, 1050.0 ] ] ] } },
{ "type": "Feature", "properties": { "layer": "red_roads" }, "geometry": { "type": "Polygon", "coordinates": [ [ [ 282.0, 1074.0 ], [ 286.0, 1082.0 ], [ 284.0, 1084.0 ], [ 285.0, 1087.0 ], [ 289.0, 1083.0 ], [ 287.0, 1081.0 ], [ 288.0, 1077.0 ], [ 282.0, 1074.0 ] ] ] } },
{ "type": "Feature", "properties": { "layer": "red_roads" }, "geometry": { "type": "Polygon", "coordinates": [ [ [ 1841.0, 1078.0 ], [ 1841.0, 1083.0 ], [ 1847.0, 1098.0 ], [ 1850.0, 1114.0 ], [ 1849.0, 1097.0 ], [ 1841.0, 1078.0 ] ] ] } },
{ "type": "Feature", "properties": { "layer": "red_roads" }, "geometry": { "type": "Polygon", "coordinates": [ [ [ 1957.0, 1114.0 ], [ 1955.0, 1122.0 ], [ 1949.0, 1132.0 ], [ 1957.0, 1122.0 ], [ 1959.0, 1116.0 ], [ 1957.0, 1114.0 ] ] ] } },
{ "type": "Feature", "properties": { "layer": "red_roads" }, "geometry": { "type": "Polygon", "coordinates": [ [ [ 2116.0, 1111.0 ], [ 2116.0, 1135.0 ], [ 2117.0, 1135.0 ], [ 2118.0, 1111.0 ], [ 2116.0, 1111.0 ] ] ] } },
{ "type": "Feature", "properties": { "layer": "red_roads" }, "geometry": { "type": "Polygon", "coordinates": [ [ [ 1850.0, 1116.0 ], [ 1853.0, 1134.0 ], [ 1860.0, 1148.0 ], [ 1861.0, 1142.0 ], [ 1873.0, 1134.0 ], [ 1864.0, 1136.0 ], [ 1859.0, 1140.0 ], [ 1855.0, 1133.0 ], [ 1852.0, 1116.0 ], [ 1850.0, 1116.0 ] ] ] } },
{ "type": "Feature", "properties": { "layer": "red_roads" }, "geometry": { "type": "Polygon", "coordinates": [ [ [ 1919.0, 1152.0 ], [ 1916.0, 1153.0 ], [ 1917.0, 1157.0 ], [ 1910.0, 1167.0 ], [ 1918.0, 1158.0 ], [ 1925.0, 1157.0 ], [ 1919.0, 1152.0 ] ] ] } },
{ "type": "Feature", "properties": { "layer": "red_roads" }, "geometry": { "type": "Polygon", "coordinates": [ [ [ 1845.0, 1171.0 ], [ 1845.0, 1174.0 ], [ 1839.0, 1181.0 ], [ 1835.0, 1192.0 ], [ 1846.0, 1177.0 ], [ 1847.0, 1171.0 ], [ 1845.0, 1171.0 ] ] ] } },
{ "type": "Feature", "properties": { "layer": "red_roads" }, "geometry": { "type": "Polygon", "coordinates": [ [ [ 1904.0, 1184.0 ], [ 1906.0, 1197.0 ], [ 1909.0, 1205.0 ], [ 1908.0, 1191.0 ], [ 1906.0, 1184.0 ], [ 1904.0, 1184.0 ] ] ] } },
{ "type": "Feature", "properties": { "layer": "red_roads" }, "geometry": { "type": "Polygon", "coordinates": [ [ [ 1850.0, 1301.0 ], [ 1850.0, 1305.0 ], [ 1846.0, 1307.0 ], [ 1849.0, 1311.0 ], [ 1853.0, 1308.0 ], [ 1851.0, 1305.0 ], [ 1852.0, 1301.0 ], [ 1850.0, 1301.0 ] ] ] } },
{ "type": "Feature", "properties": { "layer": "red_roads" }, "geometry": { "type": "Polygon", "coordinates": [ [ [ 2164.0, 1398.0 ], [ 2148.0, 1408.0 ], [ 2145.0, 1407.0 ], [ 2144.0, 1412.0 ], [ 2138.0, 1418.0 ], [ 2135.0, 1417.0 ], [ 2134.0, 1420.0 ], [ 2136.0, 1422.0 ], [ 2139.0, 1421.0 ], [ 2148.0, 1410.0 ], [ 2165.0, 1400.0 ], [ 2170.0, 1401.0 ], [ 2172.0, 1404.0 ], [ 2180.0, 1401.0 ], [ 2177.0, 1398.0 ], [ 2164.0, 1398.0 ] ] ] } },
{ "type": "Feature", "properties": { "layer": "red_roads" }, "geometry": { "type": "Polygon", "coordinates": [ [ [ 2133.0, 1424.0 ], [ 2128.0, 1430.0 ], [ 2122.0, 1432.0 ], [ 2122.0, 1436.0 ], [ 2117.0, 1442.0 ], [ 2123.0, 1437.0 ], [ 2130.0, 1435.0 ], [ 2130.0, 1429.0 ], [ 2135.0, 1425.0 ], [ 2133.0, 1424.0 ] ] ] } },
{ "type": "Feature", "properties": { "layer": "red_roads" }, "geometry": { "type": "Polygon", "coordinates": [ [ [ 2092.0, 1453.0 ], [ 2086.0, 1461.0 ], [ 2081.0, 1461.0 ], [ 2074.0, 1469.0 ], [ 2084.0, 1468.0 ], [ 2095.0, 1454.0 ], [ 2092.0, 1453.0 ] ] ] } },
{ "type": "Feature", "properties": { "layer": "red_roads" }, "geometry": { "type": "Polygon", "coordinates": [ [ [ 2068.0, 1468.0 ], [ 2061.0, 1475.0 ], [ 2057.0, 1475.0 ], [ 2052.0, 1479.0 ], [ 2052.0, 1481.0 ], [ 2063.0, 1476.0 ], [ 2071.0, 1469.0 ], [ 2068.0, 1468.0 ] ] ] } },
{ "type": "Feature", "properties": { "layer": "red_roads" }, "geometry": { "type": "Polygon", "coordinates": [ [ [ 201.0, 439.0 ], [ 205.0, 452.0 ], [ 214.0, 460.0 ], [ 239.0, 468.0 ], [ 246.0, 474.0 ], [ 315.0, 476.0 ], [ 327.0, 482.0 ], [ 339.0, 484.0 ], [ 345.0, 492.0 ], [ 354.0, 497.0 ], [ 360.0, 504.0 ], [ 383.0, 519.0 ], [ 398.0, 519.0 ], [ 409.0, 522.0 ], [ 471.0, 583.0 ], [ 476.0, 590.0 ], [ 474.0, 596.0 ], [ 481.0, 614.0 ], [ 489.0, 624.0 ], [ 496.0, 625.0 ], [ 512.0, 640.0 ], [ 520.0, 642.0 ], [ 527.0, 650.0 ], [ 537.0, 646.0 ], [ 557.0, 650.0 ], [ 564.0, 648.0 ], [ 577.0, 650.0 ], [ 621.0, 678.0 ], [ 637.0, 683.0 ], [ 643.0, 689.0 ], [ 650.0, 706.0 ], [ 654.0, 709.0 ], [ 699.0, 711.0 ], [ 709.0, 715.0 ], [ 848.0, 735.0 ], [ 890.0, 753.0 ], [ 904.0, 777.0 ], [ 908.0, 780.0 ], [ 922.0, 779.0 ], [ 932.0, 785.0 ], [ 968.0, 782.0 ], [ 973.0, 790.0 ], [ 992.0, 791.0 ], [ 1001.0, 794.0 ], [ 1010.0, 812.0 ], [ 1019.0, 817.0 ], [ 1044.0, 817.0 ], [ 1060.0, 822.0 ], [ 1108.0, 826.0 ], [ 1113.0, 830.0 ], [ 1128.0, 832.0 ], [ 1132.0, 835.0 ], [ 1158.0, 839.0 ], [ 1159.0, 841.0 ], [ 1182.0, 847.0 ], [ 1184.0, 851.0 ], [ 1203.0, 867.0 ], [ 1202.0, 872.0 ], [ 1179.0, 885.0 ], [ 1133.0, 932.0 ], [ 1061.0, 958.0 ], [ 1049.0, 957.0 ], [ 1042.0, 948.0 ], [ 1035.0, 948.0 ], [ 1022.0, 957.0 ], [ 1010.0, 960.0 ], [ 849.0, 990.0 ], [ 836.0, 990.0 ], [ 834.0, 993.0 ], [ 823.0, 995.0 ], [ 803.0, 997.0 ], [ 718.0, 984.0 ], [ 703.0, 976.0 ], [ 687.0, 972.0 ], [ 669.0, 954.0 ], [ 655.0, 954.0 ], [ 655.0, 956.0 ], [ 667.0, 958.0 ], [ 682.0, 974.0 ], [ 690.0, 978.0 ], [ 698.0, 979.0 ], [ 721.0, 990.0 ], [ 807.0, 1001.0 ], [ 829.0, 998.0 ], [ 831.0, 996.0 ], [ 840.0, 998.0 ], [ 846.0, 994.0 ], [ 903.0, 985.0 ], [ 915.0, 980.0 ], [ 1016.0, 963.0 ], [ 1025.0, 960.0 ], [ 1036.0, 952.0 ], [ 1039.0, 952.0 ], [ 1045.0, 960.0 ], [ 1063.0, 961.0 ], [ 1083.0, 955.0 ], [ 1094.0, 949.0 ], [ 1115.0, 944.0 ], [ 1117.0, 941.0 ], [ 1120.0, 942.0 ], [ 1123.0, 939.0 ], [ 1131.0, 938.0 ], [ 1139.0, 933.0 ], [ 1171.0, 899.0 ], [ 1176.0, 899.0 ], [ 1178.0, 902.0 ], [ 1177.0, 908.0 ], [ 1180.0, 907.0 ], [ 1181.0, 904.0 ], [ 1177.0, 898.0 ], [ 1178.0, 893.0 ], [ 1193.0, 880.0 ], [ 1209.0, 873.0 ], [ 1213.0, 878.0 ], [ 1212.0, 883.0 ], [ 1215.0, 888.0 ], [ 1266.0, 912.0 ], [ 1276.0, 923.0 ], [ 1281.0, 933.0 ], [ 1301.0, 947.0 ], [ 1332.0, 962.0 ], [ 1335.0, 966.0 ], [ 1347.0, 970.0 ], [ 1350.0, 974.0 ], [ 1376.0, 986.0 ], [ 1405.0, 1004.0 ], [ 1413.0, 1006.0 ], [ 1440.0, 1023.0 ], [ 1510.0, 1054.0 ], [ 1531.0, 1054.0 ], [ 1535.0, 1052.0 ], [ 1558.0, 1055.0 ], [ 1599.0, 1086.0 ], [ 1616.0, 1088.0 ], [ 1637.0, 1106.0 ], [ 1645.0, 1126.0 ], [ 1666.0, 1130.0 ], [ 1677.0, 1145.0 ], [ 1682.0, 1145.0 ], [ 1688.0, 1149.0 ], [ 1687.0, 1164.0 ], [ 1694.0, 1166.0 ], [ 1697.0, 1171.0 ], [ 1706.0, 1174.0 ], [ 1708.0, 1191.0 ], [ 1703.0, 1203.0 ], [ 1704.0, 1211.0 ], [ 1707.0, 1213.0 ], [ 1715.0, 1212.0 ], [ 1723.0, 1204.0 ], [ 1730.0, 1204.0 ], [ 1736.0, 1208.0 ], [ 1745.0, 1209.0 ], [ 1747.0, 1211.0 ], [ 1748.0, 1225.0 ], [ 1762.0, 1243.0 ], [ 1773.0, 1250.0 ], [ 1779.0, 1257.0 ], [ 1779.0, 1272.0 ], [ 1770.0, 1280.0 ], [ 1768.0, 1286.0 ], [ 1764.0, 1290.0 ], [ 1759.0, 1291.0 ], [ 1755.0, 1297.0 ], [ 1758.0, 1314.0 ], [ 1763.0, 1322.0 ], [ 1763.0, 1331.0 ], [ 1760.0, 1337.0 ], [ 1760.0, 1348.0 ], [ 1749.0, 1356.0 ], [ 1749.0, 1368.0 ], [ 1753.0, 1378.0 ], [ 1748.0, 1384.0 ], [ 1753.0, 1380.0 ], [ 1757.0, 1382.0 ], [ 1749.0, 1402.0 ], [ 1750.0, 1422.0 ], [ 1757.0, 1430.0 ], [ 1758.0, 1437.0 ], [ 1763.0, 1441.0 ], [ 1765.0, 1447.0 ], [ 1764.0, 1455.0 ], [ 1760.0, 1459.0 ], [ 1757.0, 1469.0 ], [ 1760.0, 1471.0 ], [ 1764.0, 1482.0 ], [ 1769.0, 1482.0 ], [ 1762.0, 1468.0 ], [ 1762.0, 1464.0 ], [ 1768.0, 1455.0 ], [ 1769.0, 1445.0 ], [ 1762.0, 1434.0 ], [ 1761.0, 1428.0 ], [ 1754.0, 1422.0 ], [ 1753.0, 1418.0 ], [ 1753.0, 1403.0 ], [ 1758.0, 1393.0 ], [ 1760.0, 1377.0 ], [ 1763.0, 1374.0 ], [ 1759.0, 1376.0 ], [ 1756.0, 1374.0 ], [ 1753.0, 1358.0 ], [ 1765.0, 1348.0 ], [ 1764.0, 1336.0 ], [ 1767.0, 1330.0 ], [ 1767.0, 1321.0 ], [ 1762.0, 1313.0 ], [ 1760.0, 1296.0 ], [ 1770.0, 1291.0 ], [ 1774.0, 1281.0 ], [ 1781.0, 1277.0 ], [ 1785.0, 1270.0 ], [ 1792.0, 1270.0 ], [ 1784.0, 1267.0 ], [ 1782.0, 1249.0 ], [ 1785.0, 1245.0 ], [ 1779.0, 1250.0 ], [ 1761.0, 1235.0 ], [ 1751.0, 1221.0 ], [ 1751.0, 1208.0 ], [ 1748.0, 1205.0 ], [ 1736.0, 1203.0 ], [ 1729.0, 1199.0 ], [ 1722.0, 1199.0 ], [ 1714.0, 1206.0 ], [ 1708.0, 1206.0 ], [ 1709.0, 1199.0 ], [ 1712.0, 1196.0 ], [ 1711.0, 1176.0 ], [ 1709.0, 1170.0 ], [ 1692.0, 1161.0 ], [ 1691.0, 1145.0 ], [ 1680.0, 1141.0 ], [ 1664.0, 1123.0 ], [ 1649.0, 1123.0 ], [ 1639.0, 1101.0 ], [ 1622.0, 1088.0 ], [ 1621.0, 1053.0 ], [ 1624.0, 1051.0 ], [ 1624.0, 1046.0 ], [ 1622.0, 1045.0 ], [ 1622.0, 1024.0 ], [ 1620.0, 1024.0 ], [ 1620.0, 1044.0 ], [ 1618.0, 1046.0 ], [ 1620.0, 1079.0 ], [ 1620.0, 1085.0 ], [ 1618.0, 1086.0 ], [ 1612.0, 1081.0 ], [ 1601.0, 1082.0 ], [ 1569.0, 1057.0 ], [ 1555.0, 1051.0 ], [ 1554.0, 1048.0 ], [ 1550.0, 1050.0 ], [ 1544.0, 1048.0 ], [ 1511.0, 1050.0 ], [ 1440.0, 1018.0 ], [ 1429.0, 1010.0 ], [ 1431.0, 1004.0 ], [ 1421.0, 1003.0 ], [ 1423.0, 998.0 ], [ 1417.0, 996.0 ], [ 1412.0, 1002.0 ], [ 1395.0, 993.0 ], [ 1392.0, 988.0 ], [ 1386.0, 988.0 ], [ 1337.0, 960.0 ], [ 1314.0, 950.0 ], [ 1285.0, 931.0 ], [ 1270.0, 909.0 ], [ 1258.0, 905.0 ], [ 1216.0, 883.0 ], [ 1213.0, 869.0 ], [ 1225.0, 863.0 ], [ 1233.0, 863.0 ], [ 1247.0, 852.0 ], [ 1287.0, 847.0 ], [ 1299.0, 857.0 ], [ 1306.0, 859.0 ], [ 1314.0, 858.0 ], [ 1314.0, 856.0 ], [ 1302.0, 854.0 ], [ 1301.0, 850.0 ], [ 1297.0, 851.0 ], [ 1296.0, 847.0 ], [ 1293.0, 848.0 ], [ 1289.0, 844.0 ], [ 1267.0, 844.0 ], [ 1263.0, 847.0 ], [ 1248.0, 848.0 ], [ 1234.0, 858.0 ], [ 1222.0, 860.0 ], [ 1207.0, 867.0 ], [ 1183.0, 843.0 ], [ 1164.0, 838.0 ], [ 1161.0, 833.0 ], [ 1157.0, 836.0 ], [ 1122.0, 828.0 ], [ 1115.0, 824.0 ], [ 1109.0, 826.0 ], [ 1101.0, 822.0 ], [ 1065.0, 819.0 ], [ 1046.0, 813.0 ], [ 1020.0, 813.0 ], [ 1011.0, 806.0 ], [ 1004.0, 791.0 ], [ 991.0, 787.0 ], [ 975.0, 786.0 ], [ 969.0, 777.0 ], [ 934.0, 781.0 ], [ 921.0, 774.0 ], [ 909.0, 776.0 ], [ 892.0, 748.0 ], [ 887.0, 748.0 ], [ 850.0, 731.0 ], [ 791.0, 723.0 ], [ 785.0, 720.0 ], [ 780.0, 721.0 ], [ 778.0, 718.0 ], [ 782.0, 715.0 ], [ 777.0, 715.0 ], [ 776.0, 711.0 ], [ 772.0, 713.0 ], [ 771.0, 710.0 ], [ 769.0, 710.0 ], [ 768.0, 717.0 ], [ 776.0, 716.0 ], [ 776.0, 720.0 ], [ 751.0, 717.0 ], [ 752.0, 709.0 ], [ 747.0, 710.0 ], [ 746.0, 714.0 ], [ 742.0, 716.0 ], [ 732.0, 713.0 ], [ 707.0, 712.0 ], [ 703.0, 709.0 ], [ 685.0, 708.0 ], [ 681.0, 705.0 ], [ 656.0, 705.0 ], [ 648.0, 693.0 ], [ 647.0, 686.0 ], [ 643.0, 682.0 ], [ 635.0, 677.0 ], [ 625.0, 675.0 ], [ 577.0, 645.0 ], [ 569.0, 643.0 ], [ 554.0, 646.0 ], [ 546.0, 642.0 ], [ 528.0, 645.0 ], [ 524.0, 639.0 ], [ 515.0, 637.0 ], [ 500.0, 623.0 ], [ 492.0, 621.0 ], [ 480.0, 600.0 ], [ 481.0, 590.0 ], [ 479.0, 585.0 ], [ 475.0, 583.0 ], [ 471.0, 575.0 ], [ 457.0, 565.0 ], [ 412.0, 519.0 ], [ 403.0, 515.0 ], [ 382.0, 514.0 ], [ 348.0, 489.0 ], [ 342.0, 481.0 ], [ 328.0, 478.0 ], [ 319.0, 473.0 ], [ 249.0, 471.0 ], [ 245.0, 466.0 ], [ 214.0, 455.0 ], [ 206.0, 446.0 ], [ 204.0, 439.0 ], [ 201.0, 439.0 ] ] ] } },
{ "type": "Feature", "properties": { "layer": "red_roads" }, "geometry": { "type": "Polygon", "coordinates": [ [ [ 751.0, 1554.0 ], [ 752.0, 1559.0 ], [ 810.0, 1559.0 ], [ 812.0, 1557.0 ], [ 811.0, 1554.0 ], [ 751.0, 1554.0 ] ] ] } },
{ "type": "Feature", "properties": { "layer": "red_roads" }, "geometry": { "type": "Polygon", "coordinates": [ [ [ 751.0, 1571.0 ], [ 751.0, 1576.0 ], [ 766.0, 1575.0 ], [ 766.0, 1571.0 ], [ 751.0, 1571.0 ] ] ] } },
{ "type": "Feature", "properties": { "layer": "red_roads" }, "geometry": { "type": "Polygon", "coordinates": [ [ [ 775.0, 1571.0 ], [ 775.0, 1576.0 ], [ 790.0, 1575.0 ], [ 788.0, 1571.0 ], [ 775.0, 1571.0 ] ] ] } },
{ "type": "Feature", "properties": { "layer": "red_roads" }, "geometry": { "type": "Polygon", "coordinates": [ [ [ 797.0, 1571.0 ], [ 797.0, 1576.0 ], [ 812.0, 1575.0 ], [ 811.0, 1571.0 ], [ 797.0, 1571.0 ] ] ] } },
{ "type": "Feature", "properties": { "layer": "red_roads" }, "geometry": { "type": "Polygon", "coordinates": [ [ [ 760.0, 1587.0 ], [ 758.0, 1590.0 ], [ 752.0, 1590.0 ], [ 752.0, 1592.0 ], [ 758.0, 1592.0 ], [ 761.0, 1595.0 ], [ 769.0, 1592.0 ], [ 794.0, 1593.0 ], [ 795.0, 1595.0 ], [ 811.0, 1592.0 ], [ 811.0, 1590.0 ], [ 800.0, 1590.0 ], [ 797.0, 1587.0 ], [ 792.0, 1590.0 ], [ 767.0, 1590.0 ], [ 765.0, 1587.0 ], [ 760.0, 1587.0 ] ] ] } },
{ "type": "Feature", "properties": { "layer": "red_roads" }, "geometry": { "type": "Polygon", "coordinates": [ [ [ 463.0, 1706.0 ], [ 463.0, 1715.0 ], [ 484.0, 1716.0 ], [ 485.0, 1714.0 ], [ 506.0, 1713.0 ], [ 502.0, 1710.0 ], [ 481.0, 1711.0 ], [ 477.0, 1706.0 ], [ 475.0, 1706.0 ], [ 476.0, 1711.0 ], [ 466.0, 1712.0 ], [ 465.0, 1709.0 ], [ 467.0, 1707.0 ], [ 463.0, 1706.0 ] ] ] } },
{ "type": "Feature", "properties": { "layer": "red_roads" }, "geometry": { "type": "Polygon", "coordinates": [ [ [ 480.0, 1722.0 ], [ 479.0, 1724.0 ], [ 465.0, 1723.0 ], [ 463.0, 1727.0 ], [ 504.0, 1727.0 ], [ 506.0, 1725.0 ], [ 505.0, 1723.0 ], [ 488.0, 1724.0 ], [ 480.0, 1722.0 ] ] ] } }
]
}
