{
"type": "FeatureCollection",
"name": "red_roads",
"features": [
{ "type": "Feature", "properties": { "layer": "red_roads" }, "geometry": { "type": "LineString", "coordinates": [ [ 164.0, 402.0 ], [ 172.0, 401.0 ], [ 177.0, 403.0 ], [ 191.0, 418.0 ] ] } },
{ "type": "Feature", "properties": { "layer": "red_roads" }, "geometry": { "type": "LineString", "coordinates": [ [ 167.0, 916.0 ], [ 184.0, 929.0 ], [ 189.0, 930.0 ], [ 209.0, 930.0 ], [ 219.0, 927.0 ], [ 231.0, 927.0 ], [ 241.0, 929.0 ], [ 277.0, 951.0 ] ] } },
{ "type": "Feature", "properties": { "layer": "red_roads" }, "geometry": { "type": "LineString", "coordinates": [ [ 188.0, 422.0 ], [ 190.0, 419.0 ] ] } },
{ "type": "Feature", "properties": { "layer": "red_roads" }, "geometry": { "type": "LineString", "coordinates": [ [ 190.0, 419.0 ], [ 191.0, 419.0 ] ] } },
{ "type": "Feature", "properties": { "layer": "red_roads" }, "geometry": { "type": "LineString", "coordinates": [ [ 190.0, 419.0 ], [ 191.0, 418.0 ] ] } },
{ "type": "Feature", "properties": { "layer": "red_roads" }, "geometry": { "type": "LineString", "coordinates": [ [ 191.0, 418.0 ], [ 192.0, 419.0 ] ] } },
{ "type": "Feature", "properties": { "layer": "red_roads" }, "geometry": { "type": "LineString", "coordinates": [ [ 191.0, 418.0 ], [ 191.0, 419.0 ] ] } },
{ "type": "Feature", "properties": { "layer": "red_roads" }, "geometry": { "type": "LineString", "coordinates": [ [ 191.0, 419.0 ], [ 192.0, 419.0 ] ] } },
{ "type": "Feature", "properties": { "layer": "red_roads" }, "geometry": { "type": "LineString", "coordinates": [ [ 192.0, 419.0 ], [ 196.0, 422.0 ], [ 196.0, 424.0 ] ] } },
{ "type": "Feature", "properties": { "layer": "red_roads" }, "geometry": { "type": "LineString", "coordinates": [ [ 202.0, 439.0 ], [ 205.0, 448.0 ], [ 214.0, 457.0 ], [ 224.0, 460.0 ], [ 231.0, 464.0 ], [ 240.0, 466.0 ], [ 248.0, 472.0 ], [ 316.0, 474.0 ], [ 329.0, 480.0 ], [ 339.0, 482.0 ], [ 348.0, 491.0 ], [ 383.0, 516.0 ], [ 399.0, 516.0 ], [ 408.0, 519.0 ], [ 472.0, 581.0 ], [ 477.0, 588.0 ], [ 477.0, 599.0 ], [ 481.0, 609.0 ], [ 487.0, 618.0 ], [ 491.0, 622.0 ], [ 499.0, 625.0 ], [ 512.0, 637.0 ], [ 521.0, 640.0 ], [ 526.0, 646.0 ], [ 532.0, 646.0 ], [ 539.0, 643.0 ], [ 543.0, 643.0 ], [ 552.0, 647.0 ], [ 572.0, 645.0 ], [ 623.0, 676.0 ], [ 633.0, 678.0 ], [ 639.0, 682.0 ], [ 644.0, 687.0 ], [ 650.0, 701.0 ], [ 655.0, 706.0 ], [ 673.0, 706.0 ], [ 685.0, 709.0 ], [ 689.0, 708.0 ], [ 692.0, 710.0 ], [ 700.0, 710.0 ], [ 705.0, 712.0 ], [ 720.0, 713.0 ], [ 740.0, 717.0 ], [ 747.0, 716.0 ] ] } },
{ "type": "Feature", "properties": { "layer": "red_roads" }, "geometry": { "type": "LineString", "coordinates": [ [ 274.0, 956.0 ], [ 277.0, 952.0 ] ] } },
{ "type": "Feature", "properties": { "layer": "red_roads" }, "geometry": { "type": "LineString", "coordinates": [ [ 277.0, 951.0 ], [ 278.0, 951.0 ] ] } },
{ "type": "Feature", "properties": { "layer": "red_roads" }, "geometry": { "type": "LineString", "coordinates": [ [ 277.0, 951.0 ], [ 277.0, 952.0 ] ] } },
{ "type": "Feature", "properties": { "layer": "red_roads" }, "geometry": { "type": "LineString", "coordinates": [ [ 277.0, 952.0 ], [ 278.0, 951.0 ] ] } },
{ "type": "Feature", "properties": { "layer": "red_roads" }, "geometry": { "type": "LineString", "coordinates": [ [ 278.0, 951.0 ], [ 292.0, 950.0 ], [ 304.0, 947.0 ], [ 313.0, 947.0 ], [ 330.0, 951.0 ], [ 373.0, 956.0 ], [ 386.0, 959.0 ], [ 418.0, 961.0 ] ] } },
{ "type": "Feature", "properties": { "layer": "red_roads" }, "geometry": { "type": "LineString", "coordinates": [ [ 283.0, 1075.0 ], [ 286.0, 1078.0 ], [ 286.0, 1083.0 ], [ 284.0, 1085.0 ] ] } },
{ "type": "Feature", "properties": { "layer": "red_roads" }, "geometry": { "type": "LineString", "coordinates": [ [ 415.0, 955.0 ], [ 416.0, 955.0 ] ] } },
{ "type": "Feature", "properties": { "layer": "red_roads" }, "geometry": { "type": "LineString", "coordinates": [ [ 416.0, 955.0 ], [ 417.0, 955.0 ] ] } },
{ "type": "Feature", "properties": { "layer": "red_roads" }, "geometry": { "type": "LineString", "coordinates": [ [ 416.0, 955.0 ], [ 417.0, 954.0 ] ] } },
{ "type": "Feature", "properties": { "layer": "red_roads" }, "geometry": { "type": "LineString", "coordinates": [ [ 417.0, 954.0 ], [ 417.0, 955.0 ] ] } },
{ "type": "Feature", "properties": { "layer": "red_roads" }, "geometry": { "type": "LineString", "coordinates": [ [ 417.0, 954.0 ], [ 418.0, 952.0 ] ] } },
{ "type": "Feature", "properties": { "layer": "red_roads" }, "geometry": { "type": "LineString", "coordinates": [ [ 417.0, 955.0 ], [ 419.0, 957.0 ], [ 419.0, 960.0 ] ] } },
{ "type": "Feature", "properties": { "layer": "red_roads" }, "geometry": { "type": "LineString", "coordinates": [ [ 418.0, 961.0 ], [ 419.0, 961.0 ] ] } },
{ "type": "Feature", "properties": { "layer": "red_roads" }, "geometry": { "type": "LineString", "coordinates": [ [ 418.0, 961.0 ], [ 419.0, 960.0 ] ] } },
{ "type": "Feature", "properties": { "layer": "red_roads" }, "geometry": { "type": "LineString", "coordinates": [ [ 419.0, 960.0 ], [ 420.0, 961.0 ] ] } },
{ "type": "Feature", "properties": { "layer": "red_roads" }, "geometry": { "type": "LineString", "coordinates": [ [ 419.0, 960.0 ], [ 419.0, 961.0 ] ] } },
{ "type": "Feature", "properties": { "layer": "red_roads" }, "geometry": { "type": "LineString", "coordinates": [ [ 419.0, 961.0 ], [ 420.0, 961.0 ] ] } },
{ "type": "Feature", "properties": { "layer": "red_roads" }, "geometry": { "type": "LineString", "coordinates": [ [ 420.0, 961.0 ], [ 530.0, 959.0 ], [ 582.0, 956.0 ], [ 618.0, 956.0 ], [ 634.0, 954.0 ] ] } },
{ "type": "Feature", "properties": { "layer": "red_roads" }, "geometry": { "type": "LineString", "coordinates": [ [ 434.0, 954.0 ], [ 437.0, 953.0 ] ] } },
{ "type": "Feature", "properties": { "layer": "red_roads" }, "geometry": { "type": "LineString", "coordinates": [ [ 437.0, 953.0 ], [ 438.0, 953.0 ] ] } },
{ "type": "Feature", "properties": { "layer": "red_roads" }, "geometry": { "type": "LineString", "coordinates": [ [ 437.0, 953.0 ], [ 438.0, 952.0 ] ] } },
{ "type": "Feature", "properties": { "layer": "red_roads" }, "geometry": { "type": "LineString", "coordinates": [ [ 438.0, 952.0 ], [ 438.0, 953.0 ] ] } },
{ "type": "Feature", "properties": { "layer": "red_roads" }, "geometry": { "type": "LineString", "coordinates": [ [ 438.0, 952.0 ], [ 439.0, 951.0 ] ] } },
{ "type": "Feature", "properties": { "layer": "red_roads" }, "geometry": { "type": "LineString", "coordinates": [ [ 438.0, 953.0 ], [ 442.0, 954.0 ] ] } },
{ "type": "Feature", "properties": { "layer": "red_roads" }, "geometry": { "type": "LineString", "coordinates": [ [ 463.0, 1725.0 ], [ 503.0, 1724.0 ] ] } },
{ "type": "Feature", "properties": { "layer": "red_roads" }, "geometry": { "type": "LineString", "coordinates": [ [ 464.0, 1707.0 ], [ 465.0, 1713.0 ], [ 477.0, 1712.0 ] ] } },
{ "type": "Feature", "properties": { "layer": "red_roads" }, "geometry": { "type": "LineString", "coordinates": [ [ 475.0, 1706.0 ], [ 478.0, 1711.0 ] ] } },
{ "type": "Feature", "properties": { "layer": "red_roads" }, "geometry": { "type": "LineString", "coordinates": [ [ 477.0, 1712.0 ], [ 478.0, 1712.0 ] ] } },
{ "type": "Feature", "properties": { "layer": "red_roads" }, "geometry": { "type": "LineString", "coordinates": [ [ 477.0, 1712.0 ], [ 478.0, 1711.0 ] ] } },
{ "type": "Feature", "properties": { "layer": "red_roads" }, "geometry": { "type": "LineString", "coordinates": [ [ 478.0, 1711.0 ], [ 479.0, 1712.0 ] ] } },
{ "type": "Feature", "properties": { "layer": "red_roads" }, "geometry": { "type": "LineString", "coordinates": [ [ 478.0, 1711.0 ], [ 478.0, 1712.0 ] ] } },
{ "type": "Feature", "properties": { "layer": "red_roads" }, "geometry": { "type": "LineString", "coordinates": [ [ 478.0, 1712.0 ], [ 479.0, 1712.0 ] ] } },
{ "type": "Feature", "properties": { "layer": "red_roads" }, "geometry": { "type": "LineString", "coordinates": [ [ 479.0, 1712.0 ], [ 504.0, 1712.0 ] ] } },
{ "type": "Feature", "properties": { "layer": "red_roads" }, "geometry": { "type": "LineString", "coordinates": [ [ 640.0, 955.0 ], [ 649.0, 954.0 ] ] } },
{ "type": "Feature", "properties": { "layer": "red_roads" }, "geometry": { "type": "LineString", "coordinates": [ [ 656.0, 954.0 ], [ 666.0, 955.0 ], [ 684.0, 972.0 ], [ 688.0, 974.0 ], [ 697.0, 976.0 ], [ 723.0, 987.0 ], [ 792.0, 997.0 ], [ 811.0, 998.0 ], [ 829.0, 994.0 ], [ 837.0, 994.0 ], [ 856.0, 989.0 ], [ 863.0, 989.0 ], [ 867.0, 987.0 ], [ 883.0, 985.0 ], [ 929.0, 975.0 ], [ 936.0, 975.0 ], [ 989.0, 964.0 ], [ 1011.0, 961.0 ], [ 1022.0, 958.0 ], [ 1037.0, 949.0 ], [ 1039.0, 949.0 ], [ 1047.0, 958.0 ], [ 1061.0, 959.0 ], [ 1133.0, 933.0 ], [ 1170.0, 897.0 ], [ 1173.0, 896.0 ] ] } },
{ "type": "Feature", "properties": { "layer": "red_roads" }, "geometry": { "type": "LineString", "coordinates": [ [ 702.0, 681.0 ], [ 711.0, 675.0 ], [ 716.0, 669.0 ] ] } },
{ "type": "Feature", "properties": { "layer": "red_roads" }, "geometry": { "type": "LineString", "coordinates": [ [ 715.0, 667.0 ], [ 716.0, 668.0 ] ] } },
{ "type": "Feature", "properties": { "layer": "red_roads" }, "geometry": { "type": "LineString", "coordinates": [ [ 716.0, 668.0 ], [ 717.0, 668.0 ] ] } },
{ "type": "Feature", "properties": { "layer": "red_roads" }, "geometry": { "type": "LineString", "coordinates": [ [ 716.0, 668.0 ], [ 716.0, 669.0 ] ] } },
{ "type": "Feature", "properties": { "layer": "red_roads" }, "geometry": { "type": "LineString", "coordinates": [ [ 716.0, 669.0 ], [ 717.0, 668.0 ] ] } },
{ "type": "Feature", "properties": { "layer": "red_roads" }, "geometry": { "type": "LineString", "coordinates": [ [ 717.0, 668.0 ], [ 721.0, 664.0 ] ] } },
{ "type": "Feature", "properties": { "layer": "red_roads" }, "geometry": { "type": "LineString", "coordinates": [ [ 747.0, 716.0 ], [ 748.0, 716.0 ] ] } },
{ "type": "Feature", "properties": { "layer": "red_roads" }, "geometry": { "type": "LineString", "coordinates": [ [ 747.0, 716.0 ], [ 748.0, 717.0 ] ] } },
{ "type": "Feature", "properties": { "layer": "red_roads" }, "geometry": { "type": "LineString", "coordinates": [ [ 747.0, 716.0 ], [ 748.0, 715.0 ] ] } },
{ "type": "Feature", "properties": { "layer": "red_roads" }, "geometry": { "type": "LineString", "coordinates": [ [ 748.0, 715.0 ], [ 748.0, 716.0 ] ] } },
{ "type": "Feature", "properties": { "layer": "red_roads" }, "geometry": { "type": "LineString", "coordinates": [ [ 748.0, 715.0 ], [ 748.0, 712.0 ], [ 751.0, 709.0 ] ] } },
{ "type": "Feature", "properties": { "layer": "red_roads" }, "geometry": { "type": "LineString", "coordinates": [ [ 748.0, 716.0 ], [ 748.0, 717.0 ] ] } },
{ "type": "Feature", "properties": { "layer": "red_roads" }, "geometry": { "type": "LineString", "coordinates": [ [ 748.0, 717.0 ], [ 753.0, 719.0 ], [ 776.0, 721.0 ] ] } },
{ "type": "Feature", "properties": { "layer": "red_roads" }, "geometry": { "type": "LineString", "coordinates": [ [ 752.0, 1590.0 ], [ 809.0, 1590.0 ] ] } },
{ "type": "Feature", "properties": { "layer": "red_roads" }, "geometry": { "type": "LineString", "coordinates": [ [ 753.0, 1555.0 ], [ 808.0, 1555.0 ] ] } },
{ "type": "Feature", "properties": { "layer": "red_roads" }, "geometry": { "type": "LineString", "coordinates": [ [ 753.0, 1573.0 ], [ 764.0, 1572.0 ] ] } },
{ "type": "Feature", "properties": { "layer": "red_roads" }, "geometry": { "type": "LineString", "coordinates": [ [ 768.0, 715.0 ], [ 770.0, 714.0 ] ] } },
{ "type": "Feature", "properties": { "layer": "red_roads" }, "geometry": { "type": "LineString", "coordinates": [ [ 769.0, 711.0 ], [ 770.0, 713.0 ] ] } },
{ "type": "Feature", "properties": { "layer": "red_roads" }, "geometry": { "type": "LineString", "coordinates": [ [ 770.0, 713.0 ], [ 771.0, 714.0 ] ] } },
{ "type": "Feature", "properties": { "layer": "red_roads" }, "geometry": { "type": "LineString", "coordinates": [ [ 770.0, 713.0 ], [ 770.0, 714.0 ] ] } },
{ "type": "Feature", "properties": { "layer": "red_roads" }, "geometry": { "type": "LineString", "coordinates": [ [ 770.0, 714.0 ], [ 771.0, 714.0 ] ] } },
{ "type": "Feature", "properties": { "layer": "red_roads" }, "geometry": { "type": "LineString", "coordinates": [ [ 771.0, 714.0 ], [ 773.0, 714.0 ] ] } },
{ "type": "Feature", "properties": { "layer": "red_roads" }, "geometry": { "type": "LineString", "coordinates": [ [ 773.0, 714.0 ], [ 774.0, 714.0 ] ] } },
{ "type": "Feature", "properties": { "layer": "red_roads" }, "geometry": { "type": "LineString", "coordinates": [ [ 773.0, 714.0 ], [ 774.0, 713.0 ] ] } },
{ "type": "Feature", "properties": { "layer": "red_roads" }, "geometry": { "type": "LineString", "coordinates": [ [ 774.0, 713.0 ], [ 774.0, 714.0 ] ] } },
{ "type": "Feature", "properties": { "layer": "red_roads" }, "geometry": { "type": "LineString", "coordinates": [ [ 774.0, 713.0 ], [ 775.0, 711.0 ] ] } },
{ "type": "Feature", "properties": { "layer": "red_roads" }, "geometry": { "type": "LineString", "coordinates": [ [ 774.0, 714.0 ], [ 777.0, 716.0 ] ] } },
{ "type": "Feature", "properties": { "layer": "red_roads" }, "geometry": { "type": "LineString", "coordinates": [ [ 776.0, 721.0 ], [ 777.0, 721.0 ] ] } },
{ "type": "Feature", "properties": { "layer": "red_roads" }, "geometry": { "type": "LineString", "coordinates": [ [ 776.0, 721.0 ], [ 777.0, 720.0 ] ] } },
{ "type": "Feature", "properties": { "layer": "red_roads" }, "geometry": { "type": "LineString", "coordinates": [ [ 777.0, 716.0 ], [ 778.0, 716.0 ] ] } },
{ "type": "Feature", "properties": { "layer": "red_roads" }, "geometry": { "type": "LineString", "coordinates": [ [ 777.0, 716.0 ], [ 777.0, 717.0 ] ] } },
{ "type": "Feature", "properties": { "layer": "red_roads" }, "geometry": { "type": "LineString", "coordinates": [ [ 777.0, 717.0 ], [ 777.0, 720.0 ] ] } },
{ "type": "Feature", "properties": { "layer": "red_roads" }, "geometry": { "type": "LineString", "coordinates": [ [ 777.0, 717.0 ], [ 778.0, 716.0 ] ] } },
{ "type": "Feature", "properties": { "layer": "red_roads" }, "geometry": { "type": "LineString", "coordinates": [ [ 777.0, 720.0 ], [ 777.0, 721.0 ] ] } },
{ "type": "Feature", "properties": { "layer": "red_roads" }, "geometry": { "type": "LineString", "coordinates": [ [ 777.0, 721.0 ], [ 789.0, 724.0 ], [ 847.0, 732.0 ], [ 862.0, 739.0 ], [ 870.0, 741.0 ], [ 885.0, 749.0 ], [ 890.0, 750.0 ], [ 894.0, 754.0 ], [ 902.0, 770.0 ], [ 908.0, 777.0 ], [ 921.0, 776.0 ], [ 932.0, 782.0 ], [ 947.0, 782.0 ], [ 960.0, 779.0 ], [ 967.0, 779.0 ], [ 976.0, 788.0 ], [ 988.0, 788.0 ], [ 1000.0, 791.0 ], [ 1006.0, 799.0 ], [ 1010.0, 808.0 ], [ 1019.0, 814.0 ], [ 1043.0, 814.0 ], [ 1063.0, 820.0 ], [ 1099.0, 823.0 ], [ 1137.0, 833.0 ], [ 1159.0, 837.0 ] ] } },
{ "type": "Feature", "properties": { "layer": "red_roads" }, "geometry": { "type": "LineString", "coordinates": [ [ 777.0, 1573.0 ], [ 787.0, 1573.0 ] ] } },
{ "type": "Feature", "properties": { "layer": "red_roads" }, "geometry": { "type": "LineString", "coordinates": [ [ 778.0, 716.0 ], [ 781.0, 715.0 ] ] } },
{ "type": "Feature", "properties": { "layer": "red_roads" }, "geometry": { "type": "LineString", "coordinates": [ [ 799.0, 1573.0 ], [ 809.0, 1573.0 ] ] } },
{ "type": "Feature", "properties": { "layer": "red_roads" }, "geometry": { "type": "LineString", "coordinates": [ [ 1118.0, 744.0 ], [ 1116.0, 734.0 ], [ 1128.0, 725.0 ] ] } },
{ "type": "Feature", "properties": { "layer": "red_roads" }, "geometry": { "type": "LineString", "coordinates": [ [ 1139.0, 788.0 ], [ 1145.0, 807.0 ] ] } },
{ "type": "Feature", "properties": { "layer": "red_roads" }, "geometry": { "type": "LineString", "coordinates": [ [ 1159.0, 833.0 ], [ 1160.0, 836.0 ] ] } },
{ "type": "Feature", "properties": { "layer": "red_roads" }, "geometry": { "type": "LineString", "coordinates": [ [ 1159.0, 837.0 ], [ 1160.0, 837.0 ] ] } },
{ "type": "Feature", "properties": { "layer": "red_roads" }, "geometry": { "type": "LineString", "coordinates": [ [ 1159.0, 837.0 ], [ 1160.0, 836.0 ] ] } },
{ "type": "Feature", "properties": { "layer": "red_roads" }, "geometry": { "type": "LineString", "coordinates": [ [ 1160.0, 836.0 ], [ 1160.0, 837.0 ] ] } },
{ "type": "Feature", "properties": { "layer": "red_roads" }, "geometry": { "type": "LineString", "coordinates": [ [ 1160.0, 837.0 ], [ 1162.0, 839.0 ], [ 1174.0, 841.0 ], [ 1181.0, 844.0 ], [ 1204.0, 866.0 ], [ 1205.0, 869.0 ] ] } },
{ "type": "Feature", "properties": { "layer": "red_roads" }, "geometry": { "type": "LineString", "coordinates": [ [ 1173.0, 896.0 ], [ 1174.0, 896.0 ] ] } },
{ "type": "Feature", "properties": { "layer": "red_roads" }, "geometry": { "type": "LineString", "coordinates": [ [ 1173.0, 896.0 ], [ 1174.0, 895.0 ] ] } },
{ "type": "Feature", "properties": { "layer": "red_roads" }, "geometry": { "type": "LineString", "coordinates": [ [ 1174.0, 895.0 ], [ 1174.0, 896.0 ] ] } },
{ "type": "Feature", "properties": { "layer": "red_roads" }, "geometry": { "type": "LineString", "coordinates": [ [ 1174.0, 895.0 ], [ 1181.0, 886.0 ], [ 1203.0, 872.0 ], [ 1205.0, 869.0 ] ] } },
{ "type": "Feature", "properties": { "layer": "red_roads" }, "geometry": { "type": "LineString", "coordinates": [ [ 1174.0, 896.0 ], [ 1177.0, 899.0 ], [ 1178.0, 904.0 ] ] } },
{ "type": "Feature", "properties": { "layer": "red_roads" }, "geometry": { "type": "LineString", "coordinates": [ [ 1177.0, 906.0 ], [ 1178.0, 905.0 ] ] } },
{ "type": "Feature", "properties": { "layer": "red_roads" }, "geometry": { "type": "LineString", "coordinates": [ [ 1178.0, 904.0 ], [ 1178.0, 905.0 ] ] } },
{ "type": "Feature", "properties": { "layer": "red_roads" }, "geometry": { "type": "LineString", "coordinates": [ [ 1178.0, 904.0 ], [ 1178.0, 905.0 ] ] } },
{ "type": "Feature", "properties": { "layer": "red_roads" }, "geometry": { "type": "LineString", "coordinates": [ [ 1204.0, 626.0 ], [ 1211.0, 640.0 ] ] } },
{ "type": "Feature", "properties": { "layer": "red_roads" }, "geometry": { "type": "LineString", "coordinates": [ [ 1205.0, 869.0 ], [ 1209.0, 869.0 ] ] } },
{ "type": "Feature", "properties": { "layer": "red_roads" }, "geometry": { "type": "LineString", "coordinates": [ [ 1209.0, 869.0 ], [ 1210.0, 869.0 ] ] } },
{ "type": "Feature", "properties": { "layer": "red_roads" }, "geometry": { "type": "LineString", "coordinates": [ [ 1209.0, 869.0 ], [ 1210.0, 870.0 ] ] } },
{ "type": "Feature", "properties": { "layer": "red_roads" }, "geometry": { "type": "LineString", "coordinates": [ [ 1209.0, 869.0 ], [ 1210.0, 868.0 ] ] } },
{ "type": "Feature", "properties": { "layer": "red_roads" }, "geometry": { "type": "LineString", "coordinates": [ [ 1210.0, 868.0 ], [ 1210.0, 869.0 ] ] } },
{ "type": "Feature", "properties": { "layer": "red_roads" }, "geometry": { "type": "LineString", "coordinates": [ [ 1210.0, 868.0 ], [ 1213.0, 865.0 ], [ 1223.0, 861.0 ], [ 1234.0, 859.0 ], [ 1246.0, 850.0 ], [ 1250.0, 849.0 ], [ 1264.0, 848.0 ], [ 1269.0, 845.0 ], [ 1287.0, 845.0 ], [ 1293.0, 849.0 ] ] } },
{ "type": "Feature", "properties": { "layer": "red_roads" }, "geometry": { "type": "LineString", "coordinates": [ [ 1210.0, 869.0 ], [ 1210.0, 870.0 ] ] } },
{ "type": "Feature", "properties": { "layer": "red_roads" }, "geometry": { "type": "LineString", "coordinates": [ [ 1210.0, 870.0 ], [ 1214.0, 879.0 ], [ 1214.0, 883.0 ], [ 1217.0, 886.0 ], [ 1267.0, 910.0 ], [ 1285.0, 933.0 ], [ 1309.0, 949.0 ], [ 1346.0, 967.0 ], [ 1352.0, 972.0 ], [ 1356.0, 973.0 ], [ 1363.0, 978.0 ], [ 1366.0, 978.0 ], [ 1389.0, 991.0 ] ] } },
{ "type": "Feature", "properties": { "layer": "red_roads" }, "geometry": { "type": "LineString", "coordinates": [ [ 1293.0, 849.0 ], [ 1294.0, 849.0 ] ] } },
{ "type": "Feature", "properties": { "layer": "red_roads" }, "geometry": { "type": "LineString", "coordinates": [ [ 1293.0, 849.0 ], [ 1294.0, 850.0 ] ] } },
{ "type": "Feature", "properties": { "layer": "red_roads" }, "geometry": { "type": "LineString", "coordinates": [ [ 1293.0, 849.0 ], [ 1294.0, 848.0 ] ] } },
{ "type": "Feature", "properties": { "layer": "red_roads" }, "geometry": { "type": "LineString", "coordinates": [ [ 1294.0, 848.0 ], [ 1294.0, 849.0 ] ] } },
{ "type": "Feature", "properties": { "layer": "red_roads" }, "geometry": { "type": "LineString", "coordinates": [ [ 1294.0, 848.0 ], [ 1295.0, 847.0 ] ] } },
{ "type": "Feature", "properties": { "layer": "red_roads" }, "geometry": { "type": "LineString", "coordinates": [ [ 1294.0, 849.0 ], [ 1294.0, 850.0 ] ] } },
{ "type": "Feature", "properties": { "layer": "red_roads" }, "geometry": { "type": "LineString", "coordinates": [ [ 1294.0, 850.0 ], [ 1301.0, 855.0 ], [ 1307.0, 857.0 ], [ 1312.0, 856.0 ] ] } },
{ "type": "Feature", "properties": { "layer": "red_roads" }, "geometry": { "type": "LineString", "coordinates": [ [ 1306.0, 552.0 ], [ 1313.0, 565.0 ] ] } },
{ "type": "Feature", "properties": { "layer": "red_roads" }, "geometry": { "type": "LineString", "coordinates": [ [ 1313.0, 565.0 ], [ 1314.0, 565.0 ] ] } },
{ "type": "Feature", "properties": { "layer": "red_roads" }, "geometry": { "type": "LineString", "coordinates": [ [ 1313.0, 565.0 ], [ 1313.0, 566.0 ] ] } },
{ "type": "Feature", "properties": { "layer": "red_roads" }, "geometry": { "type": "LineString", "coordinates": [ [ 1313.0, 566.0 ], [ 1317.0, 574.0 ] ] } },
{ "type": "Feature", "properties": { "layer": "red_roads" }, "geometry": { "type": "LineString", "coordinates": [ [ 1313.0, 566.0 ], [ 1314.0, 565.0 ] ] } },
{ "type": "Feature", "properties": { "layer": "red_roads" }, "geometry": { "type": "LineString", "coordinates": [ [ 1314.0, 565.0 ], [ 1316.0, 564.0 ] ] } },
{ "type": "Feature", "properties": { "layer": "red_roads" }, "geometry": { "type": "LineString", "coordinates": [ [ 1318.0, 857.0 ], [ 1348.0, 849.0 ], [ 1370.0, 853.0 ], [ 1390.0, 844.0 ], [ 1396.0, 843.0 ], [ 1407.0, 837.0 ], [ 1425.0, 834.0 ], [ 1443.0, 820.0 ], [ 1445.0, 820.0 ], [ 1448.0, 816.0 ], [ 1463.0, 809.0 ], [ 1486.0, 792.0 ], [ 1517.0, 788.0 ], [ 1542.0, 782.0 ], [ 1566.0, 770.0 ], [ 1616.0, 748.0 ], [ 1620.0, 748.0 ], [ 1648.0, 734.0 ], [ 1653.0, 733.0 ] ] } },
{ "type": "Feature", "properties": { "layer": "red_roads" }, "geometry": { "type": "LineString", "coordinates": [ [ 1389.0, 991.0 ], [ 1390.0, 991.0 ] ] } },
{ "type": "Feature", "properties": { "layer": "red_roads" }, "geometry": { "type": "LineString", "coordinates": [ [ 1389.0, 991.0 ], [ 1390.0, 990.0 ] ] } },
{ "type": "Feature", "properties": { "layer": "red_roads" }, "geometry": { "type": "LineString", "coordinates": [ [ 1390.0, 990.0 ], [ 1390.0, 991.0 ] ] } },
{ "type": "Feature", "properties": { "layer": "red_roads" }, "geometry": { "type": "LineString", "coordinates": [ [ 1390.0, 990.0 ], [ 1391.0, 988.0 ] ] } },
{ "type": "Feature", "properties": { "layer": "red_roads" }, "geometry": { "type": "LineString", "coordinates": [ [ 1390.0, 991.0 ], [ 1393.0, 994.0 ], [ 1410.0, 1003.0 ], [ 1417.0, 1003.0 ] ] } },
{ "type": "Feature", "properties": { "layer": "red_roads" }, "geometry": { "type": "LineString", "coordinates": [ [ 1417.0, 1003.0 ], [ 1418.0, 1003.0 ] ] } },
{ "type": "Feature", "properties": { "layer": "red_roads" }, "geometry": { "type": "LineString", "coordinates": [ [ 1417.0, 1003.0 ], [ 1418.0, 1004.0 ] ] } },
{ "type": "Feature", "properties": { "layer": "red_roads" }, "geometry": { "type": "LineString", "coordinates": [ [ 1417.0, 1003.0 ], [ 1418.0, 1002.0 ] ] } },
{ "type": "Feature", "properties": { "layer": "red_roads" }, "geometry": { "type": "LineString", "coordinates": [ [ 1418.0, 1002.0 ], [ 1418.0, 1003.0 ] ] } },
{ "type": "Feature", "properties": { "layer": "red_roads" }, "geometry": { "type": "LineString", "coordinates": [ [ 1418.0, 1002.0 ], [ 1421.0, 998.0 ] ] } },
{ "type": "Feature", "properties": { "layer": "red_roads" }, "geometry": { "type": "LineString", "coordinates": [ [ 1418.0, 1003.0 ], [ 1418.0, 1004.0 ] ] } },
{ "type": "Feature", "properties": { "layer": "red_roads" }, "geometry": { "type": "LineString", "coordinates": [ [ 1418.0, 1004.0 ], [ 1419.0, 1006.0 ], [ 1424.0, 1007.0 ] ] } },
{ "type": "Feature", "properties": { "layer": "red_roads" }, "geometry": { "type": "LineString", "coordinates": [ [ 1424.0, 1007.0 ], [ 1425.0, 1007.0 ] ] } },
{ "type": "Feature", "properties": { "layer": "red_roads" }, "geometry": { "type": "LineString", "coordinates": [ [ 1424.0, 1007.0 ], [ 1425.0, 1008.0 ] ] } },
{ "type": "Feature", "properties": { "layer": "red_roads" }, "geometry": { "type": "LineString", "coordinates": [ [ 1425.0, 1007.0 ], [ 1425.0, 1008.0 ] ] } },
{ "type": "Feature", "properties": { "layer": "red_roads" }, "geometry": { "type": "LineString", "coordinates": [ [ 1425.0, 1007.0 ], [ 1430.0, 1004.0 ] ] } },
{ "type": "Feature", "properties": { "layer": "red_roads" }, "geometry": { "type": "LineString", "coordinates": [ [ 1425.0, 1008.0 ], [ 1430.0, 1014.0 ], [ 1440.0, 1020.0 ], [ 1510.0, 1051.0 ], [ 1551.0, 1051.0 ] ] } },
{ "type": "Feature", "properties": { "layer": "red_roads" }, "geometry": { "type": "LineString", "coordinates": [ [ 1546.0, 927.0 ], [ 1557.0, 938.0 ] ] } },
{ "type": "Feature", "properties": { "layer": "red_roads" }, "geometry": { "type": "LineString", "coordinates": [ [ 1551.0, 1051.0 ], [ 1552.0, 1051.0 ] ] } },
{ "type": "Feature", "properties": { "layer": "red_roads" }, "geometry": { "type": "LineString", "coordinates": [ [ 1551.0, 1051.0 ], [ 1552.0, 1050.0 ] ] } },
{ "type": "Feature", "properties": { "layer": "red_roads" }, "geometry": { "type": "LineString", "coordinates": [ [ 1552.0, 1049.0 ], [ 1552.0, 1050.0 ] ] } },
{ "type": "Feature", "properties": { "layer": "red_roads" }, "geometry": { "type": "LineString", "coordinates": [ [ 1552.0, 1050.0 ], [ 1552.0, 1051.0 ] ] } },
{ "type": "Feature", "properties": { "layer": "red_roads" }, "geometry": { "type": "LineString", "coordinates": [ [ 1552.0, 1051.0 ], [ 1565.0, 1057.0 ], [ 1601.0, 1084.0 ], [ 1611.0, 1083.0 ], [ 1618.0, 1087.0 ] ] } },
{ "type": "Feature", "properties": { "layer": "red_roads" }, "geometry": { "type": "LineString", "coordinates": [ [ 1618.0, 1087.0 ], [ 1619.0, 1087.0 ] ] } },
{ "type": "Feature", "properties": { "layer": "red_roads" }, "geometry": { "type": "LineString", "coordinates": [ [ 1618.0, 1087.0 ], [ 1619.0, 1088.0 ] ] } },
{ "type": "Feature", "properties": { "layer": "red_roads" }, "geometry": { "type": "LineString", "coordinates": [ [ 1619.0, 1087.0 ], [ 1619.0, 1088.0 ] ] } },
{ "type": "Feature", "properties": { "layer": "red_roads" }, "geometry": { "type": "LineString", "coordinates": [ [ 1620.0, 1025.0 ], [ 1619.0, 1087.0 ] ] } },
{ "type": "Feature", "properties": { "layer": "red_roads" }, "geometry": { "type": "LineString", "coordinates": [ [ 1619.0, 1088.0 ], [ 1638.0, 1104.0 ], [ 1643.0, 1119.0 ], [ 1647.0, 1124.0 ], [ 1656.0, 1124.0 ], [ 1664.0, 1126.0 ], [ 1678.0, 1142.0 ], [ 1684.0, 1143.0 ], [ 1689.0, 1147.0 ], [ 1689.0, 1161.0 ], [ 1691.0, 1163.0 ], [ 1694.0, 1163.0 ], [ 1698.0, 1168.0 ], [ 1703.0, 1169.0 ], [ 1707.0, 1172.0 ], [ 1709.0, 1193.0 ], [ 1705.0, 1202.0 ], [ 1705.0, 1207.0 ], [ 1707.0, 1209.0 ], [ 1712.0, 1209.0 ], [ 1722.0, 1201.0 ], [ 1729.0, 1201.0 ], [ 1734.0, 1204.0 ], [ 1745.0, 1206.0 ], [ 1748.0, 1209.0 ], [ 1748.0, 1220.0 ], [ 1754.0, 1229.0 ], [ 1767.0, 1244.0 ], [ 1778.0, 1251.0 ] ] } },
{ "type": "Feature", "properties": { "layer": "red_roads" }, "geometry": { "type": "LineString", "coordinates": [ [ 1621.0, 987.0 ], [ 1621.0, 993.0 ] ] } },
{ "type": "Feature", "properties": { "layer": "red_roads" }, "geometry": { "type": "LineString", "coordinates": [ [ 1625.0, 896.0 ], [ 1624.0, 921.0 ] ] } },
{ "type": "Feature", "properties": { "layer": "red_roads" }, "geometry": { "type": "LineString", "coordinates": [ [ 1624.0, 933.0 ], [ 1624.0, 937.0 ] ] } },
{ "type": "Feature", "properties": { "layer": "red_roads" }, "geometry": { "type": "LineString", "coordinates": [ [ 1640.0, 844.0 ], [ 1642.0, 852.0 ], [ 1634.0, 865.0 ], [ 1627.0, 884.0 ] ] } },
{ "type": "Feature", "properties": { "layer": "red_roads" }, "geometry": { "type": "LineString", "coordinates": [ [ 1632.0, 800.0 ], [ 1631.0, 812.0 ], [ 1628.0, 818.0 ] ] } },
{ "type": "Feature", "properties": { "layer": "red_roads" }, "geometry": { "type": "LineString", "coordinates": [ [ 1631.0, 834.0 ], [ 1638.0, 840.0 ] ] } },
{ "type": "Feature", "properties": { "layer": "red_roads" }, "geometry": { "type": "LineString", "coordinates": [ [ 1643.0, 763.0 ], [ 1647.0, 756.0 ] ] } },
{ "type": "Feature", "properties": { "layer": "red_roads" }, "geometry": { "type": "LineString", "coordinates": [ [ 1653.0, 733.0 ], [ 1654.0, 733.0 ] ] } },
{ "type": "Feature", "properties": { "layer": "red_roads" }, "geometry": { "type": "LineString", "coordinates": [ [ 1653.0, 733.0 ], [ 1654.0, 734.0 ] ] } },
{ "type": "Feature", "properties": { "layer": "red_roads" }, "geometry": { "type": "LineString", "coordinates": [ [ 1654.0, 733.0 ], [ 1654.0, 734.0 ] ] } },
{ "type": "Feature", "properties": { "layer": "red_roads" }, "geometry": { "type": "LineString", "coordinates": [ [ 1693.0, 642.0 ], [ 1682.0, 659.0 ], [ 1659.0, 723.0 ], [ 1654.0, 733.0 ] ] } },
{ "type": "Feature", "properties": { "layer": "red_roads" }, "geometry": { "type": "LineString", "coordinates": [ [ 1654.0, 734.0 ], [ 1654.0, 736.0 ] ] } },
{ "type": "Feature", "properties": { "layer": "red_roads" }, "geometry": { "type": "LineString", "coordinates": [ [ 1692.0, 641.0 ], [ 1693.0, 642.0 ] ] } },
{ "type": "Feature", "properties": { "layer": "red_roads" }, "geometry": { "type": "LineString", "coordinates": [ [ 1693.0, 642.0 ], [ 1701.0, 632.0 ], [ 1706.0, 622.0 ], [ 1716.0, 612.0 ], [ 1732.0, 582.0 ], [ 1737.0, 577.0 ], [ 1745.0, 574.0 ], [ 1751.0, 567.0 ], [ 1763.0, 564.0 ], [ 1766.0, 561.0 ], [ 1771.0, 549.0 ], [ 1781.0, 540.0 ], [ 1783.0, 535.0 ] ] } },
{ "type": "Feature", "properties": { "layer": "red_roads" }, "geometry": { "type": "LineString", "coordinates": [ [ 1748.0, 1382.0 ], [ 1754.0, 1377.0 ] ] } },
{ "type": "Feature", "properties": { "layer": "red_roads" }, "geometry": { "type": "LineString", "coordinates": [ [ 1754.0, 1376.0 ], [ 1755.0, 1377.0 ] ] } },
{ "type": "Feature", "properties": { "layer": "red_roads" }, "geometry": { "type": "LineString", "coordinates": [ [ 1754.0, 1376.0 ], [ 1754.0, 1377.0 ] ] } },
{ "type": "Feature", "properties": { "layer": "red_roads" }, "geometry": { "type": "LineString", "coordinates": [ [ 1781.0, 1269.0 ], [ 1780.0, 1273.0 ], [ 1771.0, 1281.0 ], [ 1768.0, 1288.0 ], [ 1765.0, 1291.0 ], [ 1759.0, 1293.0 ], [ 1757.0, 1297.0 ], [ 1759.0, 1311.0 ], [ 1764.0, 1321.0 ], [ 1764.0, 1331.0 ], [ 1761.0, 1339.0 ], [ 1762.0, 1347.0 ], [ 1750.0, 1358.0 ], [ 1750.0, 1363.0 ], [ 1754.0, 1376.0 ] ] } },
{ "type": "Feature", "properties": { "layer": "red_roads" }, "geometry": { "type": "LineString", "coordinates": [ [ 1754.0, 1377.0 ], [ 1755.0, 1377.0 ] ] } },
{ "type": "Feature", "properties": { "layer": "red_roads" }, "geometry": { "type": "LineString", "coordinates": [ [ 1755.0, 1377.0 ], [ 1756.0, 1377.0 ] ] } },
{ "type": "Feature", "properties": { "layer": "red_roads" }, "geometry": { "type": "LineString", "coordinates": [ [ 1756.0, 1377.0 ], [ 1757.0, 1377.0 ] ] } },
{ "type": "Feature", "properties": { "layer": "red_roads" }, "geometry": { "type": "LineString", "coordinates": [ [ 1756.0, 1377.0 ], [ 1757.0, 1378.0 ] ] } },
{ "type": "Feature", "properties": { "layer": "red_roads" }, "geometry": { "type": "LineString", "coordinates": [ [ 1757.0, 1377.0 ], [ 1758.0, 1377.0 ] ] } },
{ "type": "Feature", "properties": { "layer": "red_roads" }, "geometry": { "type": "LineString", "coordinates": [ [ 1757.0, 1377.0 ], [ 1757.0, 1378.0 ] ] } },
{ "type": "Feature", "properties": { "layer": "red_roads" }, "geometry": { "type": "LineString", "coordinates": [ [ 1757.0, 1378.0 ], [ 1758.0, 1383.0 ], [ 1756.0, 1385.0 ], [ 1752.0, 1397.0 ], [ 1750.0, 1411.0 ], [ 1752.0, 1422.0 ], [ 1757.0, 1427.0 ], [ 1759.0, 1434.0 ], [ 1766.0, 1445.0 ], [ 1766.0, 1452.0 ], [ 1760.0, 1462.0 ], [ 1759.0, 1467.0 ], [ 1762.0, 1475.0 ], [ 1767.0, 1481.0 ] ] } },
{ "type": "Feature", "properties": { "layer": "red_roads" }, "geometry": { "type": "LineString", "coordinates": [ [ 1757.0, 1378.0 ], [ 1758.0, 1377.0 ] ] } },
{ "type": "Feature", "properties": { "layer": "red_roads" }, "geometry": { "type": "LineString", "coordinates": [ [ 1758.0, 1377.0 ], [ 1762.0, 1374.0 ] ] } },
{ "type": "Feature", "properties": { "layer": "red_roads" }, "geometry": { "type": "LineString", "coordinates": [ [ 1778.0, 1251.0 ], [ 1779.0, 1251.0 ] ] } },
{ "type": "Feature", "properties": { "layer": "red_roads" }, "geometry": { "type": "LineString", "coordinates": [ [ 1778.0, 1251.0 ], [ 1779.0, 1252.0 ] ] } },
{ "type": "Feature", "properties": { "layer": "red_roads" }, "geometry": { "type": "LineString", "coordinates": [ [ 1779.0, 1251.0 ], [ 1779.0, 1252.0 ] ] } },
{ "type": "Feature", "properties": { "layer": "red_roads" }, "geometry": { "type": "LineString", "coordinates": [ [ 1779.0, 1251.0 ], [ 1784.0, 1245.0 ] ] } },
{ "type": "Feature", "properties": { "layer": "red_roads" }, "geometry": { "type": "LineString", "coordinates": [ [ 1779.0, 1252.0 ], [ 1781.0, 1267.0 ] ] } },
{ "type": "Feature", "properties": { "layer": "red_roads" }, "geometry": { "type": "LineString", "coordinates": [ [ 1780.0, 530.0 ], [ 1782.0, 534.0 ] ] } },
{ "type": "Feature", "properties": { "layer": "red_roads" }, "geometry": { "type": "LineString", "coordinates": [ [ 1781.0, 1267.0 ], [ 1782.0, 1268.0 ] ] } },
{ "type": "Feature", "properties": { "layer": "red_roads" }, "geometry": { "type": "LineString", "coordinates": [ [ 1781.0, 1267.0 ], [ 1781.0, 1268.0 ] ] } },
{ "type": "Feature", "properties": { "layer": "red_roads" }, "geometry": { "type": "LineString", "coordinates": [ [ 1781.0, 1268.0 ], [ 1782.0, 1268.0 ] ] } },
{ "type": "Feature", "properties": { "layer": "red_roads" }, "geometry": { "type": "LineString", "coordinates": [ [ 1781.0, 1268.0 ], [ 1781.0, 1269.0 ] ] } },
{ "type": "Feature", "properties": { "layer": "red_roads" }, "geometry": { "type": "LineString", "coordinates": [ [ 1781.0, 1269.0 ], [ 1782.0, 1268.0 ] ] } },
{ "type": "Feature", "properties": { "layer": "red_roads" }, "geometry": { "type": "LineString", "coordinates": [ [ 1782.0, 534.0 ], [ 1783.0, 534.0 ] ] } },
{ "type": "Feature", "properties": { "layer": "red_roads" }, "geometry": { "type": "LineString", "coordinates": [ [ 1782.0, 534.0 ], [ 1783.0, 535.0 ] ] } },
{ "type": "Feature", "properties": { "layer": "red_roads" }, "geometry": { "type": "LineString", "coordinates": [ [ 1782.0, 1268.0 ], [ 1791.0, 1269.0 ] ] } },
{ "type": "Feature", "properties": { "layer": "red_roads" }, "geometry": { "type": "LineString", "coordinates": [ [ 1783.0, 534.0 ], [ 1784.0, 534.0 ] ] } },
{ "type": "Feature", "properties": { "layer": "red_roads" }, "geometry": { "type": "LineString", "coordinates": [ [ 1783.0, 534.0 ], [ 1783.0, 535.0 ] ] } },
{ "type": "Feature", "properties": { "layer": "red_roads" }, "geometry": { "type": "LineString", "coordinates": [ [ 1783.0, 535.0 ], [ 1784.0, 534.0 ] ] } },
{ "type": "Feature", "properties": { "layer": "red_roads" }, "geometry": { "type": "LineString", "coordinates": [ [ 1784.0, 534.0 ], [ 1801.0, 516.0 ], [ 1812.0, 501.0 ] ] } },
{ "type": "Feature", "properties": { "layer": "red_roads" }, "geometry": { "type": "LineString", "coordinates": [ [ 1795.0, 508.0 ], [ 1798.0, 508.0 ] ] } },
{ "type": "Feature", "properties": { "layer": "red_roads" }, "geometry": { "type": "LineString", "coordinates": [ [ 1797.0, 505.0 ], [ 1798.0, 507.0 ] ] } },
{ "type": "Feature", "properties": { "layer": "red_roads" }, "geometry": { "type": "LineString", "coordinates": [ [ 1798.0, 507.0 ], [ 1799.0, 507.0 ] ] } },
{ "type": "Feature", "properties": { "layer": "red_roads" }, "geometry": { "type": "LineString", "coordinates": [ [ 1798.0, 507.0 ], [ 1798.0, 508.0 ] ] } },
{ "type": "Feature", "properties": { "layer": "red_roads" }, "geometry": { "type": "LineString", "coordinates": [ [ 1798.0, 508.0 ], [ 1799.0, 507.0 ] ] } },
{ "type": "Feature", "properties": { "layer": "red_roads" }, "geometry": { "type": "LineString", "coordinates": [ [ 1799.0, 507.0 ], [ 1805.0, 502.0 ] ] } },
{ "type": "Feature", "properties": { "layer": "red_roads" }, "geometry": { "type": "LineString", "coordinates": [ [ 1811.0, 498.0 ], [ 1812.0, 500.0 ] ] } },
{ "type": "Feature", "properties": { "layer": "red_roads" }, "geometry": { "type": "LineString", "coordinates": [ [ 1812.0, 500.0 ], [ 1813.0, 501.0 ] ] } },
{ "type": "Feature", "properties": { "layer": "red_roads" }, "geometry": { "type": "LineString", "coordinates": [ [ 1812.0, 500.0 ], [ 1812.0, 501.0 ] ] } },
{ "type": "Feature", "properties": { "layer": "red_roads" }, "geometry": { "type": "LineString", "coordinates": [ [ 1812.0, 501.0 ], [ 1813.0, 501.0 ] ] } },
{ "type": "Feature", "properties": { "layer": "red_roads" }, "geometry": { "type": "LineString", "coordinates": [ [ 1813.0, 501.0 ], [ 1834.0, 491.0 ], [ 1850.0, 490.0 ], [ 1853.0, 487.0 ], [ 1855.0, 479.0 ], [ 1857.0, 477.0 ], [ 1866.0, 475.0 ], [ 1872.0, 480.0 ], [ 1876.0, 480.0 ], [ 1879.0, 474.0 ], [ 1891.0, 475.0 ], [ 1903.0, 465.0 ], [ 1916.0, 457.0 ], [ 1918.0, 454.0 ], [ 1924.0, 454.0 ], [ 1928.0, 456.0 ], [ 1932.0, 456.0 ], [ 1939.0, 452.0 ], [ 1949.0, 454.0 ], [ 1966.0, 441.0 ], [ 1974.0, 437.0 ], [ 2129.0, 435.0 ], [ 2139.0, 440.0 ], [ 2146.0, 440.0 ], [ 2159.0, 419.0 ], [ 2163.0, 416.0 ], [ 2181.0, 417.0 ], [ 2189.0, 423.0 ] ] } },
{ "type": "Feature", "properties": { "layer": "red_roads" }, "geometry": { "type": "LineString", "coordinates": [ [ 1814.0, 331.0 ], [ 1817.0, 333.0 ], [ 1818.0, 337.0 ], [ 1816.0, 338.0 ] ] } },
{ "type": "Feature", "properties": { "layer": "red_roads" }, "geometry": { "type": "LineString", "coordinates": [ [ 1825.0, 1042.0 ], [ 1824.0, 1043.0 ], [ 1827.0, 1050.0 ], [ 1833.0, 1059.0 ] ] } },
{ "type": "Feature", "properties": { "layer": "red_roads" }, "geometry": { "type": "LineString", "coordinates": [ [ 1829.0, 1200.0 ], [ 1838.0, 1187.0 ], [ 1839.0, 1182.0 ], [ 1844.0, 1176.0 ], [ 1845.0, 1172.0 ] ] } },
{ "type": "Feature", "properties": { "layer": "red_roads" }, "geometry": { "type": "LineString", "coordinates": [ [ 1839.0, 1073.0 ], [ 1847.0, 1097.0 ], [ 1849.0, 1112.0 ] ] } },
{ "type": "Feature", "properties": { "layer": "red_roads" }, "geometry": { "type": "LineString", "coordinates": [ [ 1851.0, 1301.0 ], [ 1850.0, 1306.0 ], [ 1848.0, 1307.0 ] ] } },
{ "type": "Feature", "properties": { "layer": "red_roads" }, "geometry": { "type": "LineString", "coordinates": [ [ 1850.0, 1117.0 ], [ 1853.0, 1132.0 ], [ 1859.0, 1141.0 ] ] } },
{ "type": "Feature", "properties": { "layer": "red_roads" }, "geometry": { "type": "LineString", "coordinates": [ [ 1859.0, 1141.0 ], [ 1859.0, 1146.0 ] ] } },
{ "type": "Feature", "properties": { "layer": "red_roads" }, "geometry": { "type": "LineString", "coordinates": [ [ 1859.0, 1141.0 ], [ 1865.0, 1136.0 ], [ 1872.0, 1134.0 ] ] } },
{ "type": "Feature", "properties": { "layer": "red_roads" }, "geometry": { "type": "LineString", "coordinates": [ [ 1904.0, 1185.0 ], [ 1909.0, 1209.0 ] ] } },
{ "type": "Feature", "properties": { "layer": "red_roads" }, "geometry": { "type": "LineString", "coordinates": [ [ 1910.0, 1165.0 ], [ 1918.0, 1155.0 ] ] } },
{ "type": "Feature", "properties": { "layer": "red_roads" }, "geometry": { "type": "LineString", "coordinates": [ [ 1917.0, 1153.0 ], [ 1918.0, 1154.0 ] ] } },
{ "type": "Feature", "properties": { "layer": "red_roads" }, "geometry": { "type": "LineString", "coordinates": [ [ 1918.0, 1154.0 ], [ 1919.0, 1154.0 ] ] } },
{ "type": "Feature", "properties": { "layer": "red_roads" }, "geometry": { "type": "LineString", "coordinates": [ [ 1918.0, 1154.0 ], [ 1918.5, 1154.5 ] ] } },
{ "type": "Feature", "properties": { "layer": "red_roads" }, "geometry": { "type": "LineString", "coordinates": [ [ 1918.0, 1154.0 ], [ 1918.0, 1155.0 ] ] } },
{ "type": "Feature", "properties": { "layer": "red_roads" }, "geometry": { "type": "LineString", "coordinates": [ [ 1918.0, 1154.0 ], [ 1919.0, 1153.0 ] ] } },
{ "type": "Feature", "properties": { "layer": "red_roads" }, "geometry": { "type": "LineString", "coordinates": [ [ 1918.0, 1155.0 ], [ 1919.0, 1155.0 ] ] } },
{ "type": "Feature", "properties": { "layer": "red_roads" }, "geometry": { "type": "LineString", "coordinates": [ [ 1918.0, 1155.0 ], [ 1918.5, 1154.5 ] ] } },
{ "type": "Feature", "properties": { "layer": "red_roads" }, "geometry": { "type": "LineString", "coordinates": [ [ 1918.5, 1154.5 ], [ 1919.0, 1155.0 ] ] } },
{ "type": "Feature", "properties": { "layer": "red_roads" }, "geometry": { "type": "LineString", "coordinates": [ [ 1918.5, 1154.5 ], [ 1919.0, 1154.0 ] ] } },
{ "type": "Feature", "properties": { "layer": "red_roads" }, "geometry": { "type": "LineString", "coordinates": [ [ 1919.0, 1153.0 ], [ 1919.0, 1154.0 ] ] } },
{ "type": "Feature", "properties": { "layer": "red_roads" }, "geometry": { "type": "LineString", "coordinates": [ [ 1919.0, 1153.0 ], [ 1920.0, 1152.0 ] ] } },
{ "type": "Feature", "properties": { "layer": "red_roads" }, "geometry": { "type": "LineString", "coordinates": [ [ 1919.0, 1154.0 ], [ 1920.0, 1155.0 ] ] } },
{ "type": "Feature", "properties": { "layer": "red_roads" }, "geometry": { "type": "LineString", "coordinates": [ [ 1919.0, 1154.0 ], [ 1919.0, 1155.0 ] ] } },
{ "type": "Feature", "properties": { "layer": "red_roads" }, "geometry": { "type": "LineString", "coordinates": [ [ 1919.0, 1155.0 ], [ 1920.0, 1155.0 ] ] } },
{ "type": "Feature", "properties": { "layer": "red_roads" }, "geometry": { "type": "LineString", "coordinates": [ [ 1920.0, 1155.0 ], [ 1923.0, 1156.0 ] ] } },
{ "type": "Feature", "properties": { "layer": "red_roads" }, "geometry": { "type": "LineString", "coordinates": [ [ 1947.0, 1133.0 ], [ 1953.0, 1125.0 ], [ 1957.0, 1115.0 ] ] } },
{ "type": "Feature", "properties": { "layer": "red_roads" }, "geometry": { "type": "LineString", "coordinates": [ [ 2053.0, 1479.0 ], [ 2070.0, 1468.0 ] ] } },
{ "type": "Feature", "properties": { "layer": "red_roads" }, "geometry": { "type": "LineString", "coordinates": [ [ 2075.0, 1467.0 ], [ 2085.0, 1462.0 ], [ 2094.0, 1453.0 ] ] } },
{ "type": "Feature", "properties": { "layer": "red_roads" }, "geometry": { "type": "LineString", "coordinates": [ [ 2116.0, 1112.0 ], [ 2116.0, 1133.0 ] ] } },
{ "type": "Feature", "properties": { "layer": "red_roads" }, "geometry": { "type": "LineString", "coordinates": [ [ 2118.0, 1440.0 ], [ 2134.0, 1424.0 ] ] } },
{ "type": "Feature", "properties": { "layer": "red_roads" }, "geometry": { "type": "LineString", "coordinates": [ [ 2119.0, 950.0 ], [ 2123.0, 958.0 ], [ 2126.0, 970.0 ] ] } },
{ "type": "Feature", "properties": { "layer": "red_roads" }, "geometry": { "type": "LineString", "coordinates": [ [ 2128.0, 976.0 ], [ 2135.0, 988.0 ] ] } },
{ "type": "Feature", "properties": { "layer": "red_roads" }, "geometry": { "type": "LineString", "coordinates": [ [ 2136.0, 1419.0 ], [ 2146.0, 1409.0 ] ] } },
{ "type": "Feature", "properties": { "layer": "red_roads" }, "geometry": { "type": "LineString", "coordinates": [ [ 2145.0, 1407.0 ], [ 2146.0, 1409.0 ] ] } },
{ "type": "Feature", "properties": { "layer": "red_roads" }, "geometry": { "type": "LineString", "coordinates": [ [ 2146.0, 1409.0 ], [ 2164.0, 1399.0 ], [ 2178.0, 1400.0 ] ] } },
{ "type": "Feature", "properties": { "layer": "red_roads" }, "geometry": { "type": "LineString", "coordinates": [ [ 2153.0, 1018.0 ], [ 2163.0, 1042.0 ] ] } },
{ "type": "Feature", "properties": { "layer": "red_roads" }, "geometry": { "type": "LineString", "coordinates": [ [ 2167.0, 1050.0 ], [ 2174.0, 1061.0 ], [ 2177.0, 1070.0 ] ] } }
]
}
