{
"type": "FeatureCollection",
"name": "buildings",
"features": [
{ "type": "Feature", "properties": { "layer": "buildings" }, "geometry": { "type": "Polygon", "coordinates": [ [ [ 0.0, 0.0 ], [ 0.0, 2400.0 ], [ 2390.0, 2400.0 ], [ 2389.0, 1.0 ], [ 0.0, 0.0 ] ], [ [ 1879.0, 76.0 ], [ 1880.0, 75.0 ], [ 1880.0, 76.0 ], [ 1879.0, 76.0 ] ], [ [ 381.0, 79.0 ], [ 382.0, 78.0 ], [ 382.0, 79.0 ], [ 381.0, 79.0 ] ], [ [ 427.0, 86.0 ], [ 428.0, 85.0 ], [ 428.0, 86.0 ], [ 427.0, 86.0 ] ], [ [ 1122.0, 96.0 ], [ 1124.0, 95.0 ], [ 1124.0, 96.0 ], [ 1122.0, 96.0 ] ], [ [ 1211.0, 96.0 ], [ 1212.0, 95.0 ], [ 1212.0, 96.0 ], [ 1211.0, 96.0 ] ], [ [ 2033.0, 184.0 ], [ 2034.0, 183.0 ], [ 2034.0, 184.0 ], [ 2033.0, 184.0 ] ], [ [ 825.0, 192.0 ], [ 826.0, 191.0 ], [ 826.0, 192.0 ], [ 825.0, 192.0 ] ], [ [ 1369.0, 198.0 ], [ 1370.0, 197.0 ], [ 1370.0, 198.0 ], [ 1369.0, 198.0 ] ], [ [ 139.0, 276.0 ], [ 140.0, 275.0 ], [ 140.0, 276.0 ], [ 139.0, 276.0 ] ], [ [ 515.0, 314.0 ], [ 516.0, 313.0 ], [ 516.0, 314.0 ], [ 515.0, 314.0 ] ], [ [ 361.0, 328.0 ], [ 362.0, 327.0 ], [ 362.0, 328.0 ], [ 361.0, 328.0 ] ], [ [ 415.0, 328.0 ], [ 416.0, 327.0 ], [ 416.0, 328.0 ], [ 415.0, 328.0 ] ], [ [ 421.0, 334.0 ], [ 422.0, 333.0 ], [ 422.0, 334.0 ], [ 421.0, 334.0 ] ], [ [ 1649.0, 360.0 ], [ 1650.0, 359.0 ], [ 1650.0, 360.0 ], [ 1649.0, 360.0 ] ], [ [ 1647.0, 362.0 ], [ 1648.0, 360.0 ], [ 1648.0, 362.0 ], [ 1647.0, 362.0 ] ], [ [ 1645.0, 374.0 ], [ 1646.0, 373.0 ], [ 1646.0, 374.0 ], [ 1645.0, 374.0 ] ], [ [ 1643.0, 435.0 ], [ 1644.0, 434.0 ], [ 1644.0, 435.0 ], [ 1643.0, 435.0 ] ], [ [ 1487.0, 480.0 ], [ 1488.0, 479.0 ], [ 1488.0, 480.0 ], [ 1487.0, 480.0 ] ], [ [ 1489.0, 590.0 ], [ 1490.0, 589.0 ], [ 1490.0, 590.0 ], [ 1489.0, 590.0 ] ], [ [ 211.0, 703.0 ], [ 212.0, 702.0 ], [ 212.0, 703.0 ], [ 211.0, 703.0 ] ], [ [ 203.0, 708.0 ], [ 204.0, 707.0 ], [ 204.0, 708.0 ], [ 203.0, 708.0 ] ], [ [ 601.0, 746.0 ], [ 602.0, 745.0 ], [ 602.0, 746.0 ], [ 601.0, 746.0 ] ], [ [ 1515.0, 748.0 ], [ 1516.0, 747.0 ], [ 1516.0, 748.0 ], [ 1515.0, 748.0 ] ], [ [ 1111.0, 794.0 ], [ 1112.0, 793.0 ], [ 1112.0, 794.0 ], [ 1111.0, 794.0 ] ], [ [ 587.0, 904.0 ], [ 588.0, 903.0 ], [ 588.0, 904.0 ], [ 587.0, 904.0 ] ], [ [ 477.0, 972.0 ], [ 478.0, 971.0 ], [ 478.0, 972.0 ], [ 477.0, 972.0 ] ], [ [ 1957.0, 986.0 ], [ 1958.0, 985.0 ], [ 1958.0, 986.0 ], [ 1957.0, 986.0 ] ], [ [ 1927.0, 1007.0 ], [ 1928.0, 1006.0 ], [ 1928.0, 1007.0 ], [ 1927.0, 1007.0 ] ], [ [ 925.0, 1117.0 ], [ 926.0, 1116.0 ], [ 926.0, 1117.0 ], [ 925.0, 1117.0 ] ], [ [ 1777.0, 1153.0 ], [ 1778.0, 1152.0 ], [ 1778.0, 1153.0 ], [ 1777.0, 1153.0 ] ], [ [ 405.0, 1172.0 ], [ 406.0, 1171.0 ], [ 406.0, 1172.0 ], [ 405.0, 1172.0 ] ], [ [ 1401.0, 1182.0 ], [ 1402.0, 1181.0 ], [ 1402.0, 1182.0 ], [ 1401.0, 1182.0 ] ], [ [ 419.0, 1222.0 ], [ 420.0, 1221.0 ], [ 420.0, 1222.0 ], [ 419.0, 1222.0 ] ], [ [ 1322.0, 1226.0 ], [ 1324.0, 1225.0 ], [ 1324.0, 1226.0 ], [ 1322.0, 1226.0 ] ], [ [ 1373.0, 1247.0 ], [ 1374.0, 1246.0 ], [ 1374.0, 1247.0 ], [ 1373.0, 1247.0 ] ], [ [ 419.0, 1292.0 ], [ 420.0, 1291.0 ], [ 420.0, 1292.0 ], [ 419.0, 1292.0 ] ], [ [ 1889.0, 1305.0 ], [ 1890.0, 1304.0 ], [ 1890.0, 1305.0 ], [ 1889.0, 1305.0 ] ], [ [ 447.0, 1336.0 ], [ 448.0, 1335.0 ], [ 448.0, 1336.0 ], [ 447.0, 1336.0 ] ], [ [ 1047.0, 1400.0 ], [ 1048.0, 1399.0 ], [ 1048.0, 1400.0 ], [ 1047.0, 1400.0 ] ], [ [ 1413.0, 1430.0 ], [ 1414.0, 1429.0 ], [ 1414.0, 1430.0 ], [ 1413.0, 1430.0 ] ], [ [ 1145.0, 1455.0 ], [ 1146.0, 1454.0 ], [ 1146.0, 1455.0 ], [ 1145.0, 1455.0 ] ], [ [ 633.0, 1456.0 ], [ 634.0, 1455.0 ], [ 634.0, 1456.0 ], [ 633.0, 1456.0 ] ], [ [ 373.0, 1460.0 ], [ 374.0, 1459.0 ], [ 374.0, 1460.0 ], [ 373.0, 1460.0 ] ], [ [ 1191.0, 1462.0 ], [ 1192.0, 1461.0 ], [ 1192.0, 1462.0 ], [ 1191.0, 1462.0 ] ], [ [ 1677.0, 1462.0 ], [ 1678.0, 1461.0 ], [ 1678.0, 1462.0 ], [ 1677.0, 1462.0 ] ], [ [ 1641.0, 1466.0 ], [ 1642.0, 1465.0 ], [ 1642.0, 1466.0 ], [ 1641.0, 1466.0 ] ], [ [ 1039.0, 1476.0 ], [ 1040.0, 1475.0 ], [ 1040.0, 1476.0 ], [ 1039.0, 1476.0 ] ], [ [ 1359.0, 1490.0 ], [ 1360.0, 1489.0 ], [ 1360.0, 1490.0 ], [ 1359.0, 1490.0 ] ], [ [ 1262.0, 1498.0 ], [ 1263.0, 1497.0 ], [ 1263.0, 1498.0 ], [ 1262.0, 1498.0 ] ], [ [ 1143.0, 1628.0 ], [ 1144.0, 1627.0 ], [ 1144.0, 1628.0 ], [ 1143.0, 1628.0 ] ], [ [ 857.0, 1758.0 ], [ 858.0, 1757.0 ], [ 858.0, 1758.0 ], [ 857.0, 1758.0 ] ], [ [ 1771.0, 1771.0 ], [ 1772.0, 1770.0 ], [ 1772.0, 1771.0 ], [ 1771.0, 1771.0 ] ], [ [ 901.0, 1800.0 ], [ 902.0, 1799.0 ], [ 902.0, 1800.0 ], [ 901.0, 1800.0 ] ], [ [ 1391.0, 1808.0 ], [ 1392.0, 1807.0 ], [ 1392.0, 1808.0 ], [ 1391.0, 1808.0 ] ], [ [ 1389.0, 1824.0 ], [ 1390.0, 1823.0 ], [ 1390.0, 1824.0 ], [ 1389.0, 1824.0 ] ], [ [ 1925.0, 1828.0 ], [ 1926.0, 1827.0 ], [ 1926.0, 1828.0 ], [ 1925.0, 1828.0 ] ], [ [ 1817.0, 1842.0 ], [ 1818.0, 1841.0 ], [ 1818.0, 1842.0 ], [ 1817.0, 1842.0 ] ], [ [ 971.0, 1918.0 ], [ 972.0, 1917.0 ], [ 972.0, 1918.0 ], [ 971.0, 1918.0 ] ], [ [ 90.0, 1958.0 ], [ 92.0, 1957.0 ], [ 92.0, 1958.0 ], [ 90.0, 1958.0 ] ], [ [ 621.0, 1990.0 ], [ 622.0, 1989.0 ], [ 622.0, 1990.0 ], [ 621.0, 1990.0 ] ], [ [ 2017.0, 2087.0 ], [ 2018.0, 2086.0 ], [ 2018.0, 2087.0 ], [ 2017.0, 2087.0 ] ], [ [ 711.0, 2238.0 ], [ 712.0, 2237.0 ], [ 712.0, 2238.0 ], [ 711.0, 2238.0 ] ], [ [ 1733.0, 2262.0 ], [ 1734.0, 2261.0 ], [ 1734.0, 2262.0 ], [ 1733.0, 2262.0 ] ] ] } }
]
}
