{
"type": "FeatureCollection",
"name": "contours",
"features": [
{ "type": "Feature", "properties": { "layer": "contours" }, "geometry": { "type": "LineString", "coordinates": [ [ 155.0, 798.0 ], [ 159.0, 800.0 ], [ 162.0, 800.0 ], [ 164.0, 798.0 ], [ 175.0, 798.0 ] ] } },
{ "type": "Feature", "properties": { "layer": "contours" }, "geometry": { "type": "LineString", "coordinates": [ [ 170.0, 1926.0 ], [ 171.0, 1925.0 ] ] } },
{ "type": "Feature", "properties": { "layer": "contours" }, "geometry": { "type": "LineString", "coordinates": [ [ 171.0, 1923.0 ], [ 172.0, 1924.0 ] ] } },
{ "type": "Feature", "properties": { "layer": "contours" }, "geometry": { "type": "LineString", "coordinates": [ [ 171.0, 1923.0 ], [ 171.0, 1924.0 ] ] } },
{ "type": "Feature", "properties": { "layer": "contours" }, "geometry": { "type": "LineString", "coordinates": [ [ 176.0, 1912.0 ], [ 171.0, 1919.0 ], [ 171.0, 1923.0 ] ] } },
{ "type": "Feature", "properties": { "layer": "contours" }, "geometry": { "type": "LineString", "coordinates": [ [ 171.0, 1924.0 ], [ 172.0, 1924.0 ] ] } },
{ "type": "Feature", "properties": { "layer": "contours" }, "geometry": { "type": "LineString", "coordinates": [ [ 171.0, 1924.0 ], [ 171.0, 1925.0 ] ] } },
{ "type": "Feature", "properties": { "layer": "contours" }, "geometry": { "type": "LineString", "coordinates": [ [ 171.0, 1925.0 ], [ 172.0, 1924.0 ] ] } },
{ "type": "Feature", "properties": { "layer": "contours" }, "geometry": { "type": "LineString", "coordinates": [ [ 172.0, 1924.0 ], [ 173.0, 1923.0 ] ] } },
{ "type": "Feature", "properties": { "layer": "contours" }, "geometry": { "type": "LineString", "coordinates": [ [ 175.0, 1908.0 ], [ 176.0, 1910.0 ] ] } },
{ "type": "Feature", "properties": { "layer": "contours" }, "geometry": { "type": "LineString", "coordinates": [ [ 176.0, 1910.0 ], [ 177.0, 1910.0 ] ] } },
{ "type": "Feature", "properties": { "layer": "contours" }, "geometry": { "type": "LineString", "coordinates": [ [ 176.0, 1910.0 ], [ 177.0, 1911.0 ] ] } },
{ "type": "Feature", "properties": { "layer": "contours" }, "geometry": { "type": "LineString", "coordinates": [ [ 176.0, 1912.0 ], [ 177.0, 1912.0 ] ] } },
{ "type": "Feature", "properties": { "layer": "contours" }, "geometry": { "type": "LineString", "coordinates": [ [ 176.0, 1912.0 ], [ 177.0, 1911.0 ] ] } },
{ "type": "Feature", "properties": { "layer": "contours" }, "geometry": { "type": "LineString", "coordinates": [ [ 177.0, 1903.0 ], [ 180.0, 1904.0 ], [ 180.0, 1907.0 ], [ 177.0, 1910.0 ] ] } },
{ "type": "Feature", "properties": { "layer": "contours" }, "geometry": { "type": "LineString", "coordinates": [ [ 177.0, 1910.0 ], [ 177.0, 1911.0 ] ] } },
{ "type": "Feature", "properties": { "layer": "contours" }, "geometry": { "type": "LineString", "coordinates": [ [ 177.0, 1911.0 ], [ 177.0, 1912.0 ] ] } },
{ "type": "Feature", "properties": { "layer": "contours" }, "geometry": { "type": "LineString", "coordinates": [ [ 177.0, 1912.0 ], [ 178.0, 1913.0 ] ] } },
{ "type": "Feature", "properties": { "layer": "contours" }, "geometry": { "type": "LineString", "coordinates": [ [ 184.0, 1610.0 ], [ 186.0, 1609.0 ] ] } },
{ "type": "Feature", "properties": { "layer": "contours" }, "geometry": { "type": "LineString", "coordinates": [ [ 186.0, 1607.0 ], [ 186.0, 1608.0 ] ] } },
{ "type": "Feature", "properties": { "layer": "contours" }, "geometry": { "type": "LineString", "coordinates": [ [ 186.0, 1608.0 ], [ 187.0, 1609.0 ] ] } },
{ "type": "Feature", "properties": { "layer": "contours" }, "geometry": { "type": "LineString", "coordinates": [ [ 186.0, 1608.0 ], [ 186.0, 1609.0 ] ] } },
{ "type": "Feature", "properties": { "layer": "contours" }, "geometry": { "type": "LineString", "coordinates": [ [ 186.0, 1609.0 ], [ 187.0, 1609.0 ] ] } },
{ "type": "Feature", "properties": { "layer": "contours" }, "geometry": { "type": "LineString", "coordinates": [ [ 187.0, 1609.0 ], [ 198.0, 1609.0 ] ] } },
{ "type": "Feature", "properties": { "layer": "contours" }, "geometry": { "type": "LineString", "coordinates": [ [ 206.0, 1811.0 ], [ 207.0, 1834.0 ] ] } },
{ "type": "Feature", "properties": { "layer": "contours" }, "geometry": { "type": "LineString", "coordinates": [ [ 209.0, 1868.0 ], [ 212.0, 1862.0 ] ] } },
{ "type": "Feature", "properties": { "layer": "contours" }, "geometry": { "type": "LineString", "coordinates": [ [ 211.0, 1881.0 ], [ 212.0, 1878.0 ], [ 221.0, 1871.0 ], [ 231.0, 1869.0 ] ] } },
{ "type": "Feature", "properties": { "layer": "contours" }, "geometry": { "type": "LineString", "coordinates": [ [ 222.0, 1608.0 ], [ 232.0, 1610.0 ], [ 235.0, 1612.0 ], [ 242.0, 1610.0 ] ] } },
{ "type": "Feature", "properties": { "layer": "contours" }, "geometry": { "type": "LineString", "coordinates": [ [ 250.0, 1875.0 ], [ 256.0, 1877.0 ], [ 262.0, 1876.0 ], [ 271.0, 1879.0 ], [ 275.0, 1878.0 ] ] } },
{ "type": "Feature", "properties": { "layer": "contours" }, "geometry": { "type": "LineString", "coordinates": [ [ 279.0, 1259.0 ], [ 280.0, 1259.0 ] ] } },
{ "type": "Feature", "properties": { "layer": "contours" }, "geometry": { "type": "LineString", "coordinates": [ [ 280.0, 1259.0 ], [ 281.0, 1259.0 ] ] } },
{ "type": "Feature", "properties": { "layer": "contours" }, "geometry": { "type": "LineString", "coordinates": [ [ 280.0, 1259.0 ], [ 281.0, 1258.0 ] ] } },
{ "type": "Feature", "properties": { "layer": "contours" }, "geometry": { "type": "LineString", "coordinates": [ [ 281.0, 1258.0 ], [ 281.0, 1259.0 ] ] } },
{ "type": "Feature", "properties": { "layer": "contours" }, "geometry": { "type": "LineString", "coordinates": [ [ 281.0, 1258.0 ], [ 282.0, 1257.0 ] ] } },
{ "type": "Feature", "properties": { "layer": "contours" }, "geometry": { "type": "LineString", "coordinates": [ [ 281.0, 1259.0 ], [ 285.0, 1263.0 ], [ 289.0, 1264.0 ] ] } },
{ "type": "Feature", "properties": { "layer": "contours" }, "geometry": { "type": "LineString", "coordinates": [ [ 307.0, 1881.0 ], [ 321.0, 1881.0 ], [ 326.0, 1886.0 ] ] } },
{ "type": "Feature", "properties": { "layer": "contours" }, "geometry": { "type": "LineString", "coordinates": [ [ 334.0, 1901.0 ], [ 335.0, 1897.0 ], [ 340.0, 1895.0 ] ] } },
{ "type": "Feature", "properties": { "layer": "contours" }, "geometry": { "type": "LineString", "coordinates": [ [ 336.0, 1742.0 ], [ 349.0, 1742.0 ] ] } },
{ "type": "Feature", "properties": { "layer": "contours" }, "geometry": { "type": "LineString", "coordinates": [ [ 340.0, 1895.0 ], [ 340.0, 1895.0 ] ] } },
{ "type": "Feature", "properties": { "layer": "contours" }, "geometry": { "type": "LineString", "coordinates": [ [ 345.0, 1899.0 ], [ 348.0, 1901.0 ], [ 358.0, 1902.0 ], [ 373.0, 1895.0 ], [ 376.0, 1892.0 ] ] } },
{ "type": "Feature", "properties": { "layer": "contours" }, "geometry": { "type": "LineString", "coordinates": [ [ 350.0, 1845.0 ], [ 356.0, 1840.0 ], [ 361.0, 1833.0 ] ] } },
{ "type": "Feature", "properties": { "layer": "contours" }, "geometry": { "type": "LineString", "coordinates": [ [ 366.0, 1747.0 ], [ 367.0, 1745.0 ], [ 376.0, 1745.0 ] ] } },
{ "type": "Feature", "properties": { "layer": "contours" }, "geometry": { "type": "LineString", "coordinates": [ [ 368.0, 1726.0 ], [ 373.0, 1725.0 ], [ 378.0, 1721.0 ] ] } },
{ "type": "Feature", "properties": { "layer": "contours" }, "geometry": { "type": "LineString", "coordinates": [ [ 376.0, 1517.0 ], [ 382.0, 1518.0 ] ] } },
{ "type": "Feature", "properties": { "layer": "contours" }, "geometry": { "type": "LineString", "coordinates": [ [ 379.0, 1766.0 ], [ 381.0, 1767.0 ] ] } },
{ "type": "Feature", "properties": { "layer": "contours" }, "geometry": { "type": "LineString", "coordinates": [ [ 380.0, 1770.0 ], [ 381.0, 1768.0 ] ] } },
{ "type": "Feature", "properties": { "layer": "contours" }, "geometry": { "type": "LineString", "coordinates": [ [ 381.0, 1767.0 ], [ 382.0, 1767.0 ] ] } },
{ "type": "Feature", "properties": { "layer": "contours" }, "geometry": { "type": "LineString", "coordinates": [ [ 381.0, 1767.0 ], [ 381.0, 1768.0 ] ] } },
{ "type": "Feature", "properties": { "layer": "contours" }, "geometry": { "type": "LineString", "coordinates": [ [ 381.0, 1768.0 ], [ 382.0, 1767.0 ] ] } },
{ "type": "Feature", "properties": { "layer": "contours" }, "geometry": { "type": "LineString", "coordinates": [ [ 382.0, 1767.0 ], [ 394.0, 1768.0 ], [ 396.0, 1775.0 ] ] } },
{ "type": "Feature", "properties": { "layer": "contours" }, "geometry": { "type": "LineString", "coordinates": [ [ 415.0, 1721.0 ], [ 420.0, 1724.0 ], [ 430.0, 1727.0 ], [ 431.0, 1726.0 ] ] } },
{ "type": "Feature", "properties": { "layer": "contours" }, "geometry": { "type": "LineString", "coordinates": [ [ 430.0, 1761.0 ], [ 428.0, 1765.0 ], [ 429.0, 1768.0 ] ] } },
{ "type": "Feature", "properties": { "layer": "contours" }, "geometry": { "type": "LineString", "coordinates": [ [ 442.0, 1734.0 ], [ 441.0, 1737.0 ], [ 444.0, 1742.0 ] ] } },
{ "type": "Feature", "properties": { "layer": "contours" }, "geometry": { "type": "LineString", "coordinates": [ [ 454.0, 1904.0 ], [ 455.0, 1908.0 ], [ 450.0, 1918.0 ] ] } },
{ "type": "Feature", "properties": { "layer": "contours" }, "geometry": { "type": "LineString", "coordinates": [ [ 485.0, 1866.0 ], [ 482.0, 1873.0 ], [ 483.0, 1878.0 ], [ 480.0, 1882.0 ] ] } },
{ "type": "Feature", "properties": { "layer": "contours" }, "geometry": { "type": "LineString", "coordinates": [ [ 488.0, 1847.0 ], [ 486.0, 1851.0 ], [ 487.0, 1859.0 ] ] } },
{ "type": "Feature", "properties": { "layer": "contours" }, "geometry": { "type": "LineString", "coordinates": [ [ 523.0, 1881.0 ], [ 528.0, 1873.0 ] ] } },
{ "type": "Feature", "properties": { "layer": "contours" }, "geometry": { "type": "LineString", "coordinates": [ [ 593.0, 2155.0 ], [ 600.0, 2156.0 ] ] } },
{ "type": "Feature", "properties": { "layer": "contours" }, "geometry": { "type": "LineString", "coordinates": [ [ 598.0, 1498.0 ], [ 600.0, 1508.0 ] ] } },
{ "type": "Feature", "properties": { "layer": "contours" }, "geometry": { "type": "LineString", "coordinates": [ [ 665.0, 2107.0 ], [ 672.0, 2106.0 ] ] } },
{ "type": "Feature", "properties": { "layer": "contours" }, "geometry": { "type": "LineString", "coordinates": [ [ 671.0, 1142.0 ], [ 679.0, 1138.0 ], [ 682.0, 1134.0 ] ] } },
{ "type": "Feature", "properties": { "layer": "contours" }, "geometry": { "type": "LineString", "coordinates": [ [ 703.0, 1160.0 ], [ 700.0, 1162.0 ], [ 700.0, 1168.0 ], [ 697.0, 1174.0 ] ] } },
{ "type": "Feature", "properties": { "layer": "contours" }, "geometry": { "type": "LineString", "coordinates": [ [ 758.0, 1754.0 ], [ 760.0, 1754.0 ], [ 761.0, 1751.0 ], [ 765.0, 1748.0 ] ] } },
{ "type": "Feature", "properties": { "layer": "contours" }, "geometry": { "type": "LineString", "coordinates": [ [ 769.0, 1781.0 ], [ 766.0, 1782.0 ], [ 763.0, 1793.0 ] ] } },
{ "type": "Feature", "properties": { "layer": "contours" }, "geometry": { "type": "LineString", "coordinates": [ [ 767.0, 1882.0 ], [ 771.0, 1882.0 ] ] } },
{ "type": "Feature", "properties": { "layer": "contours" }, "geometry": { "type": "LineString", "coordinates": [ [ 809.0, 2037.0 ], [ 805.0, 2040.0 ], [ 807.0, 2051.0 ] ] } },
{ "type": "Feature", "properties": { "layer": "contours" }, "geometry": { "type": "LineString", "coordinates": [ [ 821.0, 1659.0 ], [ 817.0, 1680.0 ] ] } },
{ "type": "Feature", "properties": { "layer": "contours" }, "geometry": { "type": "LineString", "coordinates": [ [ 827.0, 1591.0 ], [ 829.0, 1601.0 ] ] } },
{ "type": "Feature", "properties": { "layer": "contours" }, "geometry": { "type": "LineString", "coordinates": [ [ 848.0, 1916.0 ], [ 857.0, 1922.0 ], [ 864.0, 1924.0 ], [ 868.0, 1923.0 ] ] } },
{ "type": "Feature", "properties": { "layer": "contours" }, "geometry": { "type": "LineString", "coordinates": [ [ 920.0, 1666.0 ], [ 922.0, 1670.0 ], [ 922.0, 1675.0 ] ] } },
{ "type": "Feature", "properties": { "layer": "contours" }, "geometry": { "type": "LineString", "coordinates": [ [ 997.0, 1487.0 ], [ 1014.0, 1478.0 ] ] } },
{ "type": "Feature", "properties": { "layer": "contours" }, "geometry": { "type": "LineString", "coordinates": [ [ 1035.0, 1462.0 ], [ 1044.0, 1456.0 ], [ 1051.0, 1456.0 ], [ 1055.0, 1453.0 ] ] } },
{ "type": "Feature", "properties": { "layer": "contours" }, "geometry": { "type": "LineString", "coordinates": [ [ 1086.0, 1439.0 ], [ 1089.0, 1435.0 ], [ 1093.0, 1434.0 ] ] } },
{ "type": "Feature", "properties": { "layer": "contours" }, "geometry": { "type": "LineString", "coordinates": [ [ 1093.0, 1434.0 ], [ 1095.0, 1435.0 ] ] } },
{ "type": "Feature", "properties": { "layer": "contours" }, "geometry": { "type": "LineString", "coordinates": [ [ 1093.0, 1434.0 ], [ 1094.0, 1432.0 ] ] } },
{ "type": "Feature", "properties": { "layer": "contours" }, "geometry": { "type": "LineString", "coordinates": [ [ 1098.0, 1428.0 ], [ 1102.0, 1425.0 ], [ 1107.0, 1425.0 ], [ 1118.0, 1417.0 ] ] } },
{ "type": "Feature", "properties": { "layer": "contours" }, "geometry": { "type": "LineString", "coordinates": [ [ 1421.0, 2171.0 ], [ 1423.0, 2173.0 ], [ 1422.0, 2177.0 ] ] } },
{ "type": "Feature", "properties": { "layer": "contours" }, "geometry": { "type": "LineString", "coordinates": [ [ 1428.0, 2143.0 ], [ 1425.0, 2148.0 ], [ 1424.0, 2154.0 ] ] } },
{ "type": "Feature", "properties": { "layer": "contours" }, "geometry": { "type": "LineString", "coordinates": [ [ 1437.0, 2166.0 ], [ 1440.0, 2168.0 ], [ 1448.0, 2167.0 ] ] } },
{ "type": "Feature", "properties": { "layer": "contours" }, "geometry": { "type": "LineString", "coordinates": [ [ 1439.0, 984.0 ], [ 1440.0, 980.0 ], [ 1445.0, 977.0 ] ] } },
{ "type": "Feature", "properties": { "layer": "contours" }, "geometry": { "type": "LineString", "coordinates": [ [ 1444.0, 970.0 ], [ 1445.0, 975.0 ] ] } },
{ "type": "Feature", "properties": { "layer": "contours" }, "geometry": { "type": "LineString", "coordinates": [ [ 1445.0, 975.0 ], [ 1446.0, 976.0 ] ] } },
{ "type": "Feature", "properties": { "layer": "contours" }, "geometry": { "type": "LineString", "coordinates": [ [ 1445.0, 975.0 ], [ 1445.0, 976.0 ] ] } },
{ "type": "Feature", "properties": { "layer": "contours" }, "geometry": { "type": "LineString", "coordinates": [ [ 1445.0, 976.0 ], [ 1446.0, 976.0 ] ] } },
{ "type": "Feature", "properties": { "layer": "contours" }, "geometry": { "type": "LineString", "coordinates": [ [ 1445.0, 976.0 ], [ 1445.0, 977.0 ] ] } },
{ "type": "Feature", "properties": { "layer": "contours" }, "geometry": { "type": "LineString", "coordinates": [ [ 1445.0, 977.0 ], [ 1446.0, 976.0 ] ] } },
{ "type": "Feature", "properties": { "layer": "contours" }, "geometry": { "type": "LineString", "coordinates": [ [ 1446.0, 976.0 ], [ 1447.0, 977.0 ] ] } },
{ "type": "Feature", "properties": { "layer": "contours" }, "geometry": { "type": "LineString", "coordinates": [ [ 1451.0, 2155.0 ], [ 1453.0, 2154.0 ] ] } },
{ "type": "Feature", "properties": { "layer": "contours" }, "geometry": { "type": "LineString", "coordinates": [ [ 1498.0, 476.0 ], [ 1497.0, 481.0 ], [ 1501.0, 490.0 ] ] } },
{ "type": "Feature", "properties": { "layer": "contours" }, "geometry": { "type": "LineString", "coordinates": [ [ 1513.0, 1576.0 ], [ 1522.0, 1573.0 ] ] } },
{ "type": "Feature", "properties": { "layer": "contours" }, "geometry": { "type": "LineString", "coordinates": [ [ 1518.0, 523.0 ], [ 1519.0, 524.0 ] ] } },
{ "type": "Feature", "properties": { "layer": "contours" }, "geometry": { "type": "LineString", "coordinates": [ [ 1518.0, 525.0 ], [ 1519.0, 524.0 ] ] } },
{ "type": "Feature", "properties": { "layer": "contours" }, "geometry": { "type": "LineString", "coordinates": [ [ 1519.0, 524.0 ], [ 1523.0, 525.0 ] ] } },
{ "type": "Feature", "properties": { "layer": "contours" }, "geometry": { "type": "LineString", "coordinates": [ [ 1528.0, 2265.0 ], [ 1533.0, 2260.0 ], [ 1536.0, 2251.0 ] ] } },
{ "type": "Feature", "properties": { "layer": "contours" }, "geometry": { "type": "LineString", "coordinates": [ [ 1536.0, 2246.0 ], [ 1536.0, 2251.0 ] ] } },
{ "type": "Feature", "properties": { "layer": "contours" }, "geometry": { "type": "LineString", "coordinates": [ [ 1536.0, 2251.0 ], [ 1540.0, 2249.0 ], [ 1543.0, 2243.0 ] ] } },
{ "type": "Feature", "properties": { "layer": "contours" }, "geometry": { "type": "LineString", "coordinates": [ [ 1557.0, 581.0 ], [ 1560.0, 586.0 ] ] } },
{ "type": "Feature", "properties": { "layer": "contours" }, "geometry": { "type": "LineString", "coordinates": [ [ 1557.0, 587.0 ], [ 1559.0, 587.0 ] ] } },
{ "type": "Feature", "properties": { "layer": "contours" }, "geometry": { "type": "LineString", "coordinates": [ [ 1559.0, 587.0 ], [ 1560.0, 587.0 ] ] } },
{ "type": "Feature", "properties": { "layer": "contours" }, "geometry": { "type": "LineString", "coordinates": [ [ 1559.0, 587.0 ], [ 1560.0, 586.0 ] ] } },
{ "type": "Feature", "properties": { "layer": "contours" }, "geometry": { "type": "LineString", "coordinates": [ [ 1560.0, 586.0 ], [ 1561.0, 587.0 ] ] } },
{ "type": "Feature", "properties": { "layer": "contours" }, "geometry": { "type": "LineString", "coordinates": [ [ 1560.0, 586.0 ], [ 1560.0, 587.0 ] ] } },
{ "type": "Feature", "properties": { "layer": "contours" }, "geometry": { "type": "LineString", "coordinates": [ [ 1560.0, 587.0 ], [ 1561.0, 587.0 ] ] } },
{ "type": "Feature", "properties": { "layer": "contours" }, "geometry": { "type": "LineString", "coordinates": [ [ 1561.0, 587.0 ], [ 1569.0, 591.0 ] ] } },
{ "type": "Feature", "properties": { "layer": "contours" }, "geometry": { "type": "LineString", "coordinates": [ [ 1590.0, 785.0 ], [ 1592.0, 786.0 ] ] } },
{ "type": "Feature", "properties": { "layer": "contours" }, "geometry": { "type": "LineString", "coordinates": [ [ 1605.0, 678.0 ], [ 1610.0, 682.0 ] ] } },
{ "type": "Feature", "properties": { "layer": "contours" }, "geometry": { "type": "LineString", "coordinates": [ [ 1617.0, 2215.0 ], [ 1623.0, 2214.0 ], [ 1626.0, 2209.0 ] ] } },
{ "type": "Feature", "properties": { "layer": "contours" }, "geometry": { "type": "LineString", "coordinates": [ [ 1630.0, 715.0 ], [ 1628.0, 716.0 ], [ 1628.0, 718.0 ], [ 1633.0, 723.0 ], [ 1635.0, 731.0 ] ] } },
{ "type": "Feature", "properties": { "layer": "contours" }, "geometry": { "type": "LineString", "coordinates": [ [ 1632.0, 578.0 ], [ 1633.0, 580.0 ], [ 1637.0, 580.0 ], [ 1639.0, 583.0 ] ] } },
{ "type": "Feature", "properties": { "layer": "contours" }, "geometry": { "type": "LineString", "coordinates": [ [ 1651.0, 1837.0 ], [ 1660.0, 1854.0 ] ] } },
{ "type": "Feature", "properties": { "layer": "contours" }, "geometry": { "type": "LineString", "coordinates": [ [ 1685.0, 563.0 ], [ 1691.0, 570.0 ] ] } },
{ "type": "Feature", "properties": { "layer": "contours" }, "geometry": { "type": "LineString", "coordinates": [ [ 1718.0, 1626.0 ], [ 1715.0, 1640.0 ], [ 1718.0, 1643.0 ], [ 1726.0, 1646.0 ] ] } },
{ "type": "Feature", "properties": { "layer": "contours" }, "geometry": { "type": "LineString", "coordinates": [ [ 1728.0, 1658.0 ], [ 1738.0, 1659.0 ] ] } },
{ "type": "Feature", "properties": { "layer": "contours" }, "geometry": { "type": "LineString", "coordinates": [ [ 1738.0, 749.0 ], [ 1739.0, 748.0 ], [ 1745.0, 751.0 ] ] } },
{ "type": "Feature", "properties": { "layer": "contours" }, "geometry": { "type": "LineString", "coordinates": [ [ 1767.0, 560.0 ], [ 1773.0, 554.0 ], [ 1776.0, 554.0 ] ] } },
{ "type": "Feature", "properties": { "layer": "contours" }, "geometry": { "type": "LineString", "coordinates": [ [ 1769.0, 778.0 ], [ 1778.0, 779.0 ] ] } },
{ "type": "Feature", "properties": { "layer": "contours" }, "geometry": { "type": "LineString", "coordinates": [ [ 1772.0, 500.0 ], [ 1774.0, 505.0 ] ] } },
{ "type": "Feature", "properties": { "layer": "contours" }, "geometry": { "type": "LineString", "coordinates": [ [ 1776.0, 554.0 ], [ 1777.0, 554.0 ] ] } },
{ "type": "Feature", "properties": { "layer": "contours" }, "geometry": { "type": "LineString", "coordinates": [ [ 1776.0, 554.0 ], [ 1777.0, 553.0 ] ] } },
{ "type": "Feature", "properties": { "layer": "contours" }, "geometry": { "type": "LineString", "coordinates": [ [ 1777.0, 553.0 ], [ 1777.0, 554.0 ] ] } },
{ "type": "Feature", "properties": { "layer": "contours" }, "geometry": { "type": "LineString", "coordinates": [ [ 1777.0, 553.0 ], [ 1780.0, 549.0 ], [ 1782.0, 549.0 ] ] } },
{ "type": "Feature", "properties": { "layer": "contours" }, "geometry": { "type": "LineString", "coordinates": [ [ 1777.0, 554.0 ], [ 1779.0, 555.0 ], [ 1785.0, 553.0 ] ] } },
{ "type": "Feature", "properties": { "layer": "contours" }, "geometry": { "type": "LineString", "coordinates": [ [ 1784.0, 524.0 ], [ 1786.0, 527.0 ], [ 1786.0, 531.0 ], [ 1791.0, 537.0 ], [ 1791.0, 540.0 ] ] } },
{ "type": "Feature", "properties": { "layer": "contours" }, "geometry": { "type": "LineString", "coordinates": [ [ 1793.0, 1295.0 ], [ 1797.0, 1296.0 ], [ 1800.0, 1301.0 ] ] } },
{ "type": "Feature", "properties": { "layer": "contours" }, "geometry": { "type": "LineString", "coordinates": [ [ 1800.0, 1301.0 ], [ 1801.0, 1302.0 ] ] } },
{ "type": "Feature", "properties": { "layer": "contours" }, "geometry": { "type": "LineString", "coordinates": [ [ 1800.0, 1301.0 ], [ 1800.0, 1302.0 ] ] } },
{ "type": "Feature", "properties": { "layer": "contours" }, "geometry": { "type": "LineString", "coordinates": [ [ 1800.0, 1302.0 ], [ 1801.0, 1302.0 ] ] } },
{ "type": "Feature", "properties": { "layer": "contours" }, "geometry": { "type": "LineString", "coordinates": [ [ 1800.0, 1302.0 ], [ 1800.0, 1303.0 ] ] } },
{ "type": "Feature", "properties": { "layer": "contours" }, "geometry": { "type": "LineString", "coordinates": [ [ 1800.0, 1303.0 ], [ 1800.0, 1307.0 ], [ 1803.0, 1310.0 ], [ 1805.0, 1316.0 ] ] } },
{ "type": "Feature", "properties": { "layer": "contours" }, "geometry": { "type": "LineString", "coordinates": [ [ 1800.0, 1303.0 ], [ 1801.0, 1302.0 ] ] } },
{ "type": "Feature", "properties": { "layer": "contours" }, "geometry": { "type": "LineString", "coordinates": [ [ 1801.0, 1302.0 ], [ 1802.0, 1301.0 ] ] } },
{ "type": "Feature", "properties": { "layer": "contours" }, "geometry": { "type": "LineString", "coordinates": [ [ 1812.0, 867.0 ], [ 1815.0, 866.0 ], [ 1821.0, 871.0 ], [ 1827.0, 880.0 ], [ 1828.0, 887.0 ] ] } },
{ "type": "Feature", "properties": { "layer": "contours" }, "geometry": { "type": "LineString", "coordinates": [ [ 1863.0, 1372.0 ], [ 1871.0, 1387.0 ], [ 1873.0, 1389.0 ], [ 1876.0, 1389.0 ] ] } },
{ "type": "Feature", "properties": { "layer": "contours" }, "geometry": { "type": "LineString", "coordinates": [ [ 1876.0, 1389.0 ], [ 1877.0, 1389.0 ] ] } },
{ "type": "Feature", "properties": { "layer": "contours" }, "geometry": { "type": "LineString", "coordinates": [ [ 1876.0, 1389.0 ], [ 1877.0, 1390.0 ] ] } },
{ "type": "Feature", "properties": { "layer": "contours" }, "geometry": { "type": "LineString", "coordinates": [ [ 1876.0, 1389.0 ], [ 1877.0, 1388.0 ] ] } },
{ "type": "Feature", "properties": { "layer": "contours" }, "geometry": { "type": "LineString", "coordinates": [ [ 1877.0, 1388.0 ], [ 1877.0, 1389.0 ] ] } },
{ "type": "Feature", "properties": { "layer": "contours" }, "geometry": { "type": "LineString", "coordinates": [ [ 1877.0, 1388.0 ], [ 1878.0, 1387.0 ] ] } },
{ "type": "Feature", "properties": { "layer": "contours" }, "geometry": { "type": "LineString", "coordinates": [ [ 1877.0, 1389.0 ], [ 1877.0, 1390.0 ] ] } },
{ "type": "Feature", "properties": { "layer": "contours" }, "geometry": { "type": "LineString", "coordinates": [ [ 1877.0, 1390.0 ], [ 1883.0, 1400.0 ] ] } },
{ "type": "Feature", "properties": { "layer": "contours" }, "geometry": { "type": "LineString", "coordinates": [ [ 1898.0, 1496.0 ], [ 1908.0, 1501.0 ], [ 1911.0, 1508.0 ], [ 1914.0, 1508.0 ], [ 1916.0, 1505.0 ] ] } },
{ "type": "Feature", "properties": { "layer": "contours" }, "geometry": { "type": "LineString", "coordinates": [ [ 1922.0, 1324.0 ], [ 1925.0, 1327.0 ], [ 1938.0, 1327.0 ], [ 1943.0, 1324.0 ] ] } },
{ "type": "Feature", "properties": { "layer": "contours" }, "geometry": { "type": "LineString", "coordinates": [ [ 1938.0, 1498.0 ], [ 1945.0, 1501.0 ] ] } },
{ "type": "Feature", "properties": { "layer": "contours" }, "geometry": { "type": "LineString", "coordinates": [ [ 1951.0, 1543.0 ], [ 1955.0, 1555.0 ] ] } },
{ "type": "Feature", "properties": { "layer": "contours" }, "geometry": { "type": "LineString", "coordinates": [ [ 1958.0, 1562.0 ], [ 1960.0, 1566.0 ] ] } },
{ "type": "Feature", "properties": { "layer": "contours" }, "geometry": { "type": "LineString", "coordinates": [ [ 1964.0, 1576.0 ], [ 1966.0, 1584.0 ] ] } },
{ "type": "Feature", "properties": { "layer": "contours" }, "geometry": { "type": "LineString", "coordinates": [ [ 2052.0, 1757.0 ], [ 2055.0, 1761.0 ], [ 2057.0, 1760.0 ] ] } },
{ "type": "Feature", "properties": { "layer": "contours" }, "geometry": { "type": "LineString", "coordinates": [ [ 2069.0, 1736.0 ], [ 2076.0, 1742.0 ] ] } },
{ "type": "Feature", "properties": { "layer": "contours" }, "geometry": { "type": "LineString", "coordinates": [ [ 2100.0, 1345.0 ], [ 2102.0, 1343.0 ] ] } },
{ "type": "Feature", "properties": { "layer": "contours" }, "geometry": { "type": "LineString", "coordinates": [ [ 2145.0, 1888.0 ], [ 2146.0, 1893.0 ], [ 2149.0, 1897.0 ] ] } },
{ "type": "Feature", "properties": { "layer": "contours" }, "geometry": { "type": "LineString", "coordinates": [ [ 2167.0, 1927.0 ], [ 2171.0, 1931.0 ] ] } },
{ "type": "Feature", "properties": { "layer": "contours" }, "geometry": { "type": "LineString", "coordinates": [ [ 2220.0, 1524.0 ], [ 2222.0, 1526.0 ] ] } },
{ "type": "Feature", "properties": { "layer": "contours" }, "geometry": { "type": "LineString", "coordinates": [ [ 2222.0, 1526.0 ], [ 2223.0, 1526.0 ] ] } },
{ "type": "Feature", "properties": { "layer": "contours" }, "geometry": { "type": "LineString", "coordinates": [ [ 2222.0, 1526.0 ], [ 2223.0, 1527.0 ] ] } },
{ "type": "Feature", "properties": { "layer": "contours" }, "geometry": { "type": "LineString", "coordinates": [ [ 2223.0, 1526.0 ], [ 2224.0, 1526.0 ] ] } },
{ "type": "Feature", "properties": { "layer": "contours" }, "geometry": { "type": "LineString", "coordinates": [ [ 2223.0, 1526.0 ], [ 2223.0, 1527.0 ] ] } },
{ "type": "Feature", "properties": { "layer": "contours" }, "geometry": { "type": "LineString", "coordinates": [ [ 2223.0, 1527.0 ], [ 2223.0, 1529.0 ] ] } },
{ "type": "Feature", "properties": { "layer": "contours" }, "geometry": { "type": "LineString", "coordinates": [ [ 2223.0, 1527.0 ], [ 2224.0, 1526.0 ] ] } },
{ "type": "Feature", "properties": { "layer": "contours" }, "geometry": { "type": "LineString", "coordinates": [ [ 2224.0, 1526.0 ], [ 2231.0, 1522.0 ] ] } },
{ "type": "Feature", "properties": { "layer": "contours" }, "geometry": { "type": "LineString", "coordinates": [ [ 2232.0, 1435.0 ], [ 2238.0, 1437.0 ] ] } },
{ "type": "Feature", "properties": { "layer": "contours" }, "geometry": { "type": "LineString", "coordinates": [ [ 2235.0, 1442.0 ], [ 2238.0, 1441.0 ] ] } },
{ "type": "Feature", "properties": { "layer": "contours" }, "geometry": { "type": "LineString", "coordinates": [ [ 2235.0, 1512.0 ], [ 2242.0, 1510.0 ], [ 2250.0, 1511.0 ] ] } },
{ "type": "Feature", "properties": { "layer": "contours" }, "geometry": { "type": "LineString", "coordinates": [ [ 2238.0, 1437.0 ], [ 2239.0, 1437.0 ] ] } },
{ "type": "Feature", "properties": { "layer": "contours" }, "geometry": { "type": "LineString", "coordinates": [ [ 2238.0, 1437.0 ], [ 2238.0, 1438.0 ] ] } },
{ "type": "Feature", "properties": { "layer": "contours" }, "geometry": { "type": "LineString", "coordinates": [ [ 2238.0, 1438.0 ], [ 2238.0, 1441.0 ] ] } },
{ "type": "Feature", "properties": { "layer": "contours" }, "geometry": { "type": "LineString", "coordinates": [ [ 2238.0, 1438.0 ], [ 2239.0, 1437.0 ] ] } },
{ "type": "Feature", "properties": { "layer": "contours" }, "geometry": { "type": "LineString", "coordinates": [ [ 2238.0, 1441.0 ], [ 2240.0, 1443.0 ] ] } },
{ "type": "Feature", "properties": { "layer": "contours" }, "geometry": { "type": "LineString", "coordinates": [ [ 2238.0, 2009.0 ], [ 2240.0, 2012.0 ] ] } },
{ "type": "Feature", "properties": { "layer": "contours" }, "geometry": { "type": "LineString", "coordinates": [ [ 2239.0, 1437.0 ], [ 2241.0, 1437.0 ] ] } },
{ "type": "Feature", "properties": { "layer": "contours" }, "geometry": { "type": "LineString", "coordinates": [ [ 2239.0, 2017.0 ], [ 2240.0, 2015.0 ] ] } },
{ "type": "Feature", "properties": { "layer": "contours" }, "geometry": { "type": "LineString", "coordinates": [ [ 2240.0, 1443.0 ], [ 2241.0, 1444.0 ] ] } },
{ "type": "Feature", "properties": { "layer": "contours" }, "geometry": { "type": "LineString", "coordinates": [ [ 2240.0, 1443.0 ], [ 2240.0, 1444.0 ] ] } },
{ "type": "Feature", "properties": { "layer": "contours" }, "geometry": { "type": "LineString", "coordinates": [ [ 2240.0, 1444.0 ], [ 2241.0, 1444.0 ] ] } },
{ "type": "Feature", "properties": { "layer": "contours" }, "geometry": { "type": "LineString", "coordinates": [ [ 2240.0, 1444.0 ], [ 2240.0, 1445.0 ] ] } },
{ "type": "Feature", "properties": { "layer": "contours" }, "geometry": { "type": "LineString", "coordinates": [ [ 2240.0, 1445.0 ], [ 2240.0, 1447.0 ] ] } },
{ "type": "Feature", "properties": { "layer": "contours" }, "geometry": { "type": "LineString", "coordinates": [ [ 2240.0, 1445.0 ], [ 2241.0, 1444.0 ] ] } },
{ "type": "Feature", "properties": { "layer": "contours" }, "geometry": { "type": "LineString", "coordinates": [ [ 2240.0, 2012.0 ], [ 2240.0, 2013.0 ] ] } },
{ "type": "Feature", "properties": { "layer": "contours" }, "geometry": { "type": "LineString", "coordinates": [ [ 2240.0, 2012.0 ], [ 2242.0, 2009.0 ] ] } },
{ "type": "Feature", "properties": { "layer": "contours" }, "geometry": { "type": "LineString", "coordinates": [ [ 2240.0, 2013.0 ], [ 2241.0, 2014.0 ] ] } },
{ "type": "Feature", "properties": { "layer": "contours" }, "geometry": { "type": "LineString", "coordinates": [ [ 2240.0, 2013.0 ], [ 2240.0, 2014.0 ] ] } },
{ "type": "Feature", "properties": { "layer": "contours" }, "geometry": { "type": "LineString", "coordinates": [ [ 2240.0, 2014.0 ], [ 2241.0, 2014.0 ] ] } },
{ "type": "Feature", "properties": { "layer": "contours" }, "geometry": { "type": "LineString", "coordinates": [ [ 2240.0, 2014.0 ], [ 2240.0, 2015.0 ] ] } },
{ "type": "Feature", "properties": { "layer": "contours" }, "geometry": { "type": "LineString", "coordinates": [ [ 2240.0, 2015.0 ], [ 2241.0, 2014.0 ] ] } },
{ "type": "Feature", "properties": { "layer": "contours" }, "geometry": { "type": "LineString", "coordinates": [ [ 2241.0, 1444.0 ], [ 2244.0, 1444.0 ] ] } },
{ "type": "Feature", "properties": { "layer": "contours" }, "geometry": { "type": "LineString", "coordinates": [ [ 2241.0, 2014.0 ], [ 2244.0, 2016.0 ], [ 2244.0, 2018.0 ] ] } }
]
}
