{
"type": "FeatureCollection",
"name": "water",
"features": [
{ "type": "Feature", "properties": { "layer": "water" }, "geometry": { "type": "Polygon", "coordinates": [ [ [ 283.0, 153.0 ], [ 269.0, 162.0 ], [ 273.0, 172.0 ], [ 278.0, 177.0 ], [ 290.0, 175.0 ], [ 304.0, 167.0 ], [ 307.0, 163.0 ], [ 305.0, 154.0 ], [ 283.0, 153.0 ] ] ] } },
{ "type": "Feature", "properties": { "layer": "water" }, "geometry": { "type": "Polygon", "coordinates": [ [ [ 1295.0, 165.0 ], [ 1294.0, 170.0 ], [ 1300.0, 195.0 ], [ 1317.0, 224.0 ], [ 1323.0, 227.0 ], [ 1326.0, 224.0 ], [ 1325.0, 218.0 ], [ 1313.0, 203.0 ], [ 1312.0, 197.0 ], [ 1306.0, 192.0 ], [ 1301.0, 166.0 ], [ 1295.0, 165.0 ] ] ] } },
{ "type": "Feature", "properties": { "layer": "water" }, "geometry": { "type": "Polygon", "coordinates": [ [ [ 584.0, 213.0 ], [ 573.0, 217.0 ], [ 565.0, 229.0 ], [ 568.0, 245.0 ], [ 578.0, 258.0 ], [ 590.0, 261.0 ], [ 618.0, 249.0 ], [ 626.0, 242.0 ], [ 625.0, 234.0 ], [ 617.0, 227.0 ], [ 591.0, 214.0 ], [ 587.0, 215.0 ], [ 584.0, 213.0 ] ] ] } },
{ "type": "Feature", "properties": { "layer": "water" }, "geometry": { "type": "Polygon", "coordinates": [ [ [ 937.0, 161.0 ], [ 931.0, 167.0 ], [ 928.0, 177.0 ], [ 928.0, 201.0 ], [ 937.0, 215.0 ], [ 938.0, 224.0 ], [ 941.0, 229.0 ], [ 947.0, 235.0 ], [ 956.0, 239.0 ], [ 955.0, 245.0 ], [ 959.0, 242.0 ], [ 964.0, 245.0 ], [ 965.0, 274.0 ], [ 974.0, 297.0 ], [ 985.0, 313.0 ], [ 987.0, 330.0 ], [ 998.0, 349.0 ], [ 999.0, 361.0 ], [ 1005.0, 367.0 ], [ 1015.0, 368.0 ], [ 1023.0, 362.0 ], [ 1024.0, 358.0 ], [ 1036.0, 346.0 ], [ 1056.0, 334.0 ], [ 1055.0, 318.0 ], [ 1045.0, 307.0 ], [ 1040.0, 306.0 ], [ 1018.0, 336.0 ], [ 1015.0, 337.0 ], [ 1010.0, 333.0 ], [ 1005.0, 322.0 ], [ 1002.0, 301.0 ], [ 987.0, 274.0 ], [ 987.0, 265.0 ], [ 998.0, 253.0 ], [ 1000.0, 248.0 ], [ 999.0, 242.0 ], [ 994.0, 236.0 ], [ 985.0, 232.0 ], [ 972.0, 232.0 ], [ 962.0, 238.0 ], [ 958.0, 236.0 ], [ 960.0, 227.0 ], [ 947.0, 211.0 ], [ 947.0, 204.0 ], [ 944.0, 202.0 ], [ 944.0, 182.0 ], [ 948.0, 175.0 ], [ 948.0, 165.0 ], [ 944.0, 161.0 ], [ 937.0, 161.0 ] ] ] } },
{ "type": "Feature", "properties": { "layer": "water" }, "geometry": { "type": "Polygon", "coordinates": [ [ [ 1694.0, 278.0 ], [ 1678.0, 289.0 ], [ 1674.0, 296.0 ], [ 1677.0, 305.0 ], [ 1689.0, 322.0 ], [ 1708.0, 343.0 ], [ 1724.0, 356.0 ], [ 1735.0, 374.0 ], [ 1748.0, 384.0 ], [ 1752.0, 385.0 ], [ 1772.0, 373.0 ], [ 1772.0, 368.0 ], [ 1751.0, 349.0 ], [ 1751.0, 345.0 ], [ 1741.0, 336.0 ], [ 1730.0, 318.0 ], [ 1705.0, 286.0 ], [ 1694.0, 278.0 ] ] ] } },
{ "type": "Feature", "properties": { "layer": "water" }, "geometry": { "type": "Polygon", "coordinates": [ [ [ 866.0, 301.0 ], [ 845.0, 311.0 ], [ 840.0, 325.0 ], [ 836.0, 353.0 ], [ 837.0, 370.0 ], [ 841.0, 388.0 ], [ 849.0, 399.0 ], [ 859.0, 398.0 ], [ 895.0, 378.0 ], [ 901.0, 373.0 ], [ 904.0, 363.0 ], [ 903.0, 350.0 ], [ 899.0, 340.0 ], [ 879.0, 329.0 ], [ 877.0, 325.0 ], [ 877.0, 306.0 ], [ 874.0, 301.0 ], [ 866.0, 301.0 ] ] ] } },
{ "type": "Feature", "properties": { "layer": "water" }, "geometry": { "type": "Polygon", "coordinates": [ [ [ 254.0, 386.0 ], [ 242.0, 391.0 ], [ 233.0, 398.0 ], [ 230.0, 412.0 ], [ 243.0, 434.0 ], [ 255.0, 443.0 ], [ 264.0, 441.0 ], [ 266.0, 438.0 ], [ 301.0, 420.0 ], [ 313.0, 411.0 ], [ 313.0, 403.0 ], [ 306.0, 394.0 ], [ 298.0, 394.0 ], [ 282.0, 402.0 ], [ 271.0, 388.0 ], [ 254.0, 386.0 ] ] ] } },
{ "type": "Feature", "properties": { "layer": "water" }, "geometry": { "type": "Polygon", "coordinates": [ [ [ 1060.0, 493.0 ], [ 1050.0, 496.0 ], [ 1041.0, 504.0 ], [ 1042.0, 511.0 ], [ 1049.0, 523.0 ], [ 1058.0, 530.0 ], [ 1085.0, 525.0 ], [ 1091.0, 516.0 ], [ 1091.0, 507.0 ], [ 1088.0, 501.0 ], [ 1081.0, 495.0 ], [ 1060.0, 493.0 ] ] ] } },
{ "type": "Feature", "properties": { "layer": "water" }, "geometry": { "type": "Polygon", "coordinates": [ [ [ 1730.0, 449.0 ], [ 1679.0, 467.0 ], [ 1664.0, 475.0 ], [ 1658.0, 483.0 ], [ 1659.0, 490.0 ], [ 1683.0, 550.0 ], [ 1694.0, 569.0 ], [ 1707.0, 569.0 ], [ 1716.0, 566.0 ], [ 1735.0, 567.0 ], [ 1766.0, 549.0 ], [ 1772.0, 549.0 ], [ 1781.0, 541.0 ], [ 1776.0, 521.0 ], [ 1754.0, 482.0 ], [ 1746.0, 460.0 ], [ 1739.0, 452.0 ], [ 1730.0, 449.0 ] ] ] } },
{ "type": "Feature", "properties": { "layer": "water" }, "geometry": { "type": "Polygon", "coordinates": [ [ [ 251.0, 553.0 ], [ 236.0, 564.0 ], [ 235.0, 570.0 ], [ 248.0, 596.0 ], [ 254.0, 600.0 ], [ 270.0, 592.0 ], [ 271.0, 584.0 ], [ 264.0, 573.0 ], [ 258.0, 555.0 ], [ 251.0, 553.0 ] ] ] } },
{ "type": "Feature", "properties": { "layer": "water" }, "geometry": { "type": "Polygon", "coordinates": [ [ [ 301.0, 563.0 ], [ 289.0, 568.0 ], [ 284.0, 574.0 ], [ 283.0, 581.0 ], [ 288.0, 594.0 ], [ 302.0, 614.0 ], [ 304.0, 620.0 ], [ 302.0, 635.0 ], [ 305.0, 638.0 ], [ 315.0, 638.0 ], [ 325.0, 634.0 ], [ 334.0, 627.0 ], [ 335.0, 612.0 ], [ 312.0, 569.0 ], [ 307.0, 564.0 ], [ 301.0, 563.0 ] ] ] } },
{ "type": "Feature", "properties": { "layer": "water" }, "geometry": { "type": "Polygon", "coordinates": [ [ [ 1603.0, 626.0 ], [ 1587.0, 629.0 ], [ 1587.0, 637.0 ], [ 1597.0, 640.0 ], [ 1605.0, 657.0 ], [ 1613.0, 657.0 ], [ 1614.0, 652.0 ], [ 1607.0, 629.0 ], [ 1603.0, 626.0 ] ] ] } },
{ "type": "Feature", "properties": { "layer": "water" }, "geometry": { "type": "Polygon", "coordinates": [ [ [ 1574.0, 660.0 ], [ 1565.0, 663.0 ], [ 1543.0, 682.0 ], [ 1528.0, 700.0 ], [ 1526.0, 712.0 ], [ 1550.0, 759.0 ], [ 1554.0, 763.0 ], [ 1586.0, 776.0 ], [ 1604.0, 788.0 ], [ 1610.0, 784.0 ], [ 1616.0, 772.0 ], [ 1627.0, 759.0 ], [ 1632.0, 745.0 ], [ 1632.0, 738.0 ], [ 1591.0, 668.0 ], [ 1583.0, 661.0 ], [ 1574.0, 660.0 ] ] ] } },
{ "type": "Feature", "properties": { "layer": "water" }, "geometry": { "type": "Polygon", "coordinates": [ [ [ 150.0, 718.0 ], [ 145.0, 724.0 ], [ 144.0, 772.0 ], [ 145.0, 777.0 ], [ 155.0, 791.0 ], [ 159.0, 795.0 ], [ 164.0, 796.0 ], [ 185.0, 784.0 ], [ 193.0, 773.0 ], [ 193.0, 767.0 ], [ 188.0, 756.0 ], [ 165.0, 723.0 ], [ 158.0, 718.0 ], [ 150.0, 718.0 ] ] ] } },
{ "type": "Feature", "properties": { "layer": "water" }, "geometry": { "type": "Polygon", "coordinates": [ [ [ 158.0, 530.0 ], [ 156.0, 534.0 ], [ 166.0, 542.0 ], [ 180.0, 575.0 ], [ 180.0, 585.0 ], [ 174.0, 606.0 ], [ 171.0, 632.0 ], [ 179.0, 652.0 ], [ 187.0, 662.0 ], [ 196.0, 666.0 ], [ 230.0, 666.0 ], [ 254.0, 663.0 ], [ 260.0, 656.0 ], [ 274.0, 660.0 ], [ 282.0, 667.0 ], [ 286.0, 678.0 ], [ 307.0, 695.0 ], [ 311.0, 705.0 ], [ 312.0, 734.0 ], [ 317.0, 740.0 ], [ 330.0, 746.0 ], [ 361.0, 750.0 ], [ 373.0, 754.0 ], [ 385.0, 767.0 ], [ 400.0, 773.0 ], [ 430.0, 780.0 ], [ 443.0, 791.0 ], [ 445.0, 797.0 ], [ 451.0, 796.0 ], [ 448.0, 787.0 ], [ 438.0, 776.0 ], [ 395.0, 764.0 ], [ 376.0, 747.0 ], [ 363.0, 743.0 ], [ 338.0, 741.0 ], [ 320.0, 734.0 ], [ 318.0, 732.0 ], [ 318.0, 705.0 ], [ 314.0, 693.0 ], [ 295.0, 679.0 ], [ 285.0, 660.0 ], [ 276.0, 653.0 ], [ 267.0, 650.0 ], [ 260.0, 650.0 ], [ 257.0, 653.0 ], [ 251.0, 651.0 ], [ 244.0, 658.0 ], [ 215.0, 660.0 ], [ 201.0, 660.0 ], [ 190.0, 656.0 ], [ 183.0, 647.0 ], [ 179.0, 634.0 ], [ 181.0, 606.0 ], [ 188.0, 586.0 ], [ 186.0, 569.0 ], [ 172.0, 542.0 ], [ 158.0, 530.0 ] ] ] } },
{ "type": "Feature", "properties": { "layer": "water" }, "geometry": { "type": "Polygon", "coordinates": [ [ [ 1327.0, 241.0 ], [ 1331.0, 270.0 ], [ 1330.0, 276.0 ], [ 1334.0, 291.0 ], [ 1336.0, 292.0 ], [ 1336.0, 301.0 ], [ 1343.0, 311.0 ], [ 1360.0, 349.0 ], [ 1372.0, 369.0 ], [ 1372.0, 374.0 ], [ 1404.0, 405.0 ], [ 1430.0, 417.0 ], [ 1449.0, 435.0 ], [ 1451.0, 452.0 ], [ 1467.0, 473.0 ], [ 1469.0, 482.0 ], [ 1478.0, 498.0 ], [ 1499.0, 522.0 ], [ 1519.0, 552.0 ], [ 1530.0, 563.0 ], [ 1549.0, 574.0 ], [ 1589.0, 588.0 ], [ 1606.0, 591.0 ], [ 1626.0, 591.0 ], [ 1636.0, 597.0 ], [ 1637.0, 638.0 ], [ 1645.0, 658.0 ], [ 1663.0, 690.0 ], [ 1671.0, 697.0 ], [ 1684.0, 715.0 ], [ 1703.0, 727.0 ], [ 1719.0, 743.0 ], [ 1728.0, 755.0 ], [ 1735.0, 771.0 ], [ 1742.0, 779.0 ], [ 1742.0, 783.0 ], [ 1749.0, 785.0 ], [ 1759.0, 794.0 ], [ 1768.0, 798.0 ], [ 1786.0, 814.0 ], [ 1794.0, 829.0 ], [ 1807.0, 846.0 ], [ 1825.0, 860.0 ], [ 1838.0, 885.0 ], [ 1844.0, 890.0 ], [ 1848.0, 890.0 ], [ 1849.0, 886.0 ], [ 1842.0, 880.0 ], [ 1832.0, 858.0 ], [ 1805.0, 832.0 ], [ 1788.0, 805.0 ], [ 1778.0, 795.0 ], [ 1760.0, 785.0 ], [ 1743.0, 771.0 ], [ 1736.0, 755.0 ], [ 1718.0, 732.0 ], [ 1701.0, 715.0 ], [ 1688.0, 709.0 ], [ 1664.0, 679.0 ], [ 1654.0, 662.0 ], [ 1645.0, 640.0 ], [ 1643.0, 631.0 ], [ 1645.0, 596.0 ], [ 1643.0, 592.0 ], [ 1631.0, 583.0 ], [ 1595.0, 581.0 ], [ 1561.0, 570.0 ], [ 1536.0, 558.0 ], [ 1513.0, 532.0 ], [ 1507.0, 521.0 ], [ 1481.0, 490.0 ], [ 1470.0, 462.0 ], [ 1458.0, 448.0 ], [ 1458.0, 434.0 ], [ 1436.0, 414.0 ], [ 1395.0, 388.0 ], [ 1383.0, 377.0 ], [ 1341.0, 297.0 ], [ 1335.0, 246.0 ], [ 1333.0, 241.0 ], [ 1327.0, 241.0 ] ] ] } },
{ "type": "Feature", "properties": { "layer": "water" }, "geometry": { "type": "Polygon", "coordinates": [ [ [ 1315.0, 849.0 ], [ 1299.0, 855.0 ], [ 1291.0, 865.0 ], [ 1291.0, 871.0 ], [ 1296.0, 881.0 ], [ 1308.0, 892.0 ], [ 1322.0, 889.0 ], [ 1336.0, 876.0 ], [ 1336.0, 868.0 ], [ 1329.0, 854.0 ], [ 1323.0, 849.0 ], [ 1315.0, 849.0 ] ] ] } },
{ "type": "Feature", "properties": { "layer": "water" }, "geometry": { "type": "Polygon", "coordinates": [ [ [ 533.0, 873.0 ], [ 533.0, 878.0 ], [ 553.0, 896.0 ], [ 559.0, 908.0 ], [ 559.0, 913.0 ], [ 567.0, 914.0 ], [ 568.0, 912.0 ], [ 559.0, 892.0 ], [ 547.0, 881.0 ], [ 533.0, 873.0 ] ] ] } },
{ "type": "Feature", "properties": { "layer": "water" }, "geometry": { "type": "Polygon", "coordinates": [ [ [ 1024.0, 960.0 ], [ 1001.0, 966.0 ], [ 997.0, 974.0 ], [ 999.0, 984.0 ], [ 1020.0, 1003.0 ], [ 1052.0, 1002.0 ], [ 1063.0, 1005.0 ], [ 1066.0, 1000.0 ], [ 1047.0, 974.0 ], [ 1045.0, 968.0 ], [ 1035.0, 961.0 ], [ 1024.0, 960.0 ] ] ] } },
{ "type": "Feature", "properties": { "layer": "water" }, "geometry": { "type": "Polygon", "coordinates": [ [ [ 1195.0, 970.0 ], [ 1172.0, 982.0 ], [ 1160.0, 994.0 ], [ 1160.0, 1001.0 ], [ 1164.0, 1006.0 ], [ 1164.0, 1010.0 ], [ 1174.0, 1028.0 ], [ 1180.0, 1034.0 ], [ 1193.0, 1033.0 ], [ 1199.0, 1028.0 ], [ 1199.0, 1023.0 ], [ 1193.0, 1013.0 ], [ 1193.0, 1007.0 ], [ 1211.0, 993.0 ], [ 1210.0, 984.0 ], [ 1205.0, 975.0 ], [ 1200.0, 970.0 ], [ 1195.0, 970.0 ] ] ] } },
{ "type": "Feature", "properties": { "layer": "water" }, "geometry": { "type": "Polygon", "coordinates": [ [ [ 1151.0, 1004.0 ], [ 1143.0, 1007.0 ], [ 1142.0, 1012.0 ], [ 1130.0, 1011.0 ], [ 1115.0, 1019.0 ], [ 1109.0, 1025.0 ], [ 1109.0, 1033.0 ], [ 1113.0, 1041.0 ], [ 1112.0, 1046.0 ], [ 1117.0, 1053.0 ], [ 1123.0, 1053.0 ], [ 1133.0, 1041.0 ], [ 1145.0, 1033.0 ], [ 1145.0, 1023.0 ], [ 1150.0, 1023.0 ], [ 1154.0, 1030.0 ], [ 1161.0, 1028.0 ], [ 1155.0, 1008.0 ], [ 1151.0, 1004.0 ] ] ] } },
{ "type": "Feature", "properties": { "layer": "water" }, "geometry": { "type": "Polygon", "coordinates": [ [ [ 2285.0, 1070.0 ], [ 2276.0, 1090.0 ], [ 2276.0, 1101.0 ], [ 2284.0, 1118.0 ], [ 2286.0, 1128.0 ], [ 2292.0, 1130.0 ], [ 2292.0, 1071.0 ], [ 2285.0, 1070.0 ] ] ] } },
{ "type": "Feature", "properties": { "layer": "water" }, "geometry": { "type": "Polygon", "coordinates": [ [ [ 2090.0, 1153.0 ], [ 2063.0, 1163.0 ], [ 2060.0, 1167.0 ], [ 2061.0, 1174.0 ], [ 2064.0, 1176.0 ], [ 2079.0, 1175.0 ], [ 2102.0, 1167.0 ], [ 2105.0, 1164.0 ], [ 2106.0, 1157.0 ], [ 2104.0, 1154.0 ], [ 2090.0, 1153.0 ] ] ] } },
{ "type": "Feature", "properties": { "layer": "water" }, "geometry": { "type": "Polygon", "coordinates": [ [ [ 563.0, 938.0 ], [ 564.0, 952.0 ], [ 576.0, 964.0 ], [ 592.0, 967.0 ], [ 607.0, 976.0 ], [ 629.0, 985.0 ], [ 688.0, 984.0 ], [ 700.0, 993.0 ], [ 703.0, 1001.0 ], [ 712.0, 1010.0 ], [ 741.0, 1024.0 ], [ 751.0, 1033.0 ], [ 764.0, 1065.0 ], [ 765.0, 1085.0 ], [ 759.0, 1102.0 ], [ 746.0, 1115.0 ], [ 743.0, 1125.0 ], [ 741.0, 1154.0 ], [ 729.0, 1178.0 ], [ 730.0, 1181.0 ], [ 736.0, 1181.0 ], [ 748.0, 1158.0 ], [ 750.0, 1123.0 ], [ 764.0, 1106.0 ], [ 772.0, 1084.0 ], [ 772.0, 1066.0 ], [ 760.0, 1036.0 ], [ 741.0, 1017.0 ], [ 716.0, 1005.0 ], [ 708.0, 997.0 ], [ 700.0, 984.0 ], [ 691.0, 977.0 ], [ 628.0, 977.0 ], [ 594.0, 961.0 ], [ 574.0, 956.0 ], [ 571.0, 953.0 ], [ 568.0, 939.0 ], [ 563.0, 938.0 ] ] ] } },
{ "type": "Feature", "properties": { "layer": "water" }, "geometry": { "type": "Polygon", "coordinates": [ [ [ 687.0, 1139.0 ], [ 672.0, 1144.0 ], [ 634.0, 1168.0 ], [ 621.0, 1180.0 ], [ 620.0, 1188.0 ], [ 627.0, 1193.0 ], [ 641.0, 1183.0 ], [ 651.0, 1179.0 ], [ 661.0, 1179.0 ], [ 670.0, 1182.0 ], [ 682.0, 1180.0 ], [ 695.0, 1166.0 ], [ 701.0, 1154.0 ], [ 701.0, 1144.0 ], [ 695.0, 1139.0 ], [ 687.0, 1139.0 ] ] ] } },
{ "type": "Feature", "properties": { "layer": "water" }, "geometry": { "type": "Polygon", "coordinates": [ [ [ 2234.0, 1174.0 ], [ 2227.0, 1180.0 ], [ 2227.0, 1193.0 ], [ 2230.0, 1196.0 ], [ 2239.0, 1195.0 ], [ 2243.0, 1187.0 ], [ 2242.0, 1177.0 ], [ 2239.0, 1174.0 ], [ 2234.0, 1174.0 ] ] ] } },
{ "type": "Feature", "properties": { "layer": "water" }, "geometry": { "type": "Polygon", "coordinates": [ [ [ 2288.0, 1140.0 ], [ 2281.0, 1158.0 ], [ 2264.0, 1181.0 ], [ 2263.0, 1189.0 ], [ 2292.0, 1205.0 ], [ 2293.0, 1141.0 ], [ 2288.0, 1140.0 ] ] ] } },
{ "type": "Feature", "properties": { "layer": "water" }, "geometry": { "type": "Polygon", "coordinates": [ [ [ 799.0, 1194.0 ], [ 790.0, 1199.0 ], [ 791.0, 1204.0 ], [ 809.0, 1204.0 ], [ 821.0, 1210.0 ], [ 829.0, 1218.0 ], [ 833.0, 1217.0 ], [ 820.0, 1201.0 ], [ 814.0, 1197.0 ], [ 809.0, 1198.0 ], [ 799.0, 1194.0 ] ] ] } },
{ "type": "Feature", "properties": { "layer": "water" }, "geometry": { "type": "Polygon", "coordinates": [ [ [ 2258.0, 1199.0 ], [ 2255.0, 1201.0 ], [ 2252.0, 1209.0 ], [ 2252.0, 1225.0 ], [ 2249.0, 1235.0 ], [ 2247.0, 1260.0 ], [ 2251.0, 1273.0 ], [ 2257.0, 1278.0 ], [ 2265.0, 1279.0 ], [ 2275.0, 1276.0 ], [ 2283.0, 1268.0 ], [ 2293.0, 1252.0 ], [ 2293.0, 1215.0 ], [ 2272.0, 1203.0 ], [ 2258.0, 1199.0 ] ] ] } },
{ "type": "Feature", "properties": { "layer": "water" }, "geometry": { "type": "Polygon", "coordinates": [ [ [ 475.0, 1220.0 ], [ 434.0, 1231.0 ], [ 421.0, 1242.0 ], [ 420.0, 1262.0 ], [ 426.0, 1271.0 ], [ 429.0, 1287.0 ], [ 433.0, 1295.0 ], [ 443.0, 1305.0 ], [ 451.0, 1309.0 ], [ 457.0, 1308.0 ], [ 467.0, 1300.0 ], [ 477.0, 1296.0 ], [ 503.0, 1263.0 ], [ 524.0, 1252.0 ], [ 524.0, 1247.0 ], [ 516.0, 1242.0 ], [ 502.0, 1225.0 ], [ 490.0, 1220.0 ], [ 475.0, 1220.0 ] ] ] } },
{ "type": "Feature", "properties": { "layer": "water" }, "geometry": { "type": "Polygon", "coordinates": [ [ [ 2218.0, 1331.0 ], [ 2214.0, 1336.0 ], [ 2211.0, 1346.0 ], [ 2211.0, 1358.0 ], [ 2214.0, 1362.0 ], [ 2220.0, 1362.0 ], [ 2223.0, 1359.0 ], [ 2227.0, 1347.0 ], [ 2228.0, 1334.0 ], [ 2224.0, 1331.0 ], [ 2218.0, 1331.0 ] ] ] } },
{ "type": "Feature", "properties": { "layer": "water" }, "geometry": { "type": "Polygon", "coordinates": [ [ [ 2158.0, 1359.0 ], [ 2153.0, 1365.0 ], [ 2153.0, 1378.0 ], [ 2162.0, 1377.0 ], [ 2167.0, 1370.0 ], [ 2167.0, 1363.0 ], [ 2163.0, 1359.0 ], [ 2158.0, 1359.0 ] ] ] } },
{ "type": "Feature", "properties": { "layer": "water" }, "geometry": { "type": "Polygon", "coordinates": [ [ [ 2155.0, 1395.0 ], [ 2149.0, 1400.0 ], [ 2148.0, 1408.0 ], [ 2153.0, 1415.0 ], [ 2162.0, 1416.0 ], [ 2167.0, 1412.0 ], [ 2167.0, 1409.0 ], [ 2162.0, 1396.0 ], [ 2155.0, 1395.0 ] ] ] } },
{ "type": "Feature", "properties": { "layer": "water" }, "geometry": { "type": "Polygon", "coordinates": [ [ [ 334.0, 1446.0 ], [ 324.0, 1452.0 ], [ 323.0, 1461.0 ], [ 334.0, 1474.0 ], [ 335.0, 1485.0 ], [ 338.0, 1490.0 ], [ 346.0, 1490.0 ], [ 359.0, 1484.0 ], [ 370.0, 1475.0 ], [ 365.0, 1464.0 ], [ 352.0, 1450.0 ], [ 343.0, 1446.0 ], [ 334.0, 1446.0 ] ] ] } },
{ "type": "Feature", "properties": { "layer": "water" }, "geometry": { "type": "Polygon", "coordinates": [ [ [ 964.0, 1353.0 ], [ 966.0, 1369.0 ], [ 969.0, 1371.0 ], [ 976.0, 1387.0 ], [ 986.0, 1397.0 ], [ 991.0, 1411.0 ], [ 996.0, 1444.0 ], [ 1000.0, 1456.0 ], [ 1006.0, 1465.0 ], [ 1006.0, 1468.0 ], [ 995.0, 1475.0 ], [ 988.0, 1484.0 ], [ 986.0, 1489.0 ], [ 990.0, 1490.0 ], [ 996.0, 1481.0 ], [ 1013.0, 1471.0 ], [ 1016.0, 1465.0 ], [ 1009.0, 1460.0 ], [ 1003.0, 1444.0 ], [ 996.0, 1404.0 ], [ 989.0, 1392.0 ], [ 982.0, 1386.0 ], [ 970.0, 1354.0 ], [ 964.0, 1353.0 ] ] ] } },
{ "type": "Feature", "properties": { "layer": "water" }, "geometry": { "type": "Polygon", "coordinates": [ [ [ 312.0, 1501.0 ], [ 299.0, 1507.0 ], [ 300.0, 1516.0 ], [ 312.0, 1515.0 ], [ 321.0, 1510.0 ], [ 321.0, 1502.0 ], [ 312.0, 1501.0 ] ] ] } },
{ "type": "Feature", "properties": { "layer": "water" }, "geometry": { "type": "Polygon", "coordinates": [ [ [ 819.0, 1506.0 ], [ 814.0, 1510.0 ], [ 815.0, 1517.0 ], [ 823.0, 1521.0 ], [ 829.0, 1531.0 ], [ 838.0, 1530.0 ], [ 841.0, 1527.0 ], [ 840.0, 1521.0 ], [ 830.0, 1516.0 ], [ 829.0, 1510.0 ], [ 825.0, 1506.0 ], [ 819.0, 1506.0 ] ] ] } },
{ "type": "Feature", "properties": { "layer": "water" }, "geometry": { "type": "Polygon", "coordinates": [ [ [ 442.0, 1511.0 ], [ 439.0, 1516.0 ], [ 442.0, 1525.0 ], [ 449.0, 1533.0 ], [ 452.0, 1545.0 ], [ 459.0, 1546.0 ], [ 461.0, 1544.0 ], [ 461.0, 1535.0 ], [ 455.0, 1531.0 ], [ 456.0, 1522.0 ], [ 449.0, 1511.0 ], [ 442.0, 1511.0 ] ] ] } },
{ "type": "Feature", "properties": { "layer": "water" }, "geometry": { "type": "Polygon", "coordinates": [ [ [ 1863.0, 923.0 ], [ 1860.0, 935.0 ], [ 1852.0, 948.0 ], [ 1834.0, 965.0 ], [ 1822.0, 990.0 ], [ 1813.0, 999.0 ], [ 1810.0, 1008.0 ], [ 1800.0, 1017.0 ], [ 1792.0, 1031.0 ], [ 1790.0, 1038.0 ], [ 1794.0, 1050.0 ], [ 1792.0, 1070.0 ], [ 1779.0, 1098.0 ], [ 1775.0, 1128.0 ], [ 1766.0, 1141.0 ], [ 1765.0, 1149.0 ], [ 1751.0, 1178.0 ], [ 1747.0, 1192.0 ], [ 1747.0, 1205.0 ], [ 1760.0, 1243.0 ], [ 1765.0, 1250.0 ], [ 1767.0, 1265.0 ], [ 1770.0, 1267.0 ], [ 1774.0, 1286.0 ], [ 1797.0, 1326.0 ], [ 1800.0, 1341.0 ], [ 1809.0, 1352.0 ], [ 1820.0, 1356.0 ], [ 1830.0, 1366.0 ], [ 1857.0, 1413.0 ], [ 1864.0, 1439.0 ], [ 1872.0, 1448.0 ], [ 1873.0, 1453.0 ], [ 1889.0, 1466.0 ], [ 1910.0, 1495.0 ], [ 1932.0, 1517.0 ], [ 1952.0, 1532.0 ], [ 1962.0, 1558.0 ], [ 1968.0, 1560.0 ], [ 1968.0, 1553.0 ], [ 1960.0, 1532.0 ], [ 1920.0, 1496.0 ], [ 1899.0, 1467.0 ], [ 1874.0, 1441.0 ], [ 1869.0, 1432.0 ], [ 1863.0, 1408.0 ], [ 1832.0, 1356.0 ], [ 1807.0, 1339.0 ], [ 1802.0, 1320.0 ], [ 1781.0, 1283.0 ], [ 1777.0, 1263.0 ], [ 1768.0, 1242.0 ], [ 1768.0, 1236.0 ], [ 1763.0, 1231.0 ], [ 1755.0, 1207.0 ], [ 1763.0, 1176.0 ], [ 1767.0, 1173.0 ], [ 1767.0, 1163.0 ], [ 1774.0, 1145.0 ], [ 1778.0, 1142.0 ], [ 1778.0, 1135.0 ], [ 1782.0, 1126.0 ], [ 1785.0, 1124.0 ], [ 1792.0, 1088.0 ], [ 1800.0, 1071.0 ], [ 1808.0, 1019.0 ], [ 1831.0, 988.0 ], [ 1832.0, 981.0 ], [ 1836.0, 978.0 ], [ 1838.0, 972.0 ], [ 1857.0, 953.0 ], [ 1862.0, 942.0 ], [ 1867.0, 937.0 ], [ 1868.0, 924.0 ], [ 1863.0, 923.0 ] ] ] } },
{ "type": "Feature", "properties": { "layer": "water" }, "geometry": { "type": "Polygon", "coordinates": [ [ [ 1483.0, 1484.0 ], [ 1479.0, 1487.0 ], [ 1472.0, 1500.0 ], [ 1466.0, 1517.0 ], [ 1466.0, 1528.0 ], [ 1487.0, 1555.0 ], [ 1494.0, 1570.0 ], [ 1496.0, 1572.0 ], [ 1505.0, 1572.0 ], [ 1521.0, 1567.0 ], [ 1536.0, 1559.0 ], [ 1541.0, 1552.0 ], [ 1540.0, 1543.0 ], [ 1523.0, 1507.0 ], [ 1506.0, 1490.0 ], [ 1490.0, 1484.0 ], [ 1483.0, 1484.0 ] ] ] } },
{ "type": "Feature", "properties": { "layer": "water" }, "geometry": { "type": "Polygon", "coordinates": [ [ [ 171.0, 1568.0 ], [ 166.0, 1575.0 ], [ 167.0, 1586.0 ], [ 177.0, 1594.0 ], [ 183.0, 1594.0 ], [ 191.0, 1585.0 ], [ 190.0, 1579.0 ], [ 177.0, 1568.0 ], [ 171.0, 1568.0 ] ] ] } },
{ "type": "Feature", "properties": { "layer": "water" }, "geometry": { "type": "Polygon", "coordinates": [ [ [ 1317.0, 1596.0 ], [ 1312.0, 1601.0 ], [ 1313.0, 1610.0 ], [ 1325.0, 1608.0 ], [ 1334.0, 1618.0 ], [ 1341.0, 1616.0 ], [ 1338.0, 1604.0 ], [ 1335.0, 1601.0 ], [ 1325.0, 1596.0 ], [ 1317.0, 1596.0 ] ] ] } },
{ "type": "Feature", "properties": { "layer": "water" }, "geometry": { "type": "Polygon", "coordinates": [ [ [ 964.0, 1588.0 ], [ 952.0, 1610.0 ], [ 940.0, 1625.0 ], [ 940.0, 1631.0 ], [ 947.0, 1626.0 ], [ 963.0, 1603.0 ], [ 969.0, 1591.0 ], [ 968.0, 1588.0 ], [ 964.0, 1588.0 ] ] ] } },
{ "type": "Feature", "properties": { "layer": "water" }, "geometry": { "type": "Polygon", "coordinates": [ [ [ 1502.0, 1583.0 ], [ 1495.0, 1588.0 ], [ 1495.0, 1596.0 ], [ 1506.0, 1610.0 ], [ 1508.0, 1629.0 ], [ 1513.0, 1633.0 ], [ 1519.0, 1628.0 ], [ 1514.0, 1588.0 ], [ 1510.0, 1583.0 ], [ 1502.0, 1583.0 ] ] ] } },
{ "type": "Feature", "properties": { "layer": "water" }, "geometry": { "type": "Polygon", "coordinates": [ [ [ 1574.0, 1625.0 ], [ 1562.0, 1638.0 ], [ 1566.0, 1644.0 ], [ 1573.0, 1642.0 ], [ 1581.0, 1634.0 ], [ 1580.0, 1627.0 ], [ 1574.0, 1625.0 ] ] ] } },
{ "type": "Feature", "properties": { "layer": "water" }, "geometry": { "type": "Polygon", "coordinates": [ [ [ 1524.0, 1638.0 ], [ 1515.0, 1648.0 ], [ 1521.0, 1655.0 ], [ 1521.0, 1660.0 ], [ 1514.0, 1670.0 ], [ 1516.0, 1679.0 ], [ 1525.0, 1677.0 ], [ 1544.0, 1659.0 ], [ 1544.0, 1652.0 ], [ 1538.0, 1642.0 ], [ 1530.0, 1638.0 ], [ 1524.0, 1638.0 ] ] ] } },
{ "type": "Feature", "properties": { "layer": "water" }, "geometry": { "type": "Polygon", "coordinates": [ [ [ 1108.0, 1678.0 ], [ 1091.0, 1686.0 ], [ 1090.0, 1693.0 ], [ 1093.0, 1701.0 ], [ 1103.0, 1708.0 ], [ 1114.0, 1725.0 ], [ 1118.0, 1729.0 ], [ 1125.0, 1729.0 ], [ 1131.0, 1724.0 ], [ 1129.0, 1711.0 ], [ 1124.0, 1698.0 ], [ 1121.0, 1696.0 ], [ 1116.0, 1680.0 ], [ 1108.0, 1678.0 ] ] ] } },
{ "type": "Feature", "properties": { "layer": "water" }, "geometry": { "type": "Polygon", "coordinates": [ [ [ 612.0, 1711.0 ], [ 606.0, 1716.0 ], [ 606.0, 1726.0 ], [ 610.0, 1732.0 ], [ 618.0, 1734.0 ], [ 629.0, 1725.0 ], [ 629.0, 1718.0 ], [ 622.0, 1711.0 ], [ 612.0, 1711.0 ] ] ] } },
{ "type": "Feature", "properties": { "layer": "water" }, "geometry": { "type": "Polygon", "coordinates": [ [ [ 748.0, 1731.0 ], [ 739.0, 1734.0 ], [ 737.0, 1739.0 ], [ 745.0, 1746.0 ], [ 746.0, 1751.0 ], [ 756.0, 1753.0 ], [ 760.0, 1746.0 ], [ 755.0, 1740.0 ], [ 754.0, 1733.0 ], [ 748.0, 1731.0 ] ] ] } },
{ "type": "Feature", "properties": { "layer": "water" }, "geometry": { "type": "Polygon", "coordinates": [ [ [ 1499.0, 1741.0 ], [ 1498.0, 1751.0 ], [ 1504.0, 1772.0 ], [ 1495.0, 1778.0 ], [ 1497.0, 1787.0 ], [ 1503.0, 1790.0 ], [ 1513.0, 1790.0 ], [ 1524.0, 1786.0 ], [ 1525.0, 1779.0 ], [ 1514.0, 1752.0 ], [ 1505.0, 1741.0 ], [ 1499.0, 1741.0 ] ] ] } },
{ "type": "Feature", "properties": { "layer": "water" }, "geometry": { "type": "Polygon", "coordinates": [ [ [ 659.0, 1769.0 ], [ 650.0, 1777.0 ], [ 650.0, 1781.0 ], [ 653.0, 1784.0 ], [ 662.0, 1784.0 ], [ 673.0, 1793.0 ], [ 682.0, 1788.0 ], [ 684.0, 1778.0 ], [ 678.0, 1770.0 ], [ 659.0, 1769.0 ] ] ] } },
{ "type": "Feature", "properties": { "layer": "water" }, "geometry": { "type": "Polygon", "coordinates": [ [ [ 1441.0, 1777.0 ], [ 1433.0, 1784.0 ], [ 1435.0, 1796.0 ], [ 1445.0, 1804.0 ], [ 1452.0, 1804.0 ], [ 1457.0, 1796.0 ], [ 1455.0, 1794.0 ], [ 1455.0, 1780.0 ], [ 1450.0, 1777.0 ], [ 1441.0, 1777.0 ] ] ] } },
{ "type": "Feature", "properties": { "layer": "water" }, "geometry": { "type": "Polygon", "coordinates": [ [ [ 973.0, 1773.0 ], [ 964.0, 1777.0 ], [ 962.0, 1791.0 ], [ 966.0, 1798.0 ], [ 966.0, 1816.0 ], [ 971.0, 1820.0 ], [ 979.0, 1820.0 ], [ 986.0, 1806.0 ], [ 987.0, 1790.0 ], [ 984.0, 1778.0 ], [ 979.0, 1774.0 ], [ 973.0, 1773.0 ] ] ] } },
{ "type": "Feature", "properties": { "layer": "water" }, "geometry": { "type": "Polygon", "coordinates": [ [ [ 1403.0, 1802.0 ], [ 1398.0, 1806.0 ], [ 1399.0, 1815.0 ], [ 1405.0, 1820.0 ], [ 1414.0, 1822.0 ], [ 1417.0, 1819.0 ], [ 1415.0, 1808.0 ], [ 1412.0, 1804.0 ], [ 1403.0, 1802.0 ] ] ] } },
{ "type": "Feature", "properties": { "layer": "water" }, "geometry": { "type": "Polygon", "coordinates": [ [ [ 1329.0, 1786.0 ], [ 1321.0, 1792.0 ], [ 1315.0, 1805.0 ], [ 1315.0, 1814.0 ], [ 1340.0, 1829.0 ], [ 1347.0, 1827.0 ], [ 1359.0, 1813.0 ], [ 1361.0, 1803.0 ], [ 1347.0, 1792.0 ], [ 1329.0, 1786.0 ] ] ] } },
{ "type": "Feature", "properties": { "layer": "water" }, "geometry": { "type": "Polygon", "coordinates": [ [ [ 1157.0, 1822.0 ], [ 1144.0, 1826.0 ], [ 1137.0, 1825.0 ], [ 1134.0, 1828.0 ], [ 1134.0, 1849.0 ], [ 1137.0, 1856.0 ], [ 1143.0, 1857.0 ], [ 1149.0, 1852.0 ], [ 1162.0, 1852.0 ], [ 1169.0, 1856.0 ], [ 1171.0, 1851.0 ], [ 1177.0, 1848.0 ], [ 1179.0, 1844.0 ], [ 1177.0, 1826.0 ], [ 1169.0, 1822.0 ], [ 1157.0, 1822.0 ] ] ] } },
{ "type": "Feature", "properties": { "layer": "water" }, "geometry": { "type": "Polygon", "coordinates": [ [ [ 1455.0, 1856.0 ], [ 1451.0, 1861.0 ], [ 1451.0, 1877.0 ], [ 1455.0, 1881.0 ], [ 1474.0, 1887.0 ], [ 1477.0, 1884.0 ], [ 1475.0, 1864.0 ], [ 1467.0, 1858.0 ], [ 1455.0, 1856.0 ] ] ] } },
{ "type": "Feature", "properties": { "layer": "water" }, "geometry": { "type": "Polygon", "coordinates": [ [ [ 956.0, 1869.0 ], [ 950.0, 1875.0 ], [ 949.0, 1882.0 ], [ 956.0, 1889.0 ], [ 960.0, 1891.0 ], [ 965.0, 1890.0 ], [ 968.0, 1888.0 ], [ 969.0, 1881.0 ], [ 960.0, 1869.0 ], [ 956.0, 1869.0 ] ] ] } },
{ "type": "Feature", "properties": { "layer": "water" }, "geometry": { "type": "Polygon", "coordinates": [ [ [ 614.0, 1878.0 ], [ 606.0, 1881.0 ], [ 606.0, 1890.0 ], [ 622.0, 1893.0 ], [ 625.0, 1890.0 ], [ 625.0, 1881.0 ], [ 614.0, 1878.0 ] ] ] } },
{ "type": "Feature", "properties": { "layer": "water" }, "geometry": { "type": "Polygon", "coordinates": [ [ [ 1577.0, 1808.0 ], [ 1570.0, 1811.0 ], [ 1571.0, 1815.0 ], [ 1567.0, 1826.0 ], [ 1568.0, 1852.0 ], [ 1559.0, 1879.0 ], [ 1560.0, 1894.0 ], [ 1565.0, 1900.0 ], [ 1573.0, 1899.0 ], [ 1585.0, 1889.0 ], [ 1595.0, 1884.0 ], [ 1609.0, 1885.0 ], [ 1620.0, 1881.0 ], [ 1630.0, 1872.0 ], [ 1636.0, 1853.0 ], [ 1647.0, 1844.0 ], [ 1646.0, 1835.0 ], [ 1623.0, 1817.0 ], [ 1602.0, 1809.0 ], [ 1577.0, 1808.0 ] ] ] } },
{ "type": "Feature", "properties": { "layer": "water" }, "geometry": { "type": "Polygon", "coordinates": [ [ [ 667.0, 1905.0 ], [ 660.0, 1910.0 ], [ 656.0, 1918.0 ], [ 656.0, 1922.0 ], [ 660.0, 1927.0 ], [ 664.0, 1927.0 ], [ 671.0, 1920.0 ], [ 674.0, 1913.0 ], [ 674.0, 1910.0 ], [ 667.0, 1905.0 ] ] ] } },
{ "type": "Feature", "properties": { "layer": "water" }, "geometry": { "type": "Polygon", "coordinates": [ [ [ 1670.0, 1940.0 ], [ 1661.0, 1947.0 ], [ 1660.0, 1955.0 ], [ 1666.0, 1962.0 ], [ 1678.0, 1970.0 ], [ 1682.0, 1972.0 ], [ 1689.0, 1971.0 ], [ 1692.0, 1967.0 ], [ 1691.0, 1957.0 ], [ 1681.0, 1946.0 ], [ 1670.0, 1940.0 ] ] ] } },
{ "type": "Feature", "properties": { "layer": "water" }, "geometry": { "type": "Polygon", "coordinates": [ [ [ 1722.0, 1966.0 ], [ 1711.0, 1977.0 ], [ 1711.0, 1982.0 ], [ 1715.0, 1985.0 ], [ 1725.0, 1983.0 ], [ 1732.0, 1976.0 ], [ 1732.0, 1972.0 ], [ 1727.0, 1967.0 ], [ 1722.0, 1966.0 ] ] ] } },
{ "type": "Feature", "properties": { "layer": "water" }, "geometry": { "type": "Polygon", "coordinates": [ [ [ 934.0, 1979.0 ], [ 927.0, 1983.0 ], [ 921.0, 1991.0 ], [ 921.0, 1995.0 ], [ 925.0, 1999.0 ], [ 931.0, 1998.0 ], [ 940.0, 1988.0 ], [ 939.0, 1981.0 ], [ 934.0, 1979.0 ] ] ] } },
{ "type": "Feature", "properties": { "layer": "water" }, "geometry": { "type": "Polygon", "coordinates": [ [ [ 1973.0, 1933.0 ], [ 1966.0, 1936.0 ], [ 1959.0, 1943.0 ], [ 1957.0, 1959.0 ], [ 1963.0, 1969.0 ], [ 1988.0, 1994.0 ], [ 2000.0, 2001.0 ], [ 2005.0, 2000.0 ], [ 2010.0, 1995.0 ], [ 2010.0, 1987.0 ], [ 2002.0, 1976.0 ], [ 1985.0, 1941.0 ], [ 1979.0, 1934.0 ], [ 1973.0, 1933.0 ] ] ] } },
{ "type": "Feature", "properties": { "layer": "water" }, "geometry": { "type": "Polygon", "coordinates": [ [ [ 742.0, 1878.0 ], [ 728.0, 1889.0 ], [ 720.0, 1900.0 ], [ 726.0, 1923.0 ], [ 726.0, 1948.0 ], [ 732.0, 1962.0 ], [ 732.0, 1987.0 ], [ 736.0, 2000.0 ], [ 739.0, 2029.0 ], [ 742.0, 2034.0 ], [ 752.0, 2034.0 ], [ 759.0, 2031.0 ], [ 769.0, 2033.0 ], [ 772.0, 2036.0 ], [ 772.0, 2041.0 ], [ 763.0, 2046.0 ], [ 766.0, 2052.0 ], [ 775.0, 2051.0 ], [ 779.0, 2048.0 ], [ 789.0, 2049.0 ], [ 796.0, 2046.0 ], [ 803.0, 2032.0 ], [ 823.0, 2014.0 ], [ 835.0, 1981.0 ], [ 842.0, 1971.0 ], [ 855.0, 1961.0 ], [ 877.0, 1952.0 ], [ 882.0, 1945.0 ], [ 873.0, 1936.0 ], [ 845.0, 1926.0 ], [ 794.0, 1902.0 ], [ 792.0, 1899.0 ], [ 789.0, 1900.0 ], [ 763.0, 1886.0 ], [ 742.0, 1878.0 ] ] ] } },
{ "type": "Feature", "properties": { "layer": "water" }, "geometry": { "type": "Polygon", "coordinates": [ [ [ 1899.0, 2063.0 ], [ 1887.0, 2068.0 ], [ 1886.0, 2076.0 ], [ 1889.0, 2081.0 ], [ 1896.0, 2081.0 ], [ 1914.0, 2071.0 ], [ 1913.0, 2063.0 ], [ 1899.0, 2063.0 ] ] ] } },
{ "type": "Feature", "properties": { "layer": "water" }, "geometry": { "type": "Polygon", "coordinates": [ [ [ 543.0, 2092.0 ], [ 542.0, 2099.0 ], [ 549.0, 2106.0 ], [ 559.0, 2105.0 ], [ 560.0, 2096.0 ], [ 557.0, 2092.0 ], [ 543.0, 2092.0 ] ] ] } },
{ "type": "Feature", "properties": { "layer": "water" }, "geometry": { "type": "Polygon", "coordinates": [ [ [ 1982.0, 2147.0 ], [ 1979.0, 2158.0 ], [ 1984.0, 2166.0 ], [ 1991.0, 2166.0 ], [ 1995.0, 2162.0 ], [ 1994.0, 2154.0 ], [ 1989.0, 2148.0 ], [ 1982.0, 2147.0 ] ] ] } },
{ "type": "Feature", "properties": { "layer": "water" }, "geometry": { "type": "Polygon", "coordinates": [ [ [ 478.0, 2135.0 ], [ 470.0, 2141.0 ], [ 470.0, 2152.0 ], [ 476.0, 2171.0 ], [ 480.0, 2174.0 ], [ 487.0, 2174.0 ], [ 495.0, 2169.0 ], [ 496.0, 2162.0 ], [ 487.0, 2139.0 ], [ 484.0, 2136.0 ], [ 478.0, 2135.0 ] ] ] } },
{ "type": "Feature", "properties": { "layer": "water" }, "geometry": { "type": "Polygon", "coordinates": [ [ [ 336.0, 2174.0 ], [ 326.0, 2186.0 ], [ 326.0, 2190.0 ], [ 331.0, 2195.0 ], [ 343.0, 2195.0 ], [ 345.0, 2183.0 ], [ 342.0, 2177.0 ], [ 336.0, 2174.0 ] ] ] } },
{ "type": "Feature", "properties": { "layer": "water" }, "geometry": { "type": "Polygon", "coordinates": [ [ [ 1976.0, 1592.0 ], [ 1976.0, 1597.0 ], [ 1973.0, 1600.0 ], [ 1978.0, 1631.0 ], [ 2002.0, 1681.0 ], [ 2010.0, 1693.0 ], [ 2022.0, 1704.0 ], [ 2042.0, 1740.0 ], [ 2061.0, 1760.0 ], [ 2105.0, 1797.0 ], [ 2119.0, 1812.0 ], [ 2128.0, 1828.0 ], [ 2128.0, 1832.0 ], [ 2132.0, 1836.0 ], [ 2150.0, 1880.0 ], [ 2162.0, 1902.0 ], [ 2165.0, 1915.0 ], [ 2174.0, 1929.0 ], [ 2179.0, 1942.0 ], [ 2194.0, 1958.0 ], [ 2216.0, 1995.0 ], [ 2249.0, 2066.0 ], [ 2261.0, 2130.0 ], [ 2274.0, 2173.0 ], [ 2279.0, 2181.0 ], [ 2293.0, 2224.0 ], [ 2295.0, 2227.0 ], [ 2301.0, 2227.0 ], [ 2302.0, 2216.0 ], [ 2297.0, 2208.0 ], [ 2293.0, 2191.0 ], [ 2271.0, 2135.0 ], [ 2269.0, 2116.0 ], [ 2265.0, 2103.0 ], [ 2265.0, 2092.0 ], [ 2263.0, 2091.0 ], [ 2254.0, 2062.0 ], [ 2254.0, 2054.0 ], [ 2250.0, 2052.0 ], [ 2230.0, 2008.0 ], [ 2206.0, 1968.0 ], [ 2205.0, 1963.0 ], [ 2179.0, 1928.0 ], [ 2162.0, 1887.0 ], [ 2153.0, 1871.0 ], [ 2150.0, 1860.0 ], [ 2147.0, 1857.0 ], [ 2138.0, 1831.0 ], [ 2129.0, 1817.0 ], [ 2129.0, 1812.0 ], [ 2125.0, 1810.0 ], [ 2111.0, 1793.0 ], [ 2063.0, 1752.0 ], [ 2051.0, 1740.0 ], [ 2047.0, 1732.0 ], [ 2042.0, 1730.0 ], [ 2030.0, 1704.0 ], [ 2010.0, 1682.0 ], [ 1996.0, 1650.0 ], [ 1985.0, 1631.0 ], [ 1980.0, 1601.0 ], [ 1981.0, 1593.0 ], [ 1976.0, 1592.0 ] ] ] } },
{ "type": "Feature", "properties": { "layer": "water" }, "geometry": { "type": "Polygon", "coordinates": [ [ [ 589.0, 2238.0 ], [ 578.0, 2250.0 ], [ 576.0, 2260.0 ], [ 581.0, 2265.0 ], [ 600.0, 2265.0 ], [ 605.0, 2256.0 ], [ 606.0, 2248.0 ], [ 599.0, 2241.0 ], [ 589.0, 2238.0 ] ] ] } }
]
}
