{
"type": "FeatureCollection",
"name": "buildings",
"features": [
{ "type": "Feature", "properties": { "layer": "buildings" }, "geometry": { "type": "Polygon", "coordinates": [ [ [ 373.0, 16.0 ], [ 367.0, 16.0 ], [ 369.0, 21.0 ], [ 375.0, 20.0 ], [ 373.0, 16.0 ] ], [ [ 369.0, 17.0 ], [ 371.0, 17.0 ], [ 372.0, 20.0 ], [ 370.0, 20.0 ], [ 369.0, 17.0 ] ] ] } },
{ "type": "Feature", "properties": { "layer": "buildings" }, "geometry": { "type": "Polygon", "coordinates": [ [ [ 668.0, 18.0 ], [ 676.0, 24.0 ], [ 679.0, 23.0 ], [ 679.0, 18.0 ], [ 676.0, 20.0 ], [ 668.0, 18.0 ] ] ] } },
{ "type": "Feature", "properties": { "layer": "buildings" }, "geometry": { "type": "Polygon", "coordinates": [ [ [ 2200.0, 114.0 ], [ 2199.0, 134.0 ], [ 2200.0, 134.0 ], [ 2200.0, 114.0 ] ] ] } },
{ "type": "Feature", "properties": { "layer": "buildings" }, "geometry": { "type": "Polygon", "coordinates": [ [ [ 2200.0, 202.0 ], [ 2199.0, 450.0 ], [ 2200.0, 450.0 ], [ 2200.0, 202.0 ] ] ] } },
{ "type": "Feature", "properties": { "layer": "buildings" }, "geometry": { "type": "Polygon", "coordinates": [ [ [ 5.0, 417.0 ], [ 4.0, 501.0 ], [ 5.0, 501.0 ], [ 5.0, 417.0 ] ] ] } },
{ "type": "Feature", "properties": { "layer": "buildings" }, "geometry": { "type": "Polygon", "coordinates": [ [ [ 1702.0, 525.0 ], [ 1703.0, 527.0 ], [ 1700.0, 527.0 ], [ 1700.0, 531.0 ], [ 1705.0, 529.0 ], [ 1705.0, 525.0 ], [ 1702.0, 525.0 ] ] ] } },
{ "type": "Feature", "properties": { "layer": "buildings" }, "geometry": { "type": "Polygon", "coordinates": [ [ [ 2200.0, 451.0 ], [ 2199.0, 544.0 ], [ 2200.0, 544.0 ], [ 2200.0, 451.0 ] ] ] } },
{ "type": "Feature", "properties": { "layer": "buildings" }, "geometry": { "type": "Polygon", "coordinates": [ [ [ 565.0, 595.0 ], [ 565.0, 598.0 ], [ 569.0, 598.0 ], [ 567.0, 599.0 ], [ 567.0, 602.0 ], [ 569.0, 602.0 ], [ 572.0, 598.0 ], [ 571.0, 595.0 ], [ 569.0, 597.0 ], [ 565.0, 595.0 ] ] ] } },
{ "type": "Feature", "properties": { "layer": "buildings" }, "geometry": { "type": "Polygon", "coordinates": [ [ [ 581.0, 625.0 ], [ 579.0, 627.0 ], [ 583.0, 628.0 ], [ 581.0, 633.0 ], [ 584.0, 635.0 ], [ 585.0, 626.0 ], [ 582.0, 627.0 ], [ 581.0, 625.0 ] ] ] } },
{ "type": "Feature", "properties": { "layer": "buildings" }, "geometry": { "type": "Polygon", "coordinates": [ [ [ 1120.0, 722.0 ], [ 1112.0, 727.0 ], [ 1131.0, 725.0 ], [ 1122.0, 724.0 ], [ 1120.0, 722.0 ] ] ] } },
{ "type": "Feature", "properties": { "layer": "buildings" }, "geometry": { "type": "Polygon", "coordinates": [ [ [ 4.0, 754.0 ], [ 2.0, 772.0 ], [ 4.0, 784.0 ], [ 4.0, 754.0 ] ] ] } },
{ "type": "Feature", "properties": { "layer": "buildings" }, "geometry": { "type": "Polygon", "coordinates": [ [ [ 698.0, 916.0 ], [ 706.0, 920.0 ], [ 714.0, 920.0 ], [ 711.0, 918.0 ], [ 713.0, 916.0 ], [ 698.0, 916.0 ] ], [ [ 707.0, 918.0 ], [ 709.0, 917.0 ], [ 709.0, 918.0 ], [ 707.0, 918.0 ] ] ] } },
{ "type": "Feature", "properties": { "layer": "buildings" }, "geometry": { "type": "Polygon", "coordinates": [ [ [ 2200.0, 545.0 ], [ 2199.0, 966.0 ], [ 2200.0, 966.0 ], [ 2200.0, 545.0 ] ] ] } },
{ "type": "Feature", "properties": { "layer": "buildings" }, "geometry": { "type": "Polygon", "coordinates": [ [ [ 402.0, 1067.0 ], [ 401.0, 1069.0 ], [ 388.0, 1070.0 ], [ 371.0, 1068.0 ], [ 368.0, 1069.0 ], [ 368.0, 1072.0 ], [ 369.0, 1074.0 ], [ 401.0, 1074.0 ], [ 402.0, 1072.0 ], [ 415.0, 1074.0 ], [ 415.0, 1071.0 ], [ 409.0, 1071.0 ], [ 411.0, 1070.0 ], [ 409.0, 1067.0 ], [ 402.0, 1067.0 ] ] ] } },
{ "type": "Feature", "properties": { "layer": "buildings" }, "geometry": { "type": "Polygon", "coordinates": [ [ [ 445.0, 1067.0 ], [ 443.0, 1072.0 ], [ 437.0, 1071.0 ], [ 437.0, 1074.0 ], [ 450.0, 1073.0 ], [ 451.0, 1068.0 ], [ 445.0, 1067.0 ] ] ] } },
{ "type": "Feature", "properties": { "layer": "buildings" }, "geometry": { "type": "Polygon", "coordinates": [ [ [ 423.0, 1064.0 ], [ 422.0, 1067.0 ], [ 419.0, 1067.0 ], [ 420.0, 1071.0 ], [ 417.0, 1073.0 ], [ 425.0, 1073.0 ], [ 423.0, 1064.0 ] ], [ [ 421.0, 1071.0 ], [ 422.0, 1068.0 ], [ 423.0, 1072.0 ], [ 421.0, 1071.0 ] ] ] } },
{ "type": "Feature", "properties": { "layer": "buildings" }, "geometry": { "type": "Polygon", "coordinates": [ [ [ 394.0, 1076.0 ], [ 379.0, 1077.0 ], [ 379.0, 1079.0 ], [ 386.0, 1081.0 ], [ 384.0, 1080.0 ], [ 386.0, 1078.0 ], [ 397.0, 1078.0 ], [ 394.0, 1076.0 ] ] ] } },
{ "type": "Feature", "properties": { "layer": "buildings" }, "geometry": { "type": "Polygon", "coordinates": [ [ [ 1440.0, 1074.0 ], [ 1441.0, 1077.0 ], [ 1436.0, 1080.0 ], [ 1442.0, 1083.0 ], [ 1442.0, 1074.0 ], [ 1440.0, 1074.0 ] ] ] } },
{ "type": "Feature", "properties": { "layer": "buildings" }, "geometry": { "type": "Polygon", "coordinates": [ [ [ 349.0, 1080.0 ], [ 353.0, 1081.0 ], [ 349.0, 1085.0 ], [ 357.0, 1086.0 ], [ 356.0, 1080.0 ], [ 349.0, 1080.0 ] ] ] } },
{ "type": "Feature", "properties": { "layer": "buildings" }, "geometry": { "type": "Polygon", "coordinates": [ [ [ 412.0, 1075.0 ], [ 408.0, 1078.0 ], [ 413.0, 1079.0 ], [ 408.0, 1080.0 ], [ 409.0, 1083.0 ], [ 402.0, 1082.0 ], [ 402.0, 1085.0 ], [ 420.0, 1086.0 ], [ 421.0, 1084.0 ], [ 417.0, 1085.0 ], [ 416.0, 1083.0 ], [ 418.0, 1077.0 ], [ 412.0, 1075.0 ] ], [ [ 414.0, 1080.0 ], [ 415.0, 1078.0 ], [ 415.0, 1080.0 ], [ 414.0, 1080.0 ] ], [ [ 411.0, 1083.0 ], [ 412.0, 1082.0 ], [ 412.0, 1083.0 ], [ 411.0, 1083.0 ] ], [ [ 410.0, 1084.0 ], [ 411.0, 1083.0 ], [ 411.0, 1084.0 ], [ 410.0, 1084.0 ] ] ] } },
{ "type": "Feature", "properties": { "layer": "buildings" }, "geometry": { "type": "Polygon", "coordinates": [ [ [ 370.0, 1079.0 ], [ 369.0, 1085.0 ], [ 375.0, 1086.0 ], [ 376.0, 1080.0 ], [ 370.0, 1079.0 ] ] ] } },
{ "type": "Feature", "properties": { "layer": "buildings" }, "geometry": { "type": "Polygon", "coordinates": [ [ [ 2200.0, 967.0 ], [ 2199.0, 1112.0 ], [ 2200.0, 1112.0 ], [ 2200.0, 967.0 ] ] ] } },
{ "type": "Feature", "properties": { "layer": "buildings" }, "geometry": { "type": "Polygon", "coordinates": [ [ [ 1731.0, 1112.0 ], [ 1710.0, 1113.0 ], [ 1731.0, 1113.0 ], [ 1731.0, 1112.0 ] ] ] } },
{ "type": "Feature", "properties": { "layer": "buildings" }, "geometry": { "type": "Polygon", "coordinates": [ [ [ 1766.0, 1117.0 ], [ 1580.0, 1118.0 ], [ 1766.0, 1118.0 ], [ 1766.0, 1117.0 ] ] ] } }
]
}
