{
"type": "FeatureCollection",
"name": "roads",
"features": [
{ "type": "Feature", "properties": { "layer": "roads" }, "geometry": { "type": "Polygon", "coordinates": [ [ [ 66.0, 0.0 ], [ 45.0, 1.0 ], [ 66.0, 1.0 ], [ 66.0, 0.0 ] ] ] } },
{ "type": "Feature", "properties": { "layer": "roads" }, "geometry": { "type": "Polygon", "coordinates": [ [ [ 320.0, 0.0 ], [ 164.0, 1.0 ], [ 320.0, 1.0 ], [ 320.0, 0.0 ] ] ] } },
{ "type": "Feature", "properties": { "layer": "roads" }, "geometry": { "type": "Polygon", "coordinates": [ [ [ 414.0, 0.0 ], [ 379.0, 1.0 ], [ 414.0, 1.0 ], [ 414.0, 0.0 ] ] ] } },
{ "type": "Feature", "properties": { "layer": "roads" }, "geometry": { "type": "Polygon", "coordinates": [ [ [ 518.0, 0.0 ], [ 416.0, 1.0 ], [ 518.0, 1.0 ], [ 518.0, 0.0 ] ] ] } },
{ "type": "Feature", "properties": { "layer": "roads" }, "geometry": { "type": "Polygon", "coordinates": [ [ [ 636.0, 0.0 ], [ 599.0, 1.0 ], [ 636.0, 1.0 ], [ 636.0, 0.0 ] ] ] } },
{ "type": "Feature", "properties": { "layer": "roads" }, "geometry": { "type": "Polygon", "coordinates": [ [ [ 906.0, 0.0 ], [ 879.0, 1.0 ], [ 906.0, 1.0 ], [ 906.0, 0.0 ] ] ] } },
{ "type": "Feature", "properties": { "layer": "roads" }, "geometry": { "type": "Polygon", "coordinates": [ [ [ 1014.0, 0.0 ], [ 978.0, 1.0 ], [ 1014.0, 1.0 ], [ 1014.0, 0.0 ] ] ] } },
{ "type": "Feature", "properties": { "layer": "roads" }, "geometry": { "type": "Polygon", "coordinates": [ [ [ 1165.0, 0.0 ], [ 1137.0, 1.0 ], [ 1165.0, 1.0 ], [ 1165.0, 0.0 ] ] ] } },
{ "type": "Feature", "properties": { "layer": "roads" }, "geometry": { "type": "Polygon", "coordinates": [ [ [ 1500.0, 0.0 ], [ 1480.0, 1.0 ], [ 1500.0, 1.0 ], [ 1500.0, 0.0 ] ] ] } },
{ "type": "Feature", "properties": { "layer": "roads" }, "geometry": { "type": "Polygon", "coordinates": [ [ [ 1608.0, 0.0 ], [ 1558.0, 1.0 ], [ 1608.0, 1.0 ], [ 1608.0, 0.0 ] ] ] } },
{ "type": "Feature", "properties": { "layer": "roads" }, "geometry": { "type": "Polygon", "coordinates": [ [ [ 1694.0, 0.0 ], [ 1671.0, 1.0 ], [ 1694.0, 1.0 ], [ 1694.0, 0.0 ] ] ] } },
{ "type": "Feature", "properties": { "layer": "roads" }, "geometry": { "type": "Polygon", "coordinates": [ [ [ 1767.0, 0.0 ], [ 1747.0, 1.0 ], [ 1767.0, 1.0 ], [ 1767.0, 0.0 ] ] ] } },
{ "type": "Feature", "properties": { "layer": "roads" }, "geometry": { "type": "Polygon", "coordinates": [ [ [ 1841.0, 0.0 ], [ 1778.0, 1.0 ], [ 1841.0, 1.0 ], [ 1841.0, 0.0 ] ] ] } },
{ "type": "Feature", "properties": { "layer": "roads" }, "geometry": { "type": "Polygon", "coordinates": [ [ [ 2013.0, 0.0 ], [ 1986.0, 1.0 ], [ 2013.0, 1.0 ], [ 2013.0, 0.0 ] ] ] } },
{ "type": "Feature", "properties": { "layer": "roads" }, "geometry": { "type": "Polygon", "coordinates": [ [ [ 2091.0, 0.0 ], [ 2063.0, 1.0 ], [ 2091.0, 1.0 ], [ 2091.0, 0.0 ] ] ] } },
{ "type": "Feature", "properties": { "layer": "roads" }, "geometry": { "type": "Polygon", "coordinates": [ [ [ 2194.0, 0.0 ], [ 2167.0, 1.0 ], [ 2194.0, 1.0 ], [ 2194.0, 0.0 ] ] ] } }
]
}
