{
"type": "FeatureCollection",
"name": "contours",
"features": [
{ "type": "Feature", "properties": { "layer": "contours" }, "geometry": { "type": "LineString", "coordinates": [ [ 198.0, 423.0 ], [ 199.0, 430.0 ], [ 202.0, 436.0 ] ] } },
{ "type": "Feature", "properties": { "layer": "contours" }, "geometry": { "type": "LineString", "coordinates": [ [ 695.0, 709.0 ], [ 707.0, 711.0 ], [ 709.0, 709.0 ] ] } },
{ "type": "Feature", "properties": { "layer": "contours" }, "geometry": { "type": "LineString", "coordinates": [ [ 1106.0, 826.0 ], [ 1109.0, 825.0 ] ] } },
{ "type": "Feature", "properties": { "layer": "contours" }, "geometry": { "type": "LineString", "coordinates": [ [ 1186.0, 917.0 ], [ 1207.0, 957.0 ] ] } },
{ "type": "Feature", "properties": { "layer": "contours" }, "geometry": { "type": "LineString", "coordinates": [ [ 1201.0, 859.0 ], [ 1203.0, 860.0 ], [ 1211.0, 852.0 ], [ 1212.0, 848.0 ] ] } },
{ "type": "Feature", "properties": { "layer": "contours" }, "geometry": { "type": "LineString", "coordinates": [ [ 1374.0, 1016.0 ], [ 1384.0, 1000.0 ] ] } },
{ "type": "Feature", "properties": { "layer": "contours" }, "geometry": { "type": "LineString", "coordinates": [ [ 1391.0, 987.0 ], [ 1394.0, 985.0 ], [ 1401.0, 971.0 ], [ 1405.0, 967.0 ] ] } },
{ "type": "Feature", "properties": { "layer": "contours" }, "geometry": { "type": "LineString", "coordinates": [ [ 1486.0, 630.0 ], [ 1488.0, 635.0 ], [ 1495.0, 642.0 ] ] } },
{ "type": "Feature", "properties": { "layer": "contours" }, "geometry": { "type": "LineString", "coordinates": [ [ 1504.0, 944.0 ], [ 1523.0, 923.0 ] ] } },
{ "type": "Feature", "properties": { "layer": "contours" }, "geometry": { "type": "LineString", "coordinates": [ [ 1514.0, 951.0 ], [ 1517.0, 953.0 ] ] } },
{ "type": "Feature", "properties": { "layer": "contours" }, "geometry": { "type": "LineString", "coordinates": [ [ 1517.0, 953.0 ], [ 1517.0, 955.0 ] ] } },
{ "type": "Feature", "properties": { "layer": "contours" }, "geometry": { "type": "LineString", "coordinates": [ [ 1517.0, 953.0 ], [ 1521.0, 948.0 ] ] } },
{ "type": "Feature", "properties": { "layer": "contours" }, "geometry": { "type": "LineString", "coordinates": [ [ 1609.0, 895.0 ], [ 1606.0, 897.0 ], [ 1605.0, 906.0 ], [ 1602.0, 910.0 ] ] } },
{ "type": "Feature", "properties": { "layer": "contours" }, "geometry": { "type": "LineString", "coordinates": [ [ 1614.0, 891.0 ], [ 1624.0, 886.0 ], [ 1626.0, 889.0 ], [ 1625.0, 896.0 ] ] } },
{ "type": "Feature", "properties": { "layer": "contours" }, "geometry": { "type": "LineString", "coordinates": [ [ 1643.0, 764.0 ], [ 1639.0, 777.0 ] ] } },
{ "type": "Feature", "properties": { "layer": "contours" }, "geometry": { "type": "LineString", "coordinates": [ [ 1663.0, 581.0 ], [ 1665.0, 587.0 ], [ 1666.0, 607.0 ], [ 1669.0, 615.0 ] ] } },
{ "type": "Feature", "properties": { "layer": "contours" }, "geometry": { "type": "LineString", "coordinates": [ [ 1814.0, 1213.0 ], [ 1818.0, 1213.0 ], [ 1821.0, 1211.0 ], [ 1829.0, 1200.0 ] ] } },
{ "type": "Feature", "properties": { "layer": "contours" }, "geometry": { "type": "LineString", "coordinates": [ [ 1829.0, 1309.0 ], [ 1836.0, 1308.0 ], [ 1838.0, 1306.0 ], [ 1846.0, 1307.0 ] ] } },
{ "type": "Feature", "properties": { "layer": "contours" }, "geometry": { "type": "LineString", "coordinates": [ [ 1847.0, 735.0 ], [ 1849.0, 735.0 ], [ 1856.0, 741.0 ] ] } },
{ "type": "Feature", "properties": { "layer": "contours" }, "geometry": { "type": "LineString", "coordinates": [ [ 1857.0, 1248.0 ], [ 1869.0, 1245.0 ] ] } },
{ "type": "Feature", "properties": { "layer": "contours" }, "geometry": { "type": "LineString", "coordinates": [ [ 1886.0, 909.0 ], [ 1898.0, 899.0 ] ] } },
{ "type": "Feature", "properties": { "layer": "contours" }, "geometry": { "type": "LineString", "coordinates": [ [ 1962.0, 442.0 ], [ 1964.0, 442.0 ] ] } },
{ "type": "Feature", "properties": { "layer": "contours" }, "geometry": { "type": "LineString", "coordinates": [ [ 1964.0, 442.0 ], [ 1965.0, 442.0 ] ] } },
{ "type": "Feature", "properties": { "layer": "contours" }, "geometry": { "type": "LineString", "coordinates": [ [ 1964.0, 442.0 ], [ 1965.0, 441.0 ] ] } },
{ "type": "Feature", "properties": { "layer": "contours" }, "geometry": { "type": "LineString", "coordinates": [ [ 1965.0, 441.0 ], [ 1965.0, 442.0 ] ] } },
{ "type": "Feature", "properties": { "layer": "contours" }, "geometry": { "type": "LineString", "coordinates": [ [ 1965.0, 441.0 ], [ 1966.0, 439.0 ], [ 1968.0, 439.0 ] ] } },
{ "type": "Feature", "properties": { "layer": "contours" }, "geometry": { "type": "LineString", "coordinates": [ [ 1965.0, 442.0 ], [ 1967.0, 443.0 ], [ 1969.0, 440.0 ] ] } },
{ "type": "Feature", "properties": { "layer": "contours" }, "geometry": { "type": "LineString", "coordinates": [ [ 1968.0, 439.0 ], [ 1969.0, 439.0 ] ] } },
{ "type": "Feature", "properties": { "layer": "contours" }, "geometry": { "type": "LineString", "coordinates": [ [ 1968.0, 439.0 ], [ 1969.0, 440.0 ] ] } },
{ "type": "Feature", "properties": { "layer": "contours" }, "geometry": { "type": "LineString", "coordinates": [ [ 1969.0, 439.0 ], [ 1970.0, 439.0 ] ] } },
{ "type": "Feature", "properties": { "layer": "contours" }, "geometry": { "type": "LineString", "coordinates": [ [ 1969.0, 439.0 ], [ 1969.0, 440.0 ] ] } },
{ "type": "Feature", "properties": { "layer": "contours" }, "geometry": { "type": "LineString", "coordinates": [ [ 1969.0, 440.0 ], [ 1970.0, 439.0 ] ] } },
{ "type": "Feature", "properties": { "layer": "contours" }, "geometry": { "type": "LineString", "coordinates": [ [ 1970.0, 439.0 ], [ 1973.0, 436.0 ] ] } },
{ "type": "Feature", "properties": { "layer": "contours" }, "geometry": { "type": "LineString", "coordinates": [ [ 2074.0, 875.0 ], [ 2079.0, 875.0 ], [ 2081.0, 877.0 ], [ 2086.0, 878.0 ] ] } },
{ "type": "Feature", "properties": { "layer": "contours" }, "geometry": { "type": "LineString", "coordinates": [ [ 2101.0, 900.0 ], [ 2107.0, 913.0 ] ] } },
{ "type": "Feature", "properties": { "layer": "contours" }, "geometry": { "type": "LineString", "coordinates": [ [ 2130.0, 322.0 ], [ 2137.0, 309.0 ] ] } },
{ "type": "Feature", "properties": { "layer": "contours" }, "geometry": { "type": "LineString", "coordinates": [ [ 2147.0, 1008.0 ], [ 2150.0, 1010.0 ], [ 2155.0, 1008.0 ], [ 2163.0, 1008.0 ] ] } },
{ "type": "Feature", "properties": { "layer": "contours" }, "geometry": { "type": "LineString", "coordinates": [ [ 2161.0, 391.0 ], [ 2173.0, 374.0 ] ] } },
{ "type": "Feature", "properties": { "layer": "contours" }, "geometry": { "type": "LineString", "coordinates": [ [ 2168.0, 1082.0 ], [ 2173.0, 1082.0 ] ] } },
{ "type": "Feature", "properties": { "layer": "contours" }, "geometry": { "type": "LineString", "coordinates": [ [ 2173.0, 1082.0 ], [ 2174.0, 1082.0 ] ] } },
{ "type": "Feature", "properties": { "layer": "contours" }, "geometry": { "type": "LineString", "coordinates": [ [ 2173.0, 1082.0 ], [ 2174.0, 1081.0 ] ] } },
{ "type": "Feature", "properties": { "layer": "contours" }, "geometry": { "type": "LineString", "coordinates": [ [ 2174.0, 1081.0 ], [ 2174.0, 1082.0 ] ] } },
{ "type": "Feature", "properties": { "layer": "contours" }, "geometry": { "type": "LineString", "coordinates": [ [ 2174.0, 1081.0 ], [ 2175.0, 1080.0 ] ] } },
{ "type": "Feature", "properties": { "layer": "contours" }, "geometry": { "type": "LineString", "coordinates": [ [ 2174.0, 1082.0 ], [ 2180.0, 1083.0 ] ] } }
]
}
